name,address,latitude,longitude
McDonald's ,Bugis Junction Victoria Street #1-K5 Singapore 188021,1.299113161,103.8554112
McDonald's ,Bugis Village Rochor Road #1-42 Singapore 188426,1.300898845,103.8552422
McDonald's , Bukit Batok Central #1-10 Singapore 650632,1.34941218,103.7505387
McDonald's , Bukit Batok Street 11 #1-451 Singapore 650152,1.34830189,103.7442573
McDonald's , Bukit Batok Street 31 #1-27 Singapore 650374,1.358099272,103.7507197
McDonald's ,Bukit Panjang Plaza Jelebu Road #2-24 Singapore 677743,1.380517328,103.7639619
McDonald's ,Causeway Point Woodlands Square #1-9 Singapore 738099,1.436007845,103.7856887
McDonald's ,"Changi Airport Terminal 2 Airport Boulevard, Changi Airport Terminal 2, Mezzanine Level Arrival Meeting #M016-41 Singapore 819643",1.35519094,103.988751
McDonald's ,"Changi Airport Terminal 2 Airport Boulevard, Changi Airport Terminal 2, Departure, Transit Lounge Central #36-151 Singapore 819643",1.35519094,103.988751
McDonald's ,"Changi Airport Terminal 3 Airport Boulevard, Changi Airport Terminal 3, Arrival Meeting Hall South #1-9 Singapore 819663",1.354370736,103.9851697
McDonald's ,"Changi Airport Terminal 4 Airport Boulevard, Changi Airport Terminal 4, Mezzanie Departure , Check-in Hall #2-19 Singapore 819665",1.338008134,103.9834828
McDonald's ,Changi City Point Changi Business Park Central 1 #1-2 Singapore 486038,1.334325156,103.9623893
McDonald's ,Chinatown Point New Bridge Road #1-83 Singapore 59413,1.284998828,103.8446971
McDonald's ,Lot One Choa Chu Kang Avenue 4 #1- Singapore 689812,1.385068357,103.7449504
McDonald's , Choa Chu Kang Street 62 #2-39 Singapore 680624,1.397781391,103.7469741
McDonald's , Choa Chu Kang Street 62 #1-2 Singapore 680623,1.398321338,103.7473449
McDonald's ,Choa Chu Kang MRT Station Choa Chu Kang Avenue 4 #1- Singapore 689810,1.385672711,103.7441391
McDonald's ,Limbang Shopping Centre Choa Chu Kang Street 51 #1- Singapore 680533,1.392073885,103.7430996
McDonald's ,Chong Pang Community Centre Yishun Ring Road #1-2 Singapore 768677,1.43083237,103.8292349
McDonald's ,Choa Chu Kang Community Centre Teck Whye Avenue #1-95 Singapore 688892,1.38115529,103.7519039
McDonald's ,City Square Mall Kitchener Road #B1-125 Singapore 208539,1.311305165,103.8564218
McDonald's , Clementi Avenue 3 #1-19 Singapore 120451,1.31248298,103.7654768
McDonald's ,Clementi Mall Commonwealth Avenue West #1-K2 Singapore 129588,1.314853218,103.7642482
McDonald's ,Parkway Parade Marine Parade Central Parkway Centre #1-1 Singapore 449408,1.301887334,103.905996
McDonald's ,White Sands Shopping Centre Pasir Ris Central Street 3 #1-29 Singapore 518457,1.372449816,103.9497157
McDonald's ,Pasir Ris Sports & Recreation Centre Pasir Ris Central #1-12 Singapore 519640,1.374448456,103.9518225
McDonald's ,Paya Lebar Square Paya Lebar Road #1-68 Singapore 409051,1.31867575,103.8925506
McDonald's ,People's Park Complex Park Road #1-69 Singapore 59108,1.284133909,103.8425196
McDonald's ,Pioneer Mall Jurong West Street 61 #1-1 Singapore 640638,1.34159108,103.6970201
McDonald's ,Plaza Singapura Orchard Road #B1-23 Singapore 238839,1.300747543,103.8450476
McDonald's , Potong Pasir Avenue 1 #1-43 Singapore 350148,1.332354352,103.8677743
McDonald's ,PSA Building (Alexandra Retail Centre) Alexandra Road #1-25 Singapore 119963,1.273676578,103.801127
McDonald's ,Punggol 21 Community Centre Punggol Field #1-2 Singapore 828815,1.393606242,103.9134641
McDonald's ,Punggol Safra Sentul Crescent #3-5 Singapore 828654,1.410113282,103.9060319
McDonald's ,Ridout Tea Garden Queensway #1-1 Singapore 149066,1.304061641,103.8021104
McDonald's ,Queensway Shopping Centre Queensway #2-46 Singapore 149053,1.287617916,103.8033911
McDonald's ,Raffles City Shopping Centre North Bridge Road #1-49 Singapore 179103,1.293760279,103.8527683
Mcdonald's ,REGAL Jalan Bukit Merah #1-1 Singapore 159460,1.283431072,103.8182226
McDonald's ,Resorts World Sentosa Sentosa Gateway #B1-211 Singapore 98138,1.256573486,103.819459
McDonald's ,Rivervale Mall Rivervale Crescent #1-27 Singapore 545082,1.392197776,103.9044716
McDonald's ,Toa Payoh Safra Club House Toa Payoh Lorong 6 #1-2 Singapore 319387,1.329886512,103.8542137
Kopitiam ,Bukit Panjang Plaza Jelebu Road #3-9 Singapore 677743,1.380517328,103.7639619
Kopitiam ,Changi General Hospital Simei Street 3 #-89E Singapore 529889,1.34068474,103.9492944
Kopitiam ,IB@Changi General Hospital Simei Street 3 #-8 Singapore 529905,1.341318526,103.9481934
Kopitiam ,Hougang 1 Shopping Mall Hougang Street 91 #1-K7 Singapore 538692,1.37566728,103.8794503
Kopitiam ,IMM Jurong East Street 21 #3-24 Singapore 609601,1.334898437,103.7467345
Kopitiam ,Harbourfront Centre 1 Maritime Square #1-30 Singapore 99253,1.262063364,103.8186256
Kopitiam ,Hillion Mall 17 Petir Road #2-8 Singapore 678278,1.378349713,103.7627412
Kopitiam ,Singapore Post Centre 10 Eunos Road 8 #3-69 Singapore 408600,1.318856103,103.8940672
Kopitiam ,Changi City Point 5 Changi Business Park Central 1 #2-48 Singapore 486038,1.334325156,103.9623893
Kopitiam ,Jurong East MRT Jurong East Street 12 #1-6 Singapore 609690,1.333295062,103.7421539
Kopitiam ,Wisteria Mall Yishun Ring Road #B1-233 Singapore 768698,1.417999256,103.8412365
Kopitiam , Sumang lane #-109 Singapore 822231,1.40212842,103.8914669
BAGUS @ Causeway Point,Causeway Point Woodlands Square #7-K8 Singapore 738099,1.436007845,103.7856887
Koufu ,100AM Shopping Mall Tras Street #4-14 Singapore 79027,1.27458821,103.8434707
Koufu ,ITE College Central Ang Mo Kio Drive #1-K13 Singapore 567720,1.377892032,103.856412
Koufu ,Anchorpoint Alexandra Road #B1-287 Singapore 159953,1.288614687,103.80501
Koufu ,Cathay Cineleisure Grange Road #B1-22 Singapore 239693,1.301403315,103.8373281
Koufu ,Gek Poh Shopping Mall Jurong West Street 75 #1-7 Singapore 640760,1.349425454,103.6997823
Koufu ,JEM Shopping Mall Jurong Gateway Road #5-2 Singapore 608549,1.33320021,103.7431704
KouFu , 535 Clementi Road #2-825 Singapore 599489,1.332762597,103.7715625
Koufu ,South Spine Food Court Nanyang Avenue #-21 Singapore 639798,1.346764651,103.6788181
Koufu ,University Town Create Way #1-12 Singapore 138602,1.303995508,103.7734922
Koufu ,South Food Court Woodlands Avenue 9 #1-3 Singapore 738964,1.446237734,103.7829712
Koufu ,Rivervale Plaza Rivervale Drive #2-61 Singapore 540118,1.38493202,103.901558
Koufu ,Sembawang Mart Canberra Road #1-1 Singapore 750511,1.453845183,103.8195433
Koufu ,The Star Vista Vista Exchange Green #2-1 Singapore 138617,1.306848818,103.7882145
Koufu ,Thomson Plaza Upper Thomson Road #1- Singapore 574408,1.354669019,103.8309198
Koufu , Toa Payoh Lorong 6 #2-59 Singapore 310500,1.332965491,103.8470504
Koufu ,Woodlands Mart Woodlands Avenue 6 #1-22 Singapore 730768,1.445622899,103.798141
Koufu ,Woodlands Mart Woodlands Avenue 6 #1-K2 Singapore 730768,1.445622899,103.798141
Koufu ,Yew Tee Point Choa Chu Kang North #B1-24 Singapore 689578,1.397301904,103.7465581
Koufu ,Square 2 10 Sinaran Drive #4-27 Singapore 307506,1.320429661,103.8438921
LeNu ,Bugis Juction Victoria Street #B1- Singapore 188021,1.299113161,103.8554112
LeNu ,Compass One Sengkang Square #3- Singapore 545078,1.39209415,103.89498
LeNu ,Vivo City Harbourfront Walk #2- Singapore 98585,1.263895802,103.8215893
McDonald's , Woodlands Avenue 6 #1-174 Singapore 731678,1.440415298,103.8014895
McDonald's ,Alocassia Building Bukit Timah Road #1-K5 Singapore 259727,1.319436168,103.8273459
McDonald's ,Big Mac Centre Ang Mo Kio Avenue 3 #1-10 Singapore 569922,1.369315175,103.8471539
McDonald's , Ang Mo Kio Avenue 4 #1-195 Singapore 560163,1.373551784,103.838169
McDonald's , Ang Mo Kio Avenue 10 #1-151 Singapore 560448,1.367441901,103.8563966
McDonald's , Ang Mo Kio Street 12 #-347 Singapore 567740,1.372474433,103.84474
McDonald's ,Shaw Plaza (Balestier) Balestier Road #1-31 Singapore 329783,1.325126527,103.8510556
McDonald's ,Beauty World Centre Upper Bukit Timah #1-1 Singapore 588177,1.34239284,103.7762505
McDonald's ,Bedok Mall New Upper Changi Road #1-11 Singapore 467360,1.324772068,103.9292677
McDonald's ,Bedok North Shopping Mall Bedok North Street 3 #1-11 Singapore 460539,1.331313862,103.9253073
McDonald's , Bedok Reservoir #1-22 Singapore 470744,1.337860418,103.9216633
McDonald's , Bedok Reservoir Road #1-2 Singapore 470632,1.332050943,103.9141451
NTUC Foodfare ,Khoo Teck Puat Hospital (KTPH) Yishun Central #1-12 Singapore 768828,1.423877598,103.8378537
NTUC Foodfare ,Marina Bay Financial Centre (MBFC) Marina Boulevard #1-1 Singapore 18982,1.279105668,103.8542974
NTUC Foodfare ,Mapletree Business City Pasir Panjang Road #2-21 Singapore 117439,1.274827483,103.7990648
NTUC Foodfare , Choa Chu Kang Ave 4 #1-723 Singapore 680303,1.384548392,103.7437958
NTUC Foodfare ,The Seletar Mall Sengkang West Avenue #3-37 Singapore 797653,1.391393058,103.8760677
NTUC Foodfare ,Sembawang MRT Station Canberra Road #1-5 Singapore 759775,1.449050816,103.8200461
Kopitiam ,Jcube Jurong East Central 1 #B1-10 Singapore 609731,1.333268187,103.7401767
FEAST ,Jurong Point Jurong West Central 2 #3-15 Singapore 648331,1.339364021,103.7053082
Cantine @ Jurong Point,Jurong Point Jurong West Central 2 #B1-14 Singapore 648886,1.339830153,103.7064609
Kopitiam ,KK Women's and Children's Hospital (KKH) Bukit Timah Road #1-49 Singapore 229899,1.310448527,103.8466501
Kopitiam ,Ng Teng Fong General Hospital Tower B Jurong East Street 21 #2-50 Singapore 609606,1.335533819,103.7438655
Kopitiam ,Novena Square Thomson Road #3-17 Singapore 307683,1.320211,103.8436568
Kopitiam ,"National University Hospital (NUH), Main Building Lobby Lower Kent Ridge Road #1-53 Singapore 119074",1.293953054,103.7827095
Kopitiam ,Plaza Singapura 68 Orchard road #6-104 Singapore 238839,1.300747543,103.8450476
Kopitiam ,Housemen's Canteen College Road #1-40 Singapore 169851,1.281783403,103.8348706
Kopitiam ,Singapore General Hospital (SGH) Outram Road #1-K1 Singapore 169608,1.279939682,103.8307218
Kopitiam ,Sun Plaza Sembawang Drive #-47 Singapore 757713,1.448226532,103.8194621
Kopitiam ,"Suntec City, Tower 3 Temasek Boulevard #3-40 Singapore 38983",1.294879041,103.8576755
Kopitiam ,Tampines 1 Tampines Central 1 #5-312 Singapore 529536,1.35431556,103.9450195
Kopitiam ,Tampines Mall Tampines Central 5 #-9 Singapore 529510,1.352672316,103.944388
Kopitiam ,"Changi Airport Terminal 3 Airport Boulevard, Changi Airport Terminal 2 #B2-30 Singapore 819663",1.354370736,103.9851697
Kopitiam ,Tiong Bahru Plaza Tiong Bahru Road #3-57 Singapore 168732,1.286463453,103.8269351
Kopitiam ,Tan Tock Seng Hospital (TTSH) Jalan Tan Tock Seng #1-37 Singapore 308433,1.321715977,103.845389
Kopitiam ,V Hotel Jellicoe Road #1- Singapore 208767,1.307809275,103.8625256
Kopitiam ,Vivo City Harbourfront Walk #B2- Singapore 98585,1.263895802,103.8215893
Kopitiam ,Yishun Community Hospital Yishun Central 2 #- Singapore 768024,1.423767455,103.8372422
Kopitiam ,North Point Shopping Centre No. 930 Yishun Avenue 2 #B2- Singapore 768098,1.438346966,103.83171
Kopitiam ,Changi Airport Terminal 2 60 Airport Boulevard #3M- Singapore 819643,1.35519094,103.988751
Kopitiam ,Compass One 1 Sengkang Drive #4-156 Singapore 545078,1.39209415,103.89498
Kopitiam ,Rivervale Plaza Rivervale Drive #2-158 Singapore 540118,1.38493202,103.901558
McDonald's ,Clementi Bus Interchange Commonwealth Avenue West #1-39 Singapore 120441,1.314989185,103.7641289
McDonald's ,Clifford Centre Raffles Place #B1-111 Singapore 48621,1.283856981,103.8521282
McDonald's ,Compass One Sengkang Square #B1-15 Singapore 545078,1.39209415,103.89498
McDonald's ,"EHUB,Downtown East Pasir Ris Close #1-57 Singapore 519599",1.377140734,103.9535991
McDonald's ,Eastpoint mall Simei Street 6 #1-34 Singapore 528833,1.342706186,103.9530245
McDonald's ,Elias Community Centre Pasir Ris Drive 3 #1-2 Singapore 519498,1.378429437,103.9424764
McDonald's ,Fajar Shopping Centre Fajar Road #1-520 Singapore 670445,1.383580441,103.7707683
McDonald's ,Serene Centre Jalan Serene Serene Centre #1-1 Singapore 258748,1.322590597,103.8136963
McDonald's ,Forum Galleria Orchard Road #B1-25 Singapore 238884,1.306195795,103.828509
McDonald's ,Gardens By The Bay Marina Gardens Drive #2-4 Singapore 18953,1.281297198,103.8611498
McDonald's ,Gek Poh Shopping Mall Jurong West Street 75 #2-250 Singapore 640762,1.348743572,103.6977321
McDonald's , Aljunied Avenue 2 #1-1 Singapore 380113,1.320525957,103.8861593
McDonald's ,Great World City Kim Seng Promenade #1-24 Singapore 237994,1.293802346,103.8317579
McDonald's ,Harbourfront Centre Maritime Square #1-87 Singapore 99253,1.262063364,103.8186256
McDonald's ,Hillion Mall Petir Road #B1-25 Singapore 678278,1.378349713,103.7627412
McDonald's ,Kovan City Hougang Street 21 #1-217 Singapore 530208,1.358696797,103.8866361
McDonald's ,Hougang 1 Shopping Mall Hougang Street 91 #1-26 Singapore 538692,1.37566728,103.8794503
McDonald's , Hougang Avenue 8 #1-999 Singapore 530684,1.373958403,103.8868985
McDonald's ,Hougang (Shell) Hougang Avenue 3 #1-1 Singapore 538846,1.349253766,103.8901441
McDonald's ,Hougang Mall Hougang Avenue 10 #1-17 Singapore 538766,1.372311856,103.8936616
McDonald's ,Beach Station @ Sentosa Siloso Beach Walk #1-4 Singapore 99010,1.2520058,103.8175542
McDonald's ,SCAPE Orchard Link #2-43 Singapore 237978,1.300865434,103.8357008
McDonald's ,The Seletar Mall Sengkang West Avenue #1-4 Singapore 797653,1.391393058,103.8760677
McDonald's ,Rivervale Plaza Rivervale Drive #1-32 Singapore 540118,1.38493202,103.901558
McDonald's ,Sengkang Sports & Recreation Centre Anchorvale Road #2-3 Singapore 544964,1.395501587,103.8857842
McDonald's , Serangoon Avenue 3 #1-37 Singapore 550267,1.353170074,103.8709544
McDonald's ,Siglap Centre Siglap Road #1-7 Singapore 455871,1.31260565,103.9231681
McDonald's ,Singapore Polytechnic Dover Road #1-13 Singapore 139651,1.311239948,103.7744714
McDonald's ,Singapore Science Centre Science Centre Road #- Singapore 609081,1.333227323,103.73566
McDonald's ,SpringLeaf Tower Anson Road #1-3 Singapore 79909,1.27508475,103.8462463
McDonald's ,Sun Plaza Sembawang Drive #1-19 Singapore 757713,1.448226532,103.8194621
McDonald's ,Suntec City mall Temasek Boulevard #2-732 Singapore 38983,1.294879041,103.8576755
McDonald's ,DBS Tampines Central Branch (POSB) Tampines Central 1 #1-150 Singapore 520513,1.353918124,103.9443958
McDonald's , Tampines Central 1 #1-512A Singapore 520512,1.353976844,103.9432506
McDonald's ,Tampines East Community Complex Tampines Street 23 #1-1 Singapore 529341,1.353356826,103.9546205
McDonald's ,Tampines Mall Tampines Central 5 #1-33 Singapore 529510,1.352672316,103.944388
McDonald's ,Tampines Mart Tampines Street 32 #1-1 Singapore 529284,1.354369812,103.9599065
McDonald's ,Tampiness Shell Tampines Avenue 2 #1-2 Singapore 529731,1.349208775,103.9476302
McDonald's ,Tampines West Community Complex Tampines Avenue 3 #1-7 Singapore 529705,1.348750764,103.9356334
McDonald's ,Temasek Polytechnic Tampines Avenue 1 #- Singapore 529757,1.347939478,103.92884
McDonald's ,The Metropolis North Buona Vista Drive #1-8 Singapore 138588,1.306245563,103.7912375
McDonald's ,Tiong Bahru Plaza Tiong Bahru Road #1-145 Singapore 168732,1.286463453,103.8269351
McDonald's ,600@Toa Payoh Toa Payoh Lorong 4 #1-2 Singapore 319515,1.334041707,103.8509555
McDonald's ,HDB Hub Toa Payoh Toa Payoh Lorong 6 #1-11 Singapore 310490,1.33257175,103.8480526
McDonald's ,IMM Jurong East Street 21 #1-18 Singapore 609601,1.334898437,103.7467345
McDonald's ,Jcube Jurong East Central 1 #1-9 Singapore 609731,1.333268187,103.7401767
McDonald's , Jurong Gateway Road #1-63 Singapore 608549,1.33320021,103.7431704
McDonald's ,FairPrice Hub Joo Koon Circle #1-27 Singapore 629117,1.324606646,103.6780964
McDonald's ,Junction 8 Bishan Place #1-20 Singapore 579837,1.350239427,103.8484776
McDonald's ,SuperBowl Jurong Yuan Ching Road #- Singapore 618640,1.325925995,103.7244833
McDonald's , Boon Lay Way #- Singapore 649849,1.339174831,103.7086556
McDonald's , Jurong East Street 24 #1-38 Singapore 600256,1.344235978,103.7382576
McDonald's ,Jurong Spring Community Centre Jurong West Avenue 1 #- Singapore 649520,1.350556032,103.7253416
McDonald's ,Jurong Point Jurong West Central 2 #1-31 Singapore 648886,1.339830153,103.7064609
McDonald's ,Jurong Spring Community Centre Jurong West Street 52 #1-5 Singapore 649296,1.348330169,103.7181557
McDonald's , Stadium Road #- Singapore 397801,1.305233707,103.8819182
McDonald's ,Keat Hong Choa Chu Kang Avenue 1 #1-2 Singapore 680818,1.378026161,103.7488268
McDonald's , Yishun Ring Road #1-3669 Singapore 760846,1.416760143,103.834595
McDonald's ,KK Women's and Children's Hospital (KKH) Bukit Timah Road #1-33 Singapore 229899,1.310448527,103.8466501
McDonald's ,Liang Court River Valley Road #1-01 Singapore 179030,1.291490197,103.8446689
McDonald's ,Loyang Point Pasir Ris Street 21 #1-323 Singapore 510258,1.367000538,103.9646178
McDonald's ,Lucky Chinatown New Bridge Road #1-10 Singapore 59432,1.283653106,103.8433096
McDonald's ,Lucky Plaza Orchard Road #B1-19 Singapore 238863,1.304485791,103.8339419
McDonald's ,Lucky Plaza Orchard Road #B1-19 Singapore 238863,1.304485791,103.8339419
McDonald's ,Marina Square Raffles Boulevard #2-156 Singapore 39594,1.291455259,103.8570073
McDonald's ,Marine Cove East Coast Parkway #1-449876 Singapore 449876,1.301433281,103.9129113
McDonald's ,"Nanyang Technological University (NTU), Blk N2.1 Nanyang Drive #1-8 Singapore 637331",1.347130438,103.6800338
McDonald's ,"NUS, Lee Kong Chian Natural History Museum Estate Office Drive #- Singapore 119077",1.30132731,103.7742773
McDonald's ,NEX Serangoon Central #B2-05 Singapore 556083,1.350438172,103.8717045
McDonald's ,KH KEA Building North Bridge Road #1- Singapore 188721,1.296138733,103.8536095
McDonald's ,North Point Shopping Centre Yishun Avenue 2 #1-1 Singapore 769098,1.42969848,103.8357765
McDonald's ,Parklane Shopping Mall Seletar Road #B1-38 Singapore 188307,1.300651023,103.849442
"Capri by Fraser Caprilicious,Delite ",Changi Business Park Changi Business Park Central 1 #-108 Singapore 486037,1.334265565,103.9635838
Chargrill Bar , Ang Mo Kio Avenue 10 #1- Singapore 560407,1.361913472,103.8552477
Chargrill Bar , Bedok North Street 4 #1- Singapore 460088,1.333133351,103.9391109
Chargrill Bar , Bishan Street 24 #1-1 Singapore 570280,1.357421188,103.8442758
Chargrill Bar , Bukit Batok Street 11 #1- Singapore 650155,1.34791303,103.7434955
Chargrill Bar , Bukit Batok Street 34 #1- Singapore 650347,1.36227034,103.7511929
Chargrill Bar , Bukit Batok East Ave 4 #1-6 Singapore 650273,1.348422645,103.7575792
Chargrill Bar , Bukit Panjang Ring Road #1-141A Singapore 671259,1.377275447,103.7730968
Chargrill Bar , Canberra Link #1-7 Singapore 750505,1.450262014,103.8225347
Chargrill Bar , Choa Chu Kang Crescent #1-4 Singapore 682673,1.400915329,103.7479612
Chargrill Bar , Clementi Ave 3 #1-27 Singapore 120442,1.314122539,103.7645186
Chargrill Bar , Clementi West Street 2 #1-10 Singapore 120727,1.304345422,103.7633937
Chargrill Bar ,Kovan City Hougang Street 21 #1-K7 Singapore 530203,1.358162933,103.8844003
Chargrill Bar , Hougang Ave 8 #1-39 Singapore 530681,1.373110625,103.8856366
Chargrill Bar , Jalan Membina #1-40 Singapore 161026,1.28263437,103.8255958
Chargrill Bar , Jurong Gateway Road #1-55 Singapore 600132,1.334310175,103.7396367
Chargrill Bar , Jurong West Avenue 1 #1-1 Singapore 640491,1.34958656,103.7263153
Chargrill Bar , Lorong Liput #-546 Singapore 277744,1.310741174,103.7949345
Chargrill Bar , Marina Parade Central #1-3 Singapore 440080,1.302482019,103.9077388
Chargrill Bar , Owen Road #1-8 Singapore 210046,1.315140196,103.8507984
Chargrill Bar , Pasir Ris Drive 6 #1-40 Singapore 510443,1.369492842,103.9573481
Chargrill Bar , Sembawang Drive #1-14 Singapore 750463,1.455512082,103.8145403
Chargrill Bar , Serangoon Central Drive #1-4 Singapore 550261,1.353880322,103.8723667
Chargrill Bar , Serangoon North Ave 1 #1-16F Singapore 550107,1.369900391,103.8702249
Hot Tomato ,Bedok Mall New Upper Changi Road #B1-10 Singapore 467360,1.324772068,103.9292677
Hot Tomato ,Causeway Point Woodlands Square #2-2 Singapore 738099,1.436007845,103.7856887
Hot Tomato ,NEX Serangoon Central #B1-8 Singapore 556083,1.350438172,103.8717045
Hot Tomato ,Plaza Singapura Orchard Road #B2-31 Singapore 238839,1.300747543,103.8450476
Hot Tomato ,Jurong Point Jurong West Central 2 #3-379 Singapore 648886,1.339830153,103.7064609
Hot Tomato ,Westgate Gateway Drive #B1-11 Singapore 608532,1.334025287,103.742586
Hot Tomato ,JEWEL Changi Airport 78 Airport Boulevard #4-7 Singapore 819666,1.360340997,103.9890776
Hot Tomato ,Paya Lebar Quarter 10 Paya Lebar Road #4-20 Singapore 409057,1.317523841,103.8927244
Jack's Place ,Anchorpoint Alexandra Road #1-K9 Singapore 159953,1.288614687,103.80501
Jack's Place , Ang Mo Kio Ave 6 #-155 Singapore 560730,1.373433684,103.8457652
Jack's Place ,Bras Basah Complex Bain Street #1-3661 Singapore 180231,1.29701305,103.8535258
Jack's Place ,Compass One Sengkang Square #4-111 Singapore 545078,1.39209415,103.89498
Jack's Place ,Orchard Central Orchard Road #B1-K9 Singapore 238896,1.300838907,103.8394347
Jack's Place ,JEM Jurong Gateway Road #4-208 Singapore 608549,1.33320021,103.7431704
Jack's Place ,NEX Serangoon Central #4-10 Singapore 556083,1.350438172,103.8717045
Jack's Place ,Orange Tee Toa Payoh Lorong 6 #1-25 Singapore 319402,1.331397823,103.8493895
Jack's Place ,Parkway Parade Marine Parade Road #1-14 Singapore 449269,1.301191307,103.9051136
Jack's Place , Sentul Crescent #1- Singapore 828654,1.410113282,103.9060319
Jack's Place ,Safra Club (Jurong) Boon Lay Way #2A-328 Singapore 649848,1.335007217,103.7062787
Jack's Place , West Coast Walk #1-26 Singapore 127157,1.309551379,103.7638373
Jack's Place ,Woodlands Civic Centre South Woodlands Drive #2-21 Singapore 730900,1.435077886,103.7866196
Jack's Place ,JEWEL Changi Airport Aiport Boulevard #4-K01A Singapore 819666,1.360340997,103.9890776
Kampong Group , Bukit Merah Central #-1 Singapore 159837,1.282055393,103.8180782
Kampong Group , Jalan Besar #-K30 Singapore 208827,1.306172782,103.8559937
Chargrill Bar , Sixth Avenue #1-4 Singapore 276474,1.331211827,103.7948254
Chargrill Bar , Upper Changi Road #1-3 Singapore 461059,1.324058985,103.9406956
Chargrill Bar , Yishun Ave 11 #1-K1 Singapore 760417,1.424420951,103.8462845
Chargrill Bar , Woodlands Street 11 #1-5 Singapore 730167,1.433593696,103.7758841
Dian Xiao Er ,Bedok Mall New Upper Changi Road #1-K1 Singapore 467360,1.324772068,103.9292677
Dian Xiao Er , Petir Road #1-2A Singapore 678270,1.378431008,103.7628428
Dian Xiao Er ,JEM Jurong Gateway Road #3-K5 Singapore 608549,1.33320021,103.7431704
Dian Xiao Er ,Junction 8 Bishan Place #B1-K16 Singapore 579837,1.350239427,103.8484776
Dian Xiao Er ,Jurong Point Jurong West Central 2 #3-12A Singapore 648331,1.339364021,103.7053082
Dian Xiao Er ,Lot One Choa Chu Kang Avenue 4 #B1-41 Singapore 689812,1.385068357,103.7449504
Dian Xiao Er ,Marina Square Marina Way #2-23 Singapore 39594,1.291455259,103.8570073
Dian Xiao Er ,NEX Serangoon Central #2-8 Singapore 556083,1.350438172,103.8717045
Dian Xiao Er ,"Changi Airport Terminal 3 Airport Boulevard, Changi Airport Terminal 3 #3-K6 Singapore 819663",1.354370736,103.9851697
Dian Xiao Er ,Vivo City Harbourfront Walk #2-54 Singapore 98585,1.263895802,103.8215893
Dome ,Dempsey Hill Dempsey Road #1-8 Singapore 249673,1.304119795,103.8101126
Dome ,IMM Jurong East street 21 #2-K12 Singapore 609601,1.334898437,103.7467345
Dome ,Parkway Parade Marine Parade Road #1-13 Singapore 449269,1.301191307,103.9051136
Dome ,Isetan Scotts Shaw House Orchard Road #4-30 Singapore 238868,1.305809784,103.8315074
Dome ,UOB Plaza 1 Raffles place #1-29 Singapore 48624,1.285573967,103.8502464
Earle Swensen , Gateway Drive #3- Singapore 608532,1.334025287,103.742586
Earle Swensen ,Vivo City Harbourfront Walk #2-7A Singapore 98585,1.263895802,103.8215893
Fish & Co ,AMK Hub Ang Mo Kio Avenue 3 #2-21 Singapore 569933,1.369248913,103.8483992
Fish & Co ,"Changi Airport Terminal 2 Airport Boulevard, Changi Airport Terminal 2 #36-4 Singapore 819643",1.35519094,103.988751
Fish & Co ,Clementi Mall Commonwealth Avenue West #4-13 Singapore 129588,1.314853218,103.7642482
Fish & Co ,Jurong Point Jurong West Central 2 #3-K2 Singapore 648886,1.339830153,103.7064609
Fish & Co ,Vivo City Keppel Bay Drive #2-71 Singapore 98585,1.263895802,103.8215893
Fish & Co ,NEX Serangoon Central #B1-7 Singapore 556083,1.350438172,103.8717045
Fish & Co ,Novena Square Thomson Road #3-10 Singapore 307683,1.320211,103.8436568
Fish & Co ,Paragon Orchard Road #B1-6 Singapore 238859,1.303723214,103.8352403
Fish & Co ,Sun Plaza Sembwang Road #3-39 Singapore 757713,1.448226532,103.8194621
Fish & Co ,Tampines One Tampines Central 1 #4-9 Singapore 529537,1.35431556,103.9450195
Fish & Co ,Bugis Junction Victoria Street #4-536 Singapore 188067,1.299660159,103.8535181
Fish & Co ,The Seletar Mall Sengkang West Avenue #3-26 Singapore 797653,1.391393058,103.8760677
Fish & Co ,Waterway point Punggol Central #B1-18A Singapore 828761,1.406536107,103.9019882
Formosa Delight ,112 Katong East Coast Road #4-66 Singapore 428802,1.305223056,103.9050439
Formosa Delight ,313 @ Somerset Orchard Road #5-172 Singapore 238895,1.301385095,103.8376844
Formosa Delight ,Bugis Junction Victoria Stree #3-20 Singapore 188021,1.299113161,103.8554112
Formosa Delight ,Causeway Point Woodlands Square #4-27 Singapore 738099,1.436007845,103.7856887
Formosa Delight ,Century Square Tampines Central 5 #3-29 Singapore 529509,1.352278032,103.9437277
Formosa Delight ,Food Junction Simei Street 6 #4-17 Singapore 528833,1.342706186,103.9530245
Formosa Delight ,NEX Serangoon Central #B2-37 Singapore 556083,1.350438172,103.8717045
Formosa Delight ,Parkway Parade Marine Parade Road #B1-K10 Singapore 449269,1.301191307,103.9051136
Formosa Delight ,Raffles City Shopping Centre North Bridge Road #4-37 Singapore 179103,1.293760279,103.8527683
Formosa Delight ,Suntec City Temasek Boulevard #B1-24 Singapore 38983,1.294879041,103.8576755
Formosa Delight ,BreadTalk IHQ Tai Seng Street #1-K22 Singapore 534013,1.334345263,103.8896375
Formosa Delight ,Vivo City Harbourfront Walk #3-43 Singapore 98585,1.263895802,103.8215893
Formosa Delight ,Wisma Atria Orchard Road #4-4A Singapore 238877,1.303698902,103.8331896
Formosa Delight , Clementi Road #-72 Singapore 129749,1.292934363,103.7686936
A,Causeway Point Woodlands Square #3-16 Singapore 738099,1.436007845,103.7856887
A,Chinatown point New Bridge Road #B1-54 Singapore 59413,1.284998828,103.8446971
A,Junction 8 Bishan Place #1-02 Singapore 579837,1.350239427,103.8484776
A,Jurong Point 1 Jurong West Central #3-15 Singapore 648886,1.339830153,103.7064609
A,Nex Serangoon Central #B1-26 Singapore 556083,1.350438172,103.8717045
A,Suntect City Mall Temaske Boulevard #B1- Singapore 38983,1.294879041,103.8576755
A,Tampines One Tampines Central #5-36B Singapore 529536,1.35431556,103.9450195
A,The Seletar Mall Sengkang West Ave #2-41 Singapore 797653,1.391393058,103.8760677
A,Vivo City Harbourfront Walk #B2-133 Singapore 98585,1.263895802,103.8215893
A,Kallang Wave Mall Stadium Place #1-6 Singapore 397628,1.303843268,103.8727507
A,Bedok Mall New Upper Changi Road #B1-10 Singapore 467360,1.324772068,103.9292677
A,Compass One Sengkang West Avenue #2-11 Singapore 545078,1.39209415,103.89498
A,Hillion Mall Petir Road #1-K18 Singapore 678278,1.378349713,103.7627412
A,North Point Shopping Centre Yishun Ave 2 #2-K7 Singapore 769098,1.42969848,103.8357765
A,The Star Vista Vista Exchange Green #1-139 Singapore 138617,1.306848818,103.7882145
A,Tiong Bahru Plaza Tiong Bahru Road #2-22 Singapore 168732,1.286463453,103.8269351
Canton Paradise ,112 Katong East Coast Road #B1-37 Singapore 428802,1.305223056,103.9050439
Canton Paradise ,PSA Building Alexander Road #2-1 Singapore 119963,1.273676578,103.801127
Canton Paradise ,AMK Hub Ang Mo Kio Aveune 3 #B2-51 Singapore 569933,1.369248913,103.8483992
Canton Paradise ,Bedok Mall New Upper Changi Road #B2-11 Singapore 467360,1.324772068,103.9292677
Canton Paradise ,Compass One Sengkang Square #3-12 Singapore 545078,1.39209415,103.89498
Canton Paradise ,Jcube Jurong East Central 1 #2-28 Singapore 609731,1.333268187,103.7401767
Canton Paradise ,The Star Vista Vista Exchange Green #B1- Singapore 138617,1.306848818,103.7882145
McDonald's , Boon Keng Road #1-4 Singapore 330022,1.318176421,103.8614038
McDonald's , Ang Mo Kio Avenue 1 #-49 Singapore 569981,1.361097524,103.8466134
McDonald's ,Boat Quay Conservation Area South Canal Road #1-12 Singapore 49014,1.287242313,103.848714
NTUC Foodfare ,Simei MRT Station Simei Street 3 #1-1 Singapore 529888,1.343203414,103.9533713
NTUC Foodfare ,E! Avenue @ Downtown East 1 Pasir Ris Close #1-339 Singapore 519599,1.377140734,103.9535991
NTUC Foodfare ,Changi Airport Terminal 4 10 Airport Boulevard #2-205M Singapore 819665,1.338008134,103.9834828
NTUC Foodfare , Woodlands Ave 6 #2- Singapore 731678,1.440415298,103.8014895
NTUC Foodfare ,Bukit Batok Driving Centre Bukit Batok West Ave 5 #- Singapore 659085,1.366798836,103.7501283
NUS ,National University of Singapore Faculty of Science Lower Kent Ridge Road #- Singapore 119077,1.30132731,103.7742773
NUS ,National University of Singapore Faculty of Science Blk S16  3 Science Drive 2 #- Singapore 117543,1.296779234,103.7802084
NUS ,National University of Singapore Faculty of Engineering Lower Kent Ridge Road #- Singapore 119077,1.30132731,103.7742773
NUS ,National University of Singapore Faculty of Arts & Social Sciences Lower Kent Ridge Road #- Singapore 119077,1.30132731,103.7742773
NUS,National University of Singapore Ventus University Campus Infrastructure Kent Ridge Drive #- Singapore 119246,1.295329402,103.7702087
NUS, CREATE WAY #1-9 Singapore 138602,1.303995508,103.7734922
NUS,National University of Singapore The Deck Lower Kent Ridge Road #- Singapore 119077,1.30132731,103.7742773
NUS,National University of Singapore The Deck Lower Kent Ridge Road #2- Singapore 119077,1.30132731,103.7742773
NUS,National University of Singapore Mochtar Riady Building  Business School Kent Ridge Drive #1-3 Singapore 119246,1.295329402,103.7702087
NUS, Prince George√¢‚Ç¨‚Ñ¢s Park Residences #- Singapore 118425,1.290799469,103.7813045
NUS,Town Plaza University Town Create Way #1-12 Singapore 138602,1.303995508,103.7734922
NUS,National University of Singapore  University Hall Lower Kent Ridge Road #- Singapore 119077,1.30132731,103.7742773
Pizza Hut ,Lot One Choa Chu Kang Avenue 4 #2-20 Singapore 689812,1.385068357,103.7449504
Pizza Hut ,Marina Square No. 6 Raffles Boulevard #3-211 Singapore 39594,1.291455259,103.8570073
Pizza Hut ,NEX Serangoon Central #3-11 Singapore 556083,1.350438172,103.8717045
Pizza Hut ,North Point Shopping Centre Yishun Avenue 2 #B1-40 Singapore 769098,1.42969848,103.8357765
Pizza Hut ,University Town Edusports National University of Singapore (NUS College Avenue West #1-4 Singapore 138607,1.304776877,103.7723962
Pizza Hut ,NUS The Deck Arts Link #- Singapore 117570,1.294490839,103.7709914
PastaMania ,"EHUB,Downtown East Pasir Ris Close #2-125 Singapore 519599",1.377140734,103.9535991
PastaMania ,FairPrice Hub Joo Koon Circle #1-42 Singapore 629117,1.324606646,103.6780964
PastaMania ,Harbourfront Centre Maritime Square #2-5 Singapore 99253,1.262063364,103.8186256
PastaMania ,Hillion Mall Petir Road #B2-48 Singapore 678278,1.378349713,103.7627412
PastaMania ,JEM Jurong Gateway Road #4-26 Singapore 608549,1.33320021,103.7431704
PastaMania ,Jurong East Sports & Recreation Centre Jurong East Street 31 #1-1 Singapore 609517,1.346215609,103.7288353
PastaMania ,Kallang Leisure Park Stadium Walk #1-27 Singapore 397693,1.302221771,103.8761527
PastaMania ,Lot One Choa Chu Kang Avenue 4 #3-2A Singapore 689812,1.385068357,103.7449504
PastaMania ,Mapletree Business City Pasir Panjang Road #2-13 Singapore 117439,1.274827483,103.7990648
PastaMania ,NEX Serangoon Central #4-21 Singapore 556083,1.350438172,103.8717045
PastaMania ,North Point Shopping Centre Yishun Avenue 2 #3-1 Singapore 769098,1.42969848,103.8357765
PastaMania ,Sengkang Sports & Recreation Centre Anchorvale Road #2-2 Singapore 544964,1.395501587,103.8857842
PastaMania ,Singapore Management University (SMU) Stamford Road #B1-47 Singapore 178901,1.296656785,103.8501058
PastaMania ,Tampines Mall Tampines Central 5 #4-21 Singapore 529510,1.352672316,103.944388
PastaMaina ,Viva Business Park Chai Chee Road #1-12 Singapore 469000,1.32365172,103.922103
PastaMania ,West Mall Bukit Batok Central Link #1-40 Singapore 658713,1.35018916,103.749022
PastaMania ,Commonwealth Capital Building Buroh Lane #6-2 Singapore 618291,1.315992173,103.7233453
Penang Culture ,Changi Airport Terminal 2 Airport Boulevard Terminal departure viewing mall #3-87-01 Singapore 819643,1.35519094,103.988751
Penang Culture ,JEM Jurong Gateway Road #4-27 Singapore 508346,1.408455724,103.9606162
Penang Culture ,Compass One Sengkang Square #3-13 Singapore 545078,1.39209415,103.89498
Penang Culture ,Causeway Point Woodlands Square #5-12 Singapore 738099,1.436007845,103.7856887
Penang Culture ,White Sands Shopping Centre Pasir Ris Central Street 3 #3-21 Singapore 518457,1.372449816,103.9497157
Penang Culture ,NEX Serangoon Central #B1-76 Singapore 556083,1.350438172,103.8717045
Pizza Hut , Havelock Road #B1-12 Singapore 59763,1.286728526,103.8449013
Pizza Hut , Holland Avenue Holland Vilalge MRT Station #B1-7 Singapore 278995,1.312240293,103.7963991
Pizza Hut ,Hougang Green Shopping Mall Hougang Street 51 #1-1B Singapore 538719,1.379245284,103.887832
Pizza Hut ,Hougang Mall Hougang Avenue 10 #2-25 Singapore 538766,1.372311856,103.8936616
Pizza Hut ,IMM Building Jurong East Street 21 #1-41 Singapore 609601,1.334898437,103.7467345
Pizza Hut ,Jurong Bird Park Jurong Hill #- Singapore 628925,1.320768728,103.706127
Pizza Hut , Jalan Kayu #- Singapore 799449,1.395874363,103.8727837
Pizza Hut , Jalan Malu Malu #- Singapore 769681,1.443993547,103.8262925
Pizza Hut ,Jurong East Sports & Recreation Centre Jurong East Street 31 #2-1 Singapore 609517,1.346215609,103.7288353
Pizza Hut ,Jurong Point Jurong West Central 2 #1-33 Singapore 648886,1.339830153,103.7064609
Pizza Hut ,Jurong Leisure Complex Jurong Superbowl Yuan Ching Road #1-3 Singapore 618642,1.325468071,103.7252215
Pizza Hut , Kallang Bahru Stall 7 #1-473 Singapore 330066,1.320539167,103.8696908
Pizza Hut ,Kampong Ubi Community Centre Jalan Ubi #1-7 Singapore 409075,1.317846431,103.9007501
Pizza Hut ,Katong East Coast Road #B1-16 Singapore 428802,1.305223056,103.9050439
Pizza Hut , Choa Chu Kang Avenue 1 Comfort Garden #- Singapore 689463,1.377022654,103.7457082
Pizza Hut ,KidZania Beach View #1-01 Singapore 98008,1.251260525,103.8202775
Pizza Hut , Kreta Ayer Road #- Singapore 88996,1.280611449,103.8421844
McDonald's , Toa Payoh Lorong 1 #1-318 Singapore 310109,1.34123727,103.8462025
McDonald's ,Trade Hub 21 Boon Lay Way #1-173 Singapore 609971,1.328228101,103.751673
McDonald's ,United Square Thomson Road #B1-11 Singapore 307591,1.31733463,103.8434632
McDonald's ,Vivo City Harbourfront Walk #B2-40 Singapore 98585,1.263895802,103.8215893
McDonald's ,Waterway point Punggol Central #B2-7 Singapore 828761,1.406536107,103.9019882
McDonald's , West Coast Highway #- Singapore 126844,1.297549241,103.7633016
McDonald's ,Woodlands Point Woodlands Centre Road #1-1 Singapore 738931,1.441088681,103.7690986
McDonald's ,Woodlands Civic Centre South Woodlands Drive #1-1 Singapore 730900,1.435077886,103.7866196
McDonald's ,Woodlands Mart Woodlands Avenue 6 #1-1 Singapore 730768,1.445622899,103.798141
McDonald's ,Safra Yishun Country Club Yishun Ave 4 #1-11 Singapore 769027,1.424298415,103.8409019
McDonald's , Sembawang Road #1-1 Singapore 758382,1.426907808,103.8260519
McDonald's , Yishun Street 22 #1-237 Singapore 760293,1.436114246,103.8376052
McDonald's ,V Hotel Jellicoe Road #1-20 Singapore 208767,1.307809275,103.8625256
Munch ,Lan Kwai Fong Food Mall Changi Business Park Central 2 #- Singapore 486066,1.334756758,103.9651188
Munch , Central Boulevard Downtown Line #B1-4 Singapore 18969,1.279446187,103.8528404
Munch , Enggor Street #1-10 Singapore 79717,1.274617939,103.8443196
Munch , One Raffles Place #B1-16 Singapore 48616,1.284339935,103.8509824
Munch , Paya Lebar Road #1-85 Singapore 409051,1.31867575,103.8925506
Munch , Robinson Road #1-1 Singapore 68902,1.279282324,103.8488164
Munch ,Tiong Bahru Plaza Tiong Bahru Road #1-161 Singapore 168732,1.286463453,103.8269351
NTUC Foodfare ,AMK Hub Ang Mo Kio Ave 3 #3-12 Singapore 569933,1.369248913,103.8483992
NTUC Foodfare ,Clementi Mall Commonwealth Avenue West #4-20 Singapore 129588,1.314853218,103.7642482
NTUC Foodfare ,Clifford Centre Raffles Place #B1-B1 Singapore 48621,1.283856981,103.8521282
NTUC Foodfare ,FairPrice Hub Joo Koon Circle #3-25 Singapore 629117,1.324606646,103.6780964
Soup Restaurant ,NEX Serangoon Central #2-15 Singapore 556083,1.350438172,103.8717045
Soup Restaurant ,Lucky Plaza Orchard road #B1-7 Singapore 238859,1.303723214,103.8352403
Soup Restaurant ,Suntec City Temasek Boulevard #B1-22 Singapore 38983,1.294879041,103.8576755
Soup Restaurant ,Toa Payoh Entertainment Centre Toa Payoh Lorong 6 #1-10 Singapore 319394,1.331676564,103.8493839
Soup Restaurant ,United Square Thomson Road #B1-10 Singapore 307591,1.31733463,103.8434632
Soup Restaurant ,Vivo City Harbourfront Walk #2-141 Singapore 98585,1.263895802,103.8215893
Subway ,Anchorpoint Alexandra Road #1-11 Singapore 159953,1.288614687,103.80501
Pizza Hut , Ang Mo Kio Avenue 6 #1-4000 Singapore 560715,1.370973299,103.8459054
Pizza Hut , Ang Mo Kio Avenue 10 #1-2349 Singapore 560529,1.372343579,103.8554554
Pizza Hut ,ARC Alexandra Road Alexandra Retail Centre #1-23 Singapore 119963,1.273676578,103.801127
Pizza Hut , Beach Road #- Singapore 199572,1.301622866,103.8617336
Pizza Hut ,Bedok Mall New Upper Changi Road #B1-1 Singapore 468360,1.323665725,103.9474373
Pizza Hut , Bedok North Street 3 #1-581 Singapore 460539,1.331313862,103.9253073
Pizza Hut ,Boon Lay Community Centre Boon Lay Place #1-2 Singapore 649882,1.348323225,103.7113802
Pizza Hut , Bukit Batok West Avenue 8E #1-262E Singapore 650166,1.347162358,103.7428079
Pizza Hut , Bukit Gombak West Avenue 5 Bukit Gombak #1-10 Singapore 659083,1.358611582,103.7517909
Pizza Hut , Bukit Merah Central #1-3555 Singapore 150162,1.283837301,103.8174661
Pizza Hut ,Bukit Panjang Plaza Jelebu Road #2-33 Singapore 677743,1.380517328,103.7639619
Pizza Hut ,Bukit Timah Plaza Jalan Anak Bukit #1-16A Singapore 588996,1.338656769,103.7785605
Pizza Hut ,Causeway Point Woodlands Square #B1-25 Singapore 738099,1.436007845,103.7856887
Pizza Hut ,Choa Chu Kang MRT Station Choa Chu Kang Avenue 4 #1-23 Singapore 689810,1.385672711,103.7441391
Pizza Hut ,Choa Chu Kang Sports Centre Choa Chu Kang Street 53 #3-2 Singapore 689236,1.39066617,103.7479207
Pizza Hut ,City Square Mall Kitchener Road #1-19 Singapore 208539,1.311305165,103.8564218
Pizza Hut ,Compass One Sengkang Square #B1-15 Singapore 545078,1.39209415,103.89498
Pizza Hut ,Crown Centre Bukit Timah Road #1-17 Singapore 269694,1.323026448,103.8111549
Pizza Hut ,NTUC Downtown East Resort Pasir Ris Close #1-4A Singapore 519599,1.377140734,103.9535991
Pizza Hut ,Eastpoint mall Simei Street 6 #2-3 Singapore 528833,1.342706186,103.9530245
Pizza Hut , Eng Kong Terrace #- Singapore 598975,1.336413968,103.768807
Pizza Hut , Ghim Moh #1-215 Singapore 270021,1.310081174,103.7885329
Pizza Hut ,Greenridge Shopping Centre Jelapang Road #1-4 Singapore 671524,1.385295565,103.7661705
Pizza Hut ,Harbourfront Centre Maritime Square #1-69 Singapore 99253,1.262063364,103.8186256
Pizza Hut ,OneKM Tanjong Katong Road #B1-01 Singapore 437157,1.314692127,103.8944805
Pizza Hut ,Hillion Mall Petir Road #B2-54 Singapore 678278,1.378349713,103.7627412
Pizza Hut ,Plaza Singapura Orchard Road #B2-1 Singapore 238839,1.300747543,103.8450476
Pizza Hut ,Punggol Plaza Punggol Field #B1-4 Singapore 820168,1.394184091,103.9129764
Pizza Hut ,Safra Punggol Sentul Crescent #2-1 Singapore 828654,1.410113282,103.9060319
Pizza Hut , Simon Road #- Singapore 545909,1.362072785,103.885706
Pizza Hut ,Sun Plaza Hougang Ave 10 #2-25 Singapore 538766,1.372311856,103.8936616
Pizza Hut ,Our Tampines Hub Tampines Avenue 4 #1-13 Singapore 528523,1.353496155,103.9396836
Pizza Hut ,Tampines Mall Tampines Central 5 #2-2 Singapore 529510,1.352672316,103.944388
Pizza Hut ,Tampines Mart Tampines St 32 #1-15 Singapore 529287,1.354549434,103.9599002
Pizza Hut , Tampines Street 11 #1-66 Singapore 521139,1.34607675,103.9442846
Pizza Hut , Tanjong Katong Road #- Singapore 437039,1.308171796,103.895305
Pizza Hut , Maxwell Road #B1-36 Singapore 69119,1.276516012,103.8454218
Pizza Hut ,The Seletar Mall Sengkang West Avenue #1-1 Singapore 797653,1.391393058,103.8760677
Pizza Hut ,The Signature Changi Business Park Central 2 #1-15 Singapore 486066,1.334756758,103.9651188
Pizza Hut ,Thomson Plaza Upper Thomson Road #2-24 Singapore 574408,1.354669019,103.8309198
Pizza Hut , Toa Payoh Lorong 6 #2-516A Singapore 310190,1.332975621,103.8479654
Pizza Hut , Lorong 4 Toa Payoh #1-360 Singapore 310085,1.336285354,103.8484286
NUS,National University of Singapore School of Computing Lower Kent Ridge Road #- Singapore 119077,1.30132731,103.7742773
NUS,University Cultural Centre Kent Ridge Crescent #- Singapore 119279,1.301675037,103.7720082
NUS, College Avenue West #2-1 Singapore 138607,1.304776877,103.7723962
Paradise Dynasty ,Causeway Point Woodlands Square #5-16 Singapore 738099,1.436007845,103.7856887
Paradise Dynasty ,ION Orchard Orchard Turn #4-12A Singapore 238801,1.30403577,103.8313951
Paradise Dynasty ,Lot One Choa Chu Kang Avenue 4 #3-2B Singapore 689812,1.385068357,103.7449504
Paradise Dynasty ,OneKM Tanjong Katong Road #2-33 Singapore 437157,1.314692127,103.8944805
Paradise Dynasty ,Changi Airport terminal 3 Airport Boulevard #3-32 Singapore 819663,1.354370736,103.9851697
Paradise Dynasty ,Vivo City Harbourfront Walk #3-8A Singapore 98585,1.263895802,103.8215893
Paradise Dynasty ,Westgate Gateway Drive #2-13 Singapore 608532,1.334025287,103.742586
Paradise Inn ,313 @ Somerset Orchard Road #B3-39 Singapore 238895,1.301385095,103.8376844
Paradise Inn ,Bedok Point Upper Changi Road #2-1 Singapore 467351,1.324961423,103.9323601
Paradise Inn ,City Square Mall Kitchener Road #B1-1 Singapore 208539,1.311305165,103.8564218
Paradise Inn ,Eastpoint Mall Simei Street 6 #2-6 Singapore 528833,1.342706186,103.9530245
Paradise Inn ,Marina Bay Link Mall Marina Boulevard #B2-20 Singapore 819642,1.362491004,103.9897073
Paradise Inn ,Suntec City Mall Temasek Boulevard #B1-110 Singapore 38983,1.294879041,103.8576755
Paradise Inn ,Changi Airport terminal 1 Airport Boulevard viewing gallery #3-19 Singapore 819642,1.362491004,103.9897073
Paradise Inn ,The Seletar Mall Sengkang West Avenue #3-10 Singapore 797653,1.391393058,103.8760677
Paradise Inn ,Thomson Plaza Upper Thomson Road #1-110 Singapore 574408,1.354669019,103.8309198
Paradise Inn ,West Coast Plaza Shopping Mall West coast road #B1-48 Singapore 127371,1.303582681,103.7652845
ParaThai ,OneKM Tanjong Katong Road #2-23 Singapore 437157,1.314692127,103.8944805
Pasta Fresca Da Salvatore , Boat Quay #- Singapore 49819,1.286037369,103.8498318
Pasta Fresca Da Salvatore ,Guthrie House Fifth Avenue #1-2 Singapore 268802,1.330817401,103.7956924
Pasta Fresca Da Salvatore , Upper East Coast Road #1-1 Singapore 455203,1.312963728,103.9255946
PastaMania ,Ang Mo Kio Delivery Hub Ang Mo Kio Avenue 10 #2-783 Singapore 560408,1.36209053,103.8545878
PastaMania ,Junction 8 Bishan Place #1-37 Singapore 579837,1.350239427,103.8484776
PastaMania ,Bugis Junction Victoria Street #B1-8 Singapore 188021,1.299113161,103.8554112
PastaMania ,Cathay Cineleisure Grange Road #2-23 Singapore 239695,1.301521016,103.8364297
PastaMania ,Causeway Point Woodlands Square #B1-20 Singapore 738099,1.436007845,103.7856887
PastaMania ,City Square Mall Kitchener Road #2-21 Singapore 208539,1.311305165,103.8564218
Subway ,Balmoral Plaza Bukit Timah Road #1-6 Singapore 259708,1.316439626,103.8354876
Subway ,100AM Shopping Mall Tras Street #1-15 Singapore 79027,1.27458821,103.8434707
Subway ,313 @ Somerset Orchard Road #B3-1 Singapore 238895,1.301385095,103.8376844
Subway ,Alocassia Building Bukit Timah Road #1-5 Singapore 259727,1.319436168,103.8273459
Subway ,AMK Hub Ang Mo Kio Ave 3 #1-35 Singapore 569933,1.369248913,103.8483992
Subway ,Asia Square Tower 2 Marina View #2-7 Singapore 18961,1.278307291,103.8507952
Subway ,Bedok Mall New Upper Changi Road #1-96 Singapore 467351,1.324961423,103.9323601
Subway , Bedok Reservoir Road #1-3031 Singapore 470744,1.337860418,103.9216633
Subway ,Bendemeer Shopping Mall Bendeemer Road #1-673 Singapore 330027,1.318838153,103.8628158
Subway ,Breadtalk IHQ Tai Seng Street #2-2 Singapore 534013,1.334345263,103.8896375
Subway ,Bugis Junction Victoria Street #B1-25A Singapore 188021,1.299113161,103.8554112
Subway ,Bugis+ Victoria Street #5-9 Singapore 188067,1.299660159,103.8535181
Subway , Bukit Batok West Ave 5 #1-96 Singapore 467360,1.324772068,103.9292677
Subway , Bukit Merah Central #1-3687 Singapore 150165,1.283055888,103.8166928
Subway ,Bukit Panjang Plaza Jelebu Road #1-38 Singapore 677743,1.380517328,103.7639619
Subway ,Bukit Timah Plaza Jalan Anak Bukit #B2-FB1 Singapore 588996,1.338656769,103.7785605
Subway ,Causeway Point Woodlands Square #B1-19 Singapore 738099,1.436007845,103.7856887
Subway ,Central Square Village Residences Havelock Road #1-19 Singapore 59765,1.288148525,103.8432653
Subway ,Changi City Point Changi Business Park Central 1 #B1-35 Singapore 486038,1.334325156,103.9623893
Subway ,Changi General Hospital Simei St 2 Lobby B #- Singapore 329984,1.327084845,103.8464765
Subway , Choa Chu Kang Avenue 3 #1-22 Singapore 680475,1.378056142,103.7389318
Subway ,Chinatown Point New Bridge Road #B1-37 Singapore 59413,1.284998828,103.8446971
Subway ,City Square Mall Kitchener Road #B1-35 Singapore 208539,1.311305165,103.8564218
Subway ,Clementi Mall Commonwealth Avenue West #B1-24 Singapore 129588,1.314853218,103.7642482
Subway ,Compass One Sengkang Square #1-20 Singapore 545078,1.39209415,103.89498
Subway ,Courts (Tampines) Tampines North Drive 2 #3- Singapore 528766,1.37362335,103.9338059
Subway ,Dawson Place Dawson Road #1-12 Singapore 142057,1.292703393,103.810959
Subway ,Eastwood Centre Eastwood Drive #1-11 Singapore 486442,1.321447678,103.9554195
Subway ,Far East Square Pekin Street #1-1 Singapore 49959,1.283154302,103.8482272
Subway ,Gek Poh Shopping Mall Jurong West Street 75 #1-324 Singapore 640762,1.348743572,103.6977321
Subway ,Great World City Kim Seng Promenade #B2-9 Singapore 237994,1.293802346,103.8317579
Subway ,Harbourfront Centre Maritime Square #2-82 Singapore 99253,1.262063364,103.8186256
Subway ,HDB Hub Toa Payoh Toa Payoh Lorong 6 #1-13 Singapore 310480,1.332141119,103.8483261
Subway ,Heartbeat @ Bedok Bedok North Street 1 #1-16 Singapore 469662,1.326984988,103.9316206
Subway ,Heartland Mall Hougang Street 21 #- Singapore 530205,1.359496643,103.8850799
Subway ,Hougang Mall Hougang Avenue 10 #2-10 Singapore 538766,1.372311856,103.8936616
Subway , Hougane Avenue 9 #1-2 Singapore 538776,1.375148978,103.8828942
Subway ,IMM Jurong East Street 21 #1-114 Singapore 609601,1.334898437,103.7467345
Subway ,ITE College Central Ang Mo Kio Drive #2-8 Singapore 567720,1.377892032,103.856412
Subway ,Jcube Jurong East Central 1 #B1-K04 Singapore 609731,1.333268187,103.7401767
Subway , Jelapang Road #2-14 Singapore 671524,1.385295565,103.7661705
Subway ,Singapore Post Centre Eunos Road #B1-09A Singapore 408600,1.318856103,103.8940672
Subway ,Singapore American School Woodlands Street 41 #- Singapore 738547,1.425383072,103.7744213
Subway ,Singapore Expo Expo Drive #1-1 Singapore 486150,1.332507651,103.9569686
Subway ,The Singapore Flyer Raffles Avenue #1-07B Singapore 39803,1.290346263,103.8624069
Subway ,Singapore Polytechnic Dover Road #- Singapore 139651,1.311239948,103.7744714
Subway ,Singapore Management University (SMU) Stamford Road #1-62 Singapore 178902,1.297377289,103.8495516
Subway ,The Star Vista Vista Exchange Green #B1-34 Singapore 138617,1.306848818,103.7882145
Subway ,Pasir Ris West Plaza Pasir Ris Street 72 #1-304B Singapore 510735,1.379306517,103.9362721
Subway ,Paradiz Centre Shopping Mall Selegie Road #B1-21 Singapore 188306,1.300046856,103.8492464
Subway ,Punggol Plaza Punggol Field #1-11 Singapore 820168,1.394184091,103.9129764
Subway ,Raffles City Shopping Centre North Bridge Road #B1-9 Singapore 179103,1.293760279,103.8527683
Subway ,Republic Polytechnic Woodlands Ave 9 #1-2 Singapore 738964,1.446237734,103.7829712
Subway ,Rivervale Mall Rivervale Crescent #1-31 Singapore 545082,1.392197776,103.9044716
Subway ,Safra Club (Mount Faber) Telok Blangah Way #1-6A Singapore 98803,1.277696363,103.8169097
Subway ,Science Hub Science Park Drive #- Singapore 118260,1.287743584,103.7903699
Subway ,Orchard Link Orchard Link #2-40 Singapore 237978,1.300865434,103.8357008
Subway ,The Seletar Mall Sengkang West Avenue #B1-8 Singapore 797653,1.391393058,103.8760677
Subway ,Sembawang Shopping Centre Sembwang Road #B1-20 Singapore 758459,1.441767148,103.8244951
Subway ,Jewel Cable Car Station @ Sentosa Imbiah Road #1-2 Singapore 99701,1.254925432,103.817701
Subway ,my Village @ Serangoon Gardens Maju Avenue #B1-3 Singapore 556679,1.365160708,103.8650419
Subway ,Shaw Tower Beach Road #1-41 Singapore 189702,1.296490718,103.8566974
Subway ,Siglap Centre Siglap Road #1-13 Singapore 455871,1.31260565,103.9231681
Subway ,Sim Lim Square Rochor Canal Road #B1-1 Singapore 188504,1.303022983,103.8528756
Subway ,SIM Block B Clementi Road #1-5 Singapore 599491,1.329191998,103.7757011
Pizza Hut , Upper Paya Lebar Road #- Singapore 534858,1.339639267,103.8854697
Pizza Hut ,Waterway point Punggol Central #B1-11 Singapore 828761,1.406536107,103.9019882
Pizza Hut , West Coast Drive #1-264 Singapore 120501,1.311278735,103.7588644
Pizza Hut ,Westmall Bukit Batok Central Link #1-26 Singapore 658713,1.35018916,103.749022
Pizza Hut , Gateway Drive Westgate #4-4 Singapore 608532,1.334025287,103.742586
Pizza Hut , Woodlands Street 31 #1-17 Singapore 730306,1.429929912,103.7746366
Pizza Hut , Woodlands Drive 50 #1-729 Singapore 730888,1.437679197,103.7951367
Rice Garden , Commonwealth Crescent #2-80 Singapore 149644,1.306995331,103.8003565
Rice Garden , Aljunied Avenue 2 #1-36 Singapore 380117,1.320781075,103.8867735
Rice Garden ,Anchorvale Sengkang Anchorvale Road Stall No.8 #1-7 Singapore 540308,1.389558478,103.8864267
Rice Garden , Ang Mo Kio Avenue 10 #1-805 Singapore 560408,1.36209053,103.8545878
Rice Garden , Bedok North Street 3 Stall 7 #1-593 Singapore 460539,1.331313862,103.9253073
Rice Garden , Bendeemer Road #1-40 Singapore 330029,1.319216671,103.8630209
Rice Garden ,Bukit Panjang Hawker Centre Bukit Panjang Ring Road #1-20 Singapore 679947,1.37760059,103.7724897
Rice Garden , Bukit Batok Street 31 #1-326 Singapore 650371,1.359259405,103.7506946
Rice Garden , Bukit Batok West Avenue 6 #1-18 Singapore 650109,1.347003762,103.7461704
Rice Garden , Choa Chu Kang Crescent Stall 6 #1-1 Singapore 682673,1.400915329,103.7479612
Rice Garden , Clementi Avenue 5 #1-155 Singapore 120325,1.315096678,103.7668174
Rice Garden , Eunos Crescent #1-22 Singapore 402004,1.320331258,103.9042565
Rice Garden , Ghim Moh Road #1-62 Singapore 270020,1.310996628,103.7882303
Rice Garden , Holland Drive #1-39 Singapore 270040,1.3071759,103.7935003
Rice Garden , Hougang Street 21 #- Singapore 530212,1.359520863,103.88834
Rice Garden ,Hougang Capeview Upper Serangoon View #2-5 Singapore 537476,1.377915051,103.9036238
Rice Garden , Jalan Bukit Merah #1-7 Singapore 160112,1.280004819,103.8260133
Rice Garden , Jalan Kukoh #1-7 Singapore 161001,1.288231009,103.8399342
Rice Garden , Jurong East Street 32 Stall 8 #1-98 Singapore 600303,1.344856104,103.7356222
Rice Garden ,Jurong West Central Jurong West Central #1-2 Singapore 640679,1.344594671,103.7060894
Rice Garden , Macpherson Lane #1-7 Singapore 360082,1.332283325,103.8856201
Rice Garden , Pasir Ris Street 51 #1-1 Singapore 513527,1.369373292,103.9479702
Rice Garden , Potong Pasir Avenue 1 #1-127 Singapore 350146,1.331800776,103.8672429
Rice Garden , Queen Street #1-51 Singapore 180270,1.301102013,103.8541158
Rice Garden , Serangoon Avenue 2 #1-14 Singapore 550304,1.353626091,103.8677055
Rice Garden , Serangoon North Avenue 1 #1-419 Singapore 550147,1.3684795,103.8726629
Rice Garden ,Food Centre Telok Blangah Drive #1-29 Singapore 100079,1.273355969,103.8076181
Rice Garden ,Alpha Industrial Building Toh Guan East Stall 2 #1-12 Singapore 608599,1.337069095,103.7515675
Rice Garden , Ubi Avenue 1 Stall 9 #1-947 Singapore 400305,1.329279748,103.9021731
Rice Garden , Upper Boon Keng Road #1-69 Singapore 380017,1.315028055,103.8716203
Savory Inn ,Health Promotion Board Second Hospital Ave #- Singapore 168937,1.279331459,103.8383151
Savory Inn ,Ministry of Social and Family Development Thomson Road #5- Singapore 298136,1.333665263,103.8394192
Soup Restaurant ,Causeway Point Woodlands Square #5-11 Singapore 738099,1.436007845,103.7856887
Soup Restaurant ,Century Square Tampines Central 5 #B1-1 Singapore 529509,1.352278032,103.9437277
Soup Restaurant ,"Changi Airport Terminal 2 Airport Boulevard, Changi Airport Terminal 2 #36-86 Singapore 819643",1.35519094,103.988751
Soup Restaurant ,Clementi Mall Commonwealth Avenue West #3-62 Singapore 129588,1.314853218,103.7642482
Soup Restaurant ,Compass One Sengkang Square #3-16 Singapore 545078,1.39209415,103.89498
Soup Restaurant ,Hougang Mall Hougang Avenue 10 #2-21 Singapore 538766,1.372311856,103.8936616
Soup Restaurant ,IMM Jurong East Street 21 #1-101 Singapore 609601,1.334898437,103.7467345
Soup Restaurant ,Jurong Point Jurong West Central 2 #2-33 Singapore 648886,1.339830153,103.7064609
Swensens ,Jurong Point Jurong West Central 2 #B1-64 Singapore 648886,1.339830153,103.7064609
Swensens ,NEX Serangoon Central #2-7 Singapore 556083,1.350438172,103.8717045
Swensens ,North Point Shopping Centre Yishun Ave 2 #1-16 Singapore 769098,1.42969848,103.8357765
Swensens ,Parkway Parade Marine Parade Road #B1-33 Singapore 449269,1.301191307,103.9051136
Swensens ,Plaza Singapura Orchard Road #3-23 Singapore 238839,1.300747543,103.8450476
Swensens ,Sun Plaza Sembawang Drive #2-21 Singapore 757713,1.448226532,103.8194621
Swensens ,Tampines Mall Tampines Central 5 #3-30 Singapore 529510,1.352672316,103.944388
Swensens ,The Seletar Mall Sengkang West Avenue #2-11 Singapore 797653,1.391393058,103.8760677
Swensens ,Thomson Plaza Upper Thomson Road #3-23 Singapore 574408,1.354669019,103.8309198
Pizza Hut , Yishun Avenue 5 Yishun Delco #1-6 Singapore 761701,1.429955015,103.8279204
Pizza Hut ,NorthPoint City Northpoint Drive #B2-149 Singapore 768019,1.428035845,103.8360921
Pu Tien ,ION Orchard Orchard Turn #4-12 Singapore 238801,1.30403577,103.8313951
Pu Tien ,JP1 Jurong West Central 2 #2-34 Singapore 648886,1.339830153,103.7064609
Pu Tien , Kitchener Road #- Singapore 208514,1.309537216,103.85732
Pu Tien , Raffles Boulevard #2-205 Singapore 39594,1.291455259,103.8570073
Pu Tien , Serangoon Central #2-18 Singapore 556083,1.350438172,103.8717045
Pu Tien , Marine Parade Road #2-13 Singapore 449269,1.301191307,103.9051136
Pu Tien , North Bridge Road #2-18 Singapore 179103,1.293760279,103.8527683
Pu Tien ,The Forum Sentosa Gateway #1-203 Singapore 98138,1.256573486,103.819459
Pu Tien , Tampines Central 5 #B1-27 Singapore 529510,1.352672316,103.944388
Pu Tien , Harbour Front Walk #2-131 Singapore 98585,1.263895802,103.8215893
QQ Rice ,Alexandra Retail Centre Alexandra Road #1-12 Singapore 119963,1.273676578,103.801127
QQ Rice ,AMK Hub Ang Mo Kio Ave 3 #B2-7 Singapore 569933,1.369248913,103.8483992
QQ Rice ,Hillion Mall Petir Road #B2-51 Singapore 678278,1.378349713,103.7627412
QQ Rice ,Jurong Point Jurong West Central 2 #1-32 Singapore 648886,1.339830153,103.7064609
QQ Rice ,NEX Serangoon Central #B2-48B Singapore 556083,1.350438172,103.8717045
QQ Rice ,NUH Medical Centre Lower Kent Ridge Road #1-2 Singapore 119082,1.292774313,103.784084
QQ Rice ,One Raffles Place One Raffles Place #B1-7 Singapore 48616,1.284339935,103.8509824
QQ Rice ,Our Tampines Hub Tampines Avenue 4 #1-82 Singapore 528523,1.353496155,103.9396836
QQ Rice ,Square 2 Sinaran Drive #1-6 Singapore 307506,1.320429661,103.8438921
QQ Rice ,Tampines MRT Station Tampines Central 1 #1-18 Singapore 529538,1.353646577,103.9448383
QQ Rice ,Marina One Straits View #B2-49 Singapore 18935,1.277372343,103.8528448
QQ Rice ,HDB Hub Toa Payoh Toa Payoh Lorong 6 #1-22 Singapore 310480,1.332141119,103.8483261
QQ Rice ,Woodlands MRT Station Woodlands Ave 2 #1-11 Singapore 738343,1.436819624,103.7860668
Subway ,"Suntec City, Tower 1 Temasek Boulevard #B1-147 Singapore 38983",1.294879041,103.8576755
Subway ,SuperBowl Jurong Yuan Ching Road #- Singapore 618640,1.325925995,103.7244833
Subway , Tampines Street  44 #1-62 Singapore 520462,1.359013178,103.9551111
Subway , Tampines West Street 32 #1-21 Singapore 529286,1.354364934,103.9600422
Subway ,Tampines One Tampines Central 1 #B1-3 Singapore 529536,1.35431556,103.9450195
Subway ,Tampines Telepark Tampines Central #1-11 Singapore 529510,1.352672316,103.944388
Subway ,Tampines West Community Club Tampines Avenue 3 #1-8 Singapore 529705,1.348750764,103.9356334
Subway ,Temasek Polytechnic Tampines Avenue 1 #- Singapore 529757,1.347939478,103.92884
Subway ,The Central Eu Tong Sen Street #1-66 Singapore 59817,1.288862917,103.846556
Subway ,The Rail Mall Upper Bukit Timah Road #- Singapore 678056,1.359170554,103.7676538
Subway ,Thomson Plaza Thomson Road #1-1D Singapore 574408,1.354669019,103.8309198
Subway ,Tiong Bahru Plaza Tiong Bahru Road #1-103 Singapore 168732,1.286463453,103.8269351
Subway , Ubi Avenue 1 #1-35 Singapore 400302,1.330025867,103.9009954
Subway ,United Square Thomson Road #B1-4 Singapore 307591,1.31733463,103.8434632
Subway , Create Way University Town #1-2 Singapore 138602,1.303995508,103.7734922
Subway ,VisionCrest Commercial Penang Road #1-2 Singapore 238467,1.299107892,103.8427
Subway ,Vivo City Harbourfront Walk #B2-31 Singapore 98585,1.263895802,103.8215893
Subway ,Jubilee Square Ang Mo Kio Avenue 8 #1-15 Singapore 569814,1.371785516,103.8477757
Subway ,Junction 8 Bishan Place #1-31 Singapore 579837,1.350239427,103.8484776
Subway ,Jurong Point Jurong West Central 2 #1-32A Singapore 648886,1.339830153,103.7064609
Subway , Jurong West Street 41 #1-744 Singapore 640456,1.350675726,103.7200224
Subway ,Kallang Leisure Park Stadium Walk #1-32 Singapore 397693,1.302221771,103.8761527
Subway ,Kitchener Complex French Road #1-34 Singapore 200809,1.308326996,103.8620059
Subway ,Khoo Teck Puat Hospital (KTPH) Yishun Central #1-1 Singapore 768828,1.423877598,103.8378537
Subway ,Liang Court River Valley Road #1-13A Singapore 179030,1.291490197,103.8446689
Subway ,Lot One Choa Chu Kang Avenue 4 #B1-34 Singapore 689812,1.385068357,103.7449504
Subway ,Loyang Point Pasir Ris Street 21 #1-16 Singapore 510258,1.367000538,103.9646178
Subway ,Mapletree Business City Pasir Panjang Road #2-16 Singapore 117439,1.274827483,103.7990648
Subway ,Marina Square Raffles Boulevard #2-52 Singapore 39594,1.291455259,103.8570073
Subway ,Marina Bay Link Mall Marina Boulevard #B2-19 Singapore 18984,1.280227673,103.8533493
Subway , Maxwell Road #B1-26 Singapore 69119,1.276516012,103.8454218
Subway ,Mediapolis Media Circle #1-2 Singapore 138562,1.292414485,103.7946168
Subway ,Millenia Walk Raffles Boulevard #1-101 Singapore 39596,1.29296504,103.859344
Subway ,Mount Alvernia Hospital Thomson Road #1-30 Singapore 574623,1.341809693,103.8375243
Subway ,Nanyang Community Club Jurong West Street 91 #1-3 Singapore 649040,1.342364028,103.6923202
Subway ,NEX Serangoon Central #2-11 Singapore 556083,1.350438172,103.8717045
Subway ,Ng Teng Fong General Hospital Tower A Jurong East Street 21 #2-33 Singapore 609606,1.335533819,103.7438655
Subway ,"Ngee Ann Polytechnic, The Makan Place 535 Clementi Road #2-1 Singapore 599489",1.332762597,103.7715625
Subway ,North Point Shopping Centre Yishun Ave 2 #B2-15 Singapore 769098,1.42969848,103.8357765
Subway ,Novena Square Thomson Road #2-29 Singapore 307683,1.320211,103.8436568
Subway ,"Nanyang Technological University (NTU), Blk N2.1 Nanyang Drive #1-7 Singapore 637331",1.347130438,103.6800338
Subway ,NUH Lower Kent Ridge Road #1-29 Singapore 119074,1.293953054,103.7827095
Subway ,NUS Yusof Ishak House Lower Kent Ridge Road #1-6 Singapore 119078,1.298463251,103.7747032
Subway ,One@Kent Ridge Lower Kent Ridge Road #1-10 Singapore 119082,1.292774313,103.784084
Subway ,One-North MRT Station Ayer Rajah Avenue #B2-4 Singapore 138647,1.299689532,103.7874128
Subway ,Orchard Hotel Shopping Arcade Orchard Road #B1-13 Singapore 238879,1.307668609,103.8281644
Subway ,Orchird Country Club Orchid Club Road #- Singapore 769162,1.411035985,103.8440399
Subway ,Our Tampines Hub Tampines Avenue 4 #B1-52A Singapore 528523,1.353496155,103.9396836
Swensens ,Waterway Point Punggol Central #2-35 Singapore 828761,1.406536107,103.9019882
Swensens ,West Mall Bukit Batok Central Link #2-5 Singapore 658713,1.35018916,103.749022
Swensens ,Singpost Centre 10 Eunos Road 8 #2-136 Singapore 408600,1.318856103,103.8940672
The Wok People ,Abbott Tuas South Avenue 10 #- Singapore 637437,1.282933828,103.6288951
The Wok People ,Asia Pacific Brewery Jalan Ahmad Ibrahim #- Singapore 639934,1.336364009,103.6470363
The Wok People ,GSK Pioneer Pioneer Sector 1 #- Singapore 628413,1.308329744,103.6600925
The Wok People ,Petrochemical Company of Singapore Ayer Merbau Road #- Singapore 628277,1.273832526,103.711677
The Wok People ,Roche Tuas Bay Link #- Singapore 637394,1.297280162,103.6413905
The Wok People ,Takashimaya Orchard Road #- Singapore 238872,1.302424166,103.8346761
Uncle Tony ,Sengkang Community Hub Sengkang Square #1-5 Singapore 545025,1.392785586,103.8939061
Wrap & Roll ,The Star Vista Vista Exchange Green #B1-11 Singapore 138617,1.306848818,103.7882145
Wrap & Roll ,ION Orchard Orchard Turn #B3-19 Singapore 238801,1.30403577,103.8313951
Wrap & Roll ,Changi City Point Changi Business Park Central 1 #B1-26 Singapore 486038,1.334325156,103.9623893
Wrap & Roll ,One@KentRidge Lower Kent Ridge Road #1-11 Singapore 119082,1.292774313,103.784084
F M Food Master ,Fusionpolis Fusionpolis Place #2-1 Singapore 138522,1.299862513,103.788101
Din Tai Fung ,Tampines Mall 4 Tampines Central 5 #02-01 #-1 Singapore 529510,1.352672316,103.944388
Din Tai Fung ,Wisma Atria 435 Orchard Road Level 4 #- Singapore 238877,1.303698902,103.8331896
Din Tai Fung ,The Seletar Mall Sengkang West Avenue #2-7 Singapore 797653,1.391393058,103.8760677
Din Tai Fung ,"Waterway Point 83 Punggol Central, Waterway Point #- Singapore 828761",1.406536107,103.9019882
Stamfles , Loyang Way #- Singapore 508730,1.373034707,103.9726257
Stamfles , Loyang Way #- Singapore 508726,1.377207933,103.9744386
Stamfles , Admiralty Road West #- Singapore 759947,1.459946403,103.8227162
Heavenly Wang ,Northpoint Northpoint Drive #1-167 Singapore 768019,1.428035845,103.8360921
Heavenly Wang ,Safra Mount Faber Telok Blangah Way #1-5 Singapore 98803,1.277696363,103.8169097
Stuff'd ,Plaza Singapura Orchard Road #B2-43 Singapore 238839,1.300747543,103.8450476
Stuff'd ,Raffles City Shopping Centre North Bridge Road #B1-56 Singapore 179103,1.293760279,103.8527683
Stuff'd ,Jewel @ Changi Airport Airport Boulevard #B2-256 Singapore 819666,1.360340997,103.9890776
Stuff'd ,Square 2 Sinaran Drive #B1-117 Singapore 307506,1.320429661,103.8438921
Stuff'd ,Funan Mall North Bridge Road #B2-K3 Singapore 179105,1.291244,103.8499848
Stuff'd ,Takashimaya Orchard Road #B2-7 Singapore 238873,1.302424166,103.8346761
Greendot ,Bedok Mall New Upper Changi Road #B2-31 Singapore 467360,1.324772068,103.9292677
Greendot ,Paya Lebar Square Paya Lebar Road Paya Lebar Square #2-15 Singapore 409051,1.31867575,103.8925506
Greendot ,Westgate Gateway Drive #1-6 Singapore 608532,1.334025287,103.742586
Greendot ,One Raffles Place One Raffles Place #3-23 Singapore 48616,1.284339935,103.8509824
Greendot ,The Star Vista Vista Exchange Green #1-33 Singapore 138617,1.306848818,103.7882145
Greendot ,Bugis Junction Middle Road Bugis Junction #1-71 Singapore 188966,1.298469647,103.854867
Greendot ,NEX Serangoon Central #2-K2 Singapore 556083,1.350438172,103.8717045
Greendot ,Mapletree Business City Pasir Panjang Road Kitchen Loft Maple Tree Business City #- Singapore 117439,1.274827483,103.7990648
Greendot ,Vivo City Harbourfront Walk #2-150 Singapore 98585,1.263895802,103.8215893
Greendot ,North Point Shopping Centre Yishun Ave 2 #1-45 Singapore 769098,1.42969848,103.8357765
Greendot ,Plaza Singapura 68 Orchard road #B2-52 Singapore 238839,1.300747543,103.8450476
Greendot ,Junction 8 9 Bishan Place #B1-24 Singapore 579837,1.350239427,103.8484776
Kraftwich ,The Central Eu Tong Sen Street #1-53 Singapore 59817,1.288862917,103.846556
Swissbake ,UE Bizhub East Changi Business Park Ave 1 #1-27 Singapore 486018,1.334919773,103.9636539
Swissbake ,Harbourfront Centre Maritime Square #1-58 Singapore 99253,1.262063364,103.8186256
Kraftwich by Swissbake ,SMU Stamford Road SMU School of Accountancy and School of Law #1-11 Singapore 178900,1.295670989,103.8499241
Kraftwich by Swissbake ,One Raffles Place One Raffles Place Tower 1 #B1-4 Singapore 48616,1.284339935,103.8509824
Kraftwich by Swissbake , Paya Lebar Road #1-9 Singapore 409051,1.31867575,103.8925506
Din Tai Fung ,Chinatown Point 133 New Bridge Road #02-01 #-1 Singapore 59413,1.284998828,103.8446971
Din Tai Fung ,Jem 50 Jurong Gateway Road #02-07 #-7 Singapore 608549,1.33320021,103.7431704
Din Tai Fung ,Junction 8 Shopping Centre 9 Bishan Place #01-41 #-41 Singapore 579837,1.350239427,103.8484776
Din Tai Fung ,Jurong Point Shopping Centre 63 Jurong West Central 3 #B1-68 #-68 Singapore 648331,1.339364021,103.7053082
Din Tai Fung ,Manulife Centre 51 Bras Basah Road #01-02 #-2 Singapore 189554,1.297976137,103.84997
Din Tai Fung ,Marina Bay Link Mall 8A Marina Boulevard #B2-05 #-5 Singapore 18984,1.280227673,103.8533493
Din Tai Fung ,Marina Bay Sands 2 Bayfront Avenue #B2-63 #-63 Singapore 18972,1.283322493,103.8576291
Din Tai Fung ,NEX Serangoon Central #B1-10 Singapore 556083,1.350438172,103.8717045
Din Tai Fung ,Parkway Parade 80 Marine Parade Road #01-15 #-15 Singapore 449269,1.301191307,103.9051136
Din Tai Fung ,Raffles City Shopping Centre North Bridge Road #B1-8 Singapore 179103,1.293760279,103.8527683
Din Tai Fung ,Resorts World Sentosa 26 Sentosa Gateway #01-217 #-217 Singapore 98138,1.256573486,103.819459
Din Tai Fung ,Suntec City 3 Temasek Boulevard #02-302 #-302 Singapore 38983,1.294879041,103.8576755
Subway ,Waterway Point Punggol Central #B1-16 Singapore 828761,1.406536107,103.9019882
Subway ,Wisteria Mall Yishun Ring Road #B1-8 Singapore 768698,1.417999256,103.8412365
Subway ,West Coast Plaza Shopping Mall West Coast Road #B1-13 Singapore 127371,1.303582681,103.7652845
Subway ,West Mall Bukit Batok Central Link #1-18 Singapore 658713,1.35018916,103.749022
Subway ,White Sands Shopping Centre Pasir Ris Central Street 3 #1-31 Singapore 518457,1.372449816,103.9497157
Subway ,Yew Tee Point Choa Chu Kang North 6 #1-35 Singapore 689578,1.397301904,103.7465581
Subway , Yung Sheng Road #1-22 Singapore 610399,1.335042021,103.720268
Subway ,Zhongshan Mall Ah Hood Road #1-33 Singapore 329984,1.327084845,103.8464765
Subway , Lorong Liput #- Singapore 277735,1.310308188,103.794682
Subway ,Nanyang Polytechnic Ang Mo Kio Ave 8 #2-BLK A Singapore 769098,1.42969848,103.8357765
Subway ,Fairprice Hub Joon Koon Circle #1-17 Singapore 629117,1.324606646,103.6780964
Subway ,Eastpoint Mall Simei St 6 #B1-10 Singapore 528833,1.342706186,103.9530245
Subway ,Changi Airport Terminal 3  #B2-22 Singapore 819663,1.354370736,103.9851697
Subway , Scotts Road #1-36 Singapore 228123,1.303321961,103.848641
Swensens ,AMK Hub Ang Mo Kio Ave 3 #B1-25 Singapore 569933,1.369248913,103.8483992
Swensens ,Bedok Mall New Upper Changi Road #1-77 Singapore 467360,1.324772068,103.9292677
Swensens ,Bugis Junction Victoria Street #1-68 Singapore 188021,1.299113161,103.8554112
Swensens ,Causeway Point Woodlands Square #2-8 Singapore 738099,1.436007845,103.7856887
Swensens ,City Square Mall Kitchener Road #3-37 Singapore 208539,1.311305165,103.8564218
Swensens ,Clementi Mall Commonwealth Avenue West #5-31 Singapore 129588,1.314853218,103.7642482
Swensens ,Compass One Sengkang Square #B1-28 Singapore 545078,1.39209415,103.89498
Swensens ,"EHUB,Downtown East Pasir Ris Close #- Singapore 519599",1.377140734,103.9535991
Swensens ,IMM Jurong East Street 21 #1-111 Singapore 609601,1.334898437,103.7467345
Swensens ,Junction 8 Bishan Place #1-39 Singapore 579837,1.350239427,103.8484776
KOI ,Tampines Mall Tampines Central 5 #2-K3B Singapore 529510,1.352672316,103.944388
KOI ,Harbourfront Centre Maritime Square #1-67A Singapore 99253,1.262063364,103.8186256
KOI ,Takashimaya Orchard Road #B2-37C Singapore 238872,1.302424166,103.8346761
KOI ,Tiong Bahru Plaza Tiong Bahru Road #1-155 Singapore 168732,1.286463453,103.8269351
Mr Bean ,Aljunied MRT Geylang Lorong 25 #1-12 Singapore 388310,1.316432603,103.8829061
Mr Bean ,Ang Mo Kio Hub Ang Mo Kio Avenue 3 #1-19 Singapore 569933,1.369248913,103.8483992
Mr Bean ,Bukit Gombak MRT Bukit Batok West Avenue 5 #1-3 Singapore 659083,1.358611582,103.7517909
Mr Bean ,Boon Lay MRT Boon Lay Way #1-23 Singapore 649846,1.338493279,103.7058454
Mr Bean ,Bedok Mall New Upper Changi Road #B2-K2 Singapore 467360,1.324772068,103.9292677
Mr Bean ,Bukit Panjang Plaza Jelebu Road #1-19 Singapore 677743,1.380517328,103.7639619
Mr Bean ,Choa Chu Kang MRT Choa Chu Kang Avenue 4 #1-3 Singapore 689810,1.385672711,103.7441391
Mr Bean ,Changi City Point Changi Business Park Central 1 #B1-21 Singapore 486038,1.334325156,103.9623893
Kraftwich by Swissbake ,Tanjong Pagar Centre  #- Singapore 78881,1.276799922,103.8456183
Kraftwich by Swissbake ,Hillion Mall  #B1-16 Singapore 678278,1.378349713,103.7627412
Kraftwich by Swissbake ,Marina One The Heart Retail  #B1-31 Singapore 18936,1.277906339,103.8528517
Simply Wrapps ,Raffles City Shopping Centre North Bridge Road #B1-60 Singapore 179103,1.293760279,103.8527683
Simply Wrapps ,HarbourFront Center Maritime Square #1-51 Singapore 99253,1.262063364,103.8186256
Simply Wrapps ,Income at Raffles Collyer Quay #1-16 Singapore 49318,1.284132517,103.8524489
Simply Wrapps ,Plaza Singapura Orchard Road #B2-26 Singapore 238839,1.300747543,103.8450476
Simply Wrapps ,Ion Orchard Orchard Turn #B4-30 Singapore 238801,1.30403577,103.8313951
Simply Wrapps ,JEM Jurong Gateway Road #2-19 Singapore 608549,1.33320021,103.7431704
Simply Wrapps ,Viva Business Park Technopark @ Chai Chee Road #1-3 Singapore 469000,1.32365172,103.922103
Simply Wrapps ,Century Square Tampines Central 5 #B1-11 Singapore 529509,1.352278032,103.9437277
Sakae Sushi ,Compass One Sengkang Square #4-6 Singapore 545078,1.39209415,103.89498
Sakae Sushi ,Heartland Mall Hougang Street 21 #1-133 Singapore 530205,1.359496643,103.8850799
Sakae Sushi ,Junction 8 Shopping Centre Bishan Place #B1-20 Singapore 579837,1.350239427,103.8484776
Sakae Sushi ,Lot One Choa Chu Kang Avenue 4 #3-10 Singapore 689812,1.385068357,103.7449504
Sakae Sushi ,Parkway Parade Marine Parade Road #B1-84C Singapore 449269,1.301191307,103.9051136
Sakae Sushi ,Paya Lebar Square Paya Leber Road #B1-19 Singapore 409051,1.31867575,103.8925506
Sakae Sushi ,Square 2 Sinaran Drive #2-85 Singapore 307506,1.320429661,103.8438921
Sakae Sushi ,Sun Plaza Sembawang Drive #3-17 Singapore 757713,1.448226532,103.8194621
Sakae Sushi ,TradeHub 21 Boon Lay Way #1-175 Singapore 609971,1.328228101,103.751673
Sakae Sushi ,Woodlands Civic Centre South woodlands Drive #1-4 Singapore 730900,1.435077886,103.7866196
Din Tai Fung ,Paragon 290 Orchard Road #B1-03 #-3 Singapore 238859,1.303723214,103.8352403
Din Tai Fung ,Bedok Mall 311 New Upper Changi Road #B1-10 #-10 Singapore 467360,1.324772068,103.9292677
Din Tai Fung ,BreadTalk IHQ 30 Tai Seng Street #01-02 #-2 Singapore 534013,1.334345263,103.8896375
Heavenly Wang Bedok Heartbeat,Heartbeat @ Bedok Bedok North Street 1 #1-32 Singapore 469662,1.326984988,103.9316206
Heavenly Wang Sengkang General Hospital,Sengkang General Hospital Sengkang East Way #1-1 Singapore 544886,1.394299412,103.8930013
Heavenly Wang Terminal 1,Teminal 1 Departure Airport Boulevard #2-3 Singapore 819642,1.362491004,103.9897073
Heavenly Wang ,Ang Mo Kio Hub Ang Mo Kio Avenue 3 #2-58 Singapore 569933,1.369248913,103.8483992
Heavenly Wang ,Terminal 3 Arrival Airport Boulevard #1-25 Singapore 819663,1.354370736,103.9851697
Heavenly Wang ,Terminal 1 Transit Airport Boulevard #2-K08 Singapore 819642,1.362491004,103.9897073
Heavenly Wang ,Terminal 3 Transit Airport Boulevard #2-K5 Singapore 819663,1.354370736,103.9851697
Heavenly Wang ,Terminal 4 Transit Airport Boulevard #2-80 Singapore 819665,1.338008134,103.9834828
Heavenly Wang ,Clifford Centre Raffles Place #B1-8 Singapore 48621,1.283856981,103.8521282
Heavenly Wang ,East Point Mall Simei Street 3 #B1-20 Singapore 528833,1.342706186,103.9530245
Heavenly Wang ,Harbourfront Centre Maritime Square #1-83 Singapore 99253,1.262063364,103.8186256
Heavenly Wang ,Hougang One Hougang Street 91 #1-22 Singapore 538692,1.37566728,103.8794503
Heavenly Wang ,Khoo Teck Puat Hospital (KTPH) Yishun Central #B1-8 Singapore 768828,1.423877598,103.8378537
Heavenly Wang ,Kitchen Loft Maple Tree Business City Pasir Panjang Road #2-21 Singapore 117439,1.274827483,103.7990648
Food More  ,Mapletree Business City Pasir Panjang Road Mapletree Business City #3-51 Singapore 117384,1.276419219,103.7988874
Food More ,Aperia Kallang Ave Aperia #2-16 Singapore 339511,1.309742413,103.8641016
Stuff'd ,Bugis Junction Victoria Street #B1-K7 Singapore 188021,1.299113161,103.8554112
Stuff'd ,Paya Lebar Square Paya Lebar Road #1-61 Singapore 409051,1.31867575,103.8925506
Stuff'd ,Tampines Mall Tampines Central #B1-K13 Singapore 529510,1.352672316,103.944388
Stuff'd ,Causeway Point Woodlands Square #B1-K17 Singapore 738099,1.436007845,103.7856887
Stuff'd ,City Square Mall Kitchener Road #B1-K1 Singapore 208539,1.311305165,103.8564218
Stuff'd ,Bedok Mall New Upper Changi Road #B2-22 Singapore 467360,1.324772068,103.9292677
Stuff'd ,Yew Tee Point Choa Chu Kang North 6 #B1-50 Singapore 689578,1.397301904,103.7465581
Stuff'd ,Waterway point Punggol Central #B2-K1 Singapore 828761,1.406536107,103.9019882
Stuff'd ,Sun Plaza Sembawang Drive #B1-K18 Singapore 757713,1.448226532,103.8194621
Stuff'd ,Vivo City Harbourfront Walk #B2-31 Singapore 98585,1.263895802,103.8215893
Stuff'd ,Hougang Mall Hougang Avenue 10 #1-38 Singapore 538766,1.372311856,103.8936616
Stuff'd ,Compass One Sengkang Square #B1-2 Singapore 545078,1.39209415,103.89498
Stuff'd ,Clementi Mall Commonwealth Avenue West #B1-K10 Singapore 129488,1.319364906,103.7566094
Stuff'd ,NEX Mall Serangoon Central #B2-47A Singapore 556083,1.350438172,103.8717045
Stuff'd ,Changi City Point Changi Business Park Central 1 #B1-20 Singapore 486038,1.334325156,103.9623893
Stuff'd ,Hillion Mall Petir Road #B2-40 Singapore 678278,1.378349713,103.7627412
Stuff'd White Sands,White Sands Pasir Ris Central Street 3 #B1-K02 Singapore 518457,1.372449816,103.9497157
Stuff'd ,Lot One Choa Chu Kang Avenue 4 #B1-K26 Singapore 689812,1.385068357,103.7449504
Stuff'd ,North Point Shopping Centre Yishun Ave 2 #B1-32 Singapore 769098,1.42969848,103.8357765
Stuff'd ,Jurong Point Shopping Centre Jurong West Central 3 #1-43 Singapore 648331,1.339364021,103.7053082
Stuff'd ,JEM Jurong Gateway Road #B1-K6 Singapore 608549,1.33320021,103.7431704
Stuff'd ,Tiong Bahru Plaza Tiong Bahru Road #B1-K8 Singapore 168732,1.286463453,103.8269351
Stuff'd ,The Seletar Mall Sengkang West Avenue #B2-22 Singapore 797653,1.391393058,103.8760677
Stuff'd ,Junction 8 Bishan Place #B1-19A Singapore 579837,1.350239427,103.8484776
Stuff'd ,Changi Airport Terminal 2 Airport Boulevard #K4- Singapore 819643,1.35519094,103.988751
Stuff'd ,Clifford Centre Raffles Place #B1-1 Singapore 48621,1.283856981,103.8521282
Stuff'd ,CentrePoint Orchard Road #B1-K3 Singapore 238843,1.301978045,103.8397589
Stuff'd ,Alexandra Retail Centre Alexandra Road #1-11 Singapore 119963,1.273676578,103.801127
Stuff'd ,Chinatown Point North Bridge Road #B1-52C Singapore 59413,1.284998828,103.8446971
Stuff'd ,Changi Airport Terminal 3 Airport Boulevard #B2-34A Singapore 819663,1.354370736,103.9851697
Stuff'd ,Ang Mo Kio Hub Ang Mo Kio Ave 3 #1-36 Singapore 569933,1.369248913,103.8483992
Mr Bean ,Changi General Hospital Simei Street 3 #L1-2 Singapore 529889,1.34068474,103.9492944
Mr Bean ,Clementi Mall Commonwealth Avenue West #B1-K16 Singapore 129588,1.314853218,103.7642482
Mr Bean ,Compass One Sengkang Square #1-28 Singapore 545078,1.39209415,103.89498
Mr Bean ,City Square Mall Kitchener Road #B1-27 Singapore 208539,1.311305165,103.8564218
Mr Bean ,Causeway Point Woodlands Square #1-K6 Singapore 738099,1.436007845,103.7856887
Mr Bean ,Dhoby Xchange Orchard Road #B1-44 Singapore 238826,1.298701302,103.8461152
Mr Bean ,Dover MRT Commonwealth Avenue West #2-3 Singapore 138677,1.311405291,103.7786378
Mr Bean ,East Point Mall Simei Street 6 #1-5 Singapore 528833,1.342706186,103.9530245
Mr Bean ,Eunos MRT Eunos Crescent #1-4 Singapore 409423,1.319727155,103.9031003
Mr Bean ,Fajar Shopping Centre Fajar Road #1-552 Singapore 670445,1.383580441,103.7707683
Mr Bean ,Harbourfront Centre Maritime Square #1-K4 Singapore 99253,1.262063364,103.8186256
Mr Bean ,Hougang Mall Hougang Avenue 10 #B1-13A Singapore 538766,1.372311856,103.8936616
Mr Bean ,ITE Ang Mo Kio BLK C Ang Mo Kio Drive #2-1 Singapore 567720,1.377892032,103.856412
Mr Bean ,JEM Jurong Gateway Road #B1-K11 Singapore 608549,1.33320021,103.7431704
Mr Bean ,Jurong East MRT Jurong East Street 12 #1-10 Singapore 609690,1.333295062,103.7421539
Mr Bean ,Jurong Point Shopping Centre Jurong West Central 3 #3-11 Singapore 648331,1.339364021,103.7053082
Mr Bean ,Heartland Mall Kovan Hougang Street 21 #1-7 Singapore 530205,1.359496643,103.8850799
Mr Bean ,Kallang MRT Sims Avenue #1-4 Singapore 387405,1.311487319,103.8713473
Mr Bean ,Kampung Admiralty Woodlands Drive 71 #1-13 Singapore 730676,1.439916082,103.8007012
Mr Bean ,Khoo Teck Puat Hospital (KTPH) Yishun Central #1-8 Singapore 768828,1.423877598,103.8378537
Mr Bean ,Lakeside MRT Boon Lay Way #1-2 Singapore 649845,1.344104772,103.7203019
Mr Bean ,The Metropolis North Buona Vista Drive #1-9 Singapore 138588,1.306245563,103.7912375
Mr Bean ,Northpoint Shopping Centre Yishun Avenue 2 #1-5 Singapore 769098,1.42969848,103.8357765
Mr Bean ,Main Building National University Building Provisional East Wing Lower Kent Ridge Road #1-12 Singapore 119074,1.293953054,103.7827095
Mr Bean ,One-North MRT Station Ayer Rajah Avenue #B2-2 Singapore 138647,1.299689532,103.7874128
Mr Bean ,Our Tampines Hub Tampines Walk #1-83 Singapore 528523,1.353496155,103.9396836
Mr Bean ,Paya Lebar MRT Paya Lebar Road #1-9 Singapore 409006,1.318112082,103.8930604
Mr Bean ,Pioneer Polyclinic Jurong West Street 61 #- Singapore 648201,1.338562243,103.6989793
Mr Bean ,Queenstown MRT Commonwealth Avenue #2-5 Singapore 149729,1.294558423,103.8060432
Mr Bean ,Raffles Place MRT Raffles Place #B1-10 Singapore 48618,1.284333921,103.8513798
Mr Bean ,Redhill MRT Tiong Bahru Road #1-9 Singapore 158792,1.289634531,103.816741
Mr Bean ,Rivervale Plaza Rivervale Drive #1-1 Singapore 540118,1.38493202,103.901558
Mr Bean ,Singapore General Hospital (SGH) Outram Road #1- Singapore 169608,1.279939682,103.8307218
Mr Bean ,Sun Plaza Sembawang Drive #B1-28 Singapore 757713,1.448226532,103.8194621
Mr Bean ,Square 2 Sinaran Drive #1-21 Singapore 307506,1.320429661,103.8438921
Mr Bean ,Tampines Mart Tampines Street 32 #1-35 Singapore 529286,1.354364934,103.9600422
Polar Puffs & Cakes ,Orchard MRT Orchard Road #B1-35 Singapore 238878,1.303979869,103.8322453
Polar Puffs & Cakes ,Great World City Kim Seng Promenade #B1-K1 Singapore 237994,1.293802346,103.8317579
Polar Puffs & Cakes ,Tiong Bahru Plaza Tiong Bahru Road #B1-K10 Singapore 168732,1.286463453,103.8269351
Polar Puffs & Cakes ,Tanjong Pagar MRT Station Maxwell Road #B1-5 Singapore 69119,1.276516012,103.8454218
Polar Puffs & Cakes ,Compass One Sengkang Square #1-26 Singapore 545078,1.39209415,103.89498
Polar Puffs & Cakes ,Hougang Mall Hougang Avenue 10 #B1-K9 Singapore 538766,1.372311856,103.8936616
Polar Puffs & Cakes ,NEX Serangoon Central #3-K3 Singapore 556083,1.350438172,103.8717045
Polar Puffs & Cakes ,Seletar Mall Sengkang West Avenue #B2-K3 Singapore 797653,1.391393058,103.8760677
Polar Puffs & Cakes ,Waterway Point Punggol Central #1-K4 Singapore 828761,1.406536107,103.9019882
Polar Puffs & Cakes ,Ang Mo Kio Hub Ang Mo Kio Avenue 3 #B2-8 Singapore 569933,1.369248913,103.8483992
Polar Puffs & Cakes ,Junction 8 Bishan Place #B1-K2 Singapore 579837,1.350239427,103.8484776
Polar Puffs & Cakes ,Causeway Point Woodlands Square #B1-K7 Singapore 738099,1.436007845,103.7856887
CCT Enterprise Pte. Ltd. ,PSA Pasir panjang Terminal Canteen 1 Harbour Drive #- Singapore 117606,1.275758212,103.7690968
CCT Enterprise Pte. Ltd. ,PSA Pasir panjang Terminal Canteen 2 Harbour Drive #- Singapore 117606,1.275758212,103.7690968
CCT Enterprise Pte. Ltd. ,PSA Pasir panjang Terminal Canteen 3 Harbour Drive #- Singapore 117606,1.275758212,103.7690968
CCT Enterprise Pte. Ltd. ,PSA Pasir panjang Terminal Maintenance Base Harbour Drive #- Singapore 117606,1.275758212,103.7690968
Polar Puffs & Cakes ,Tan Tock Seng Hospital (TTSH) Jalan Tan Tock Seng #1-4 Singapore 308433,1.321715977,103.845389
Polar Puffs & Cakes ,KK Women's and Children's Hospital (KKH) Bukit Timah Road #1-34 Singapore 229899,1.310448527,103.8466501
Polar Puffs & Cakes ,Raffles Place MRT Raffles Place #B1-54 Singapore 48618,1.284333921,103.8513798
Polar Puffs & Cakes ,Mount Alvernia Hospital Thomson Road #1-23 Singapore 574623,1.341809693,103.8375243
Polar Puffs & Cakes ,Sengkang General Hospital Sengkang East Way #1-2 Singapore 544886,1.394299412,103.8930013
Heavenly Wang ,KK Hospital Bukit Timah Road #1-33A Singapore 229899,1.310448527,103.8466501
Heavenly Wang ,Marina Bay Financial Centre (MBFC) Marina Boulevard #2-1 Singapore 18982,1.279105668,103.8542974
Heavenly Wang ,Ng Teng Fong General Hospital Tower B Jurong East Street 21 #1-2 Singapore 609606,1.335533819,103.7438655
Heavenly Wang ,Orchard Gateway Orchard Road #B2-7 Singapore 238858,1.300509542,103.8392241
Heavenly Wang ,Plaza Singapura Orchard Road #B2-35 Singapore 238839,1.300747543,103.8450476
Heavenly Wang ,Rivervale Plaza Rivervale Drive #1-38 Singapore 540118,1.38493202,103.901558
Heavenly Wang ,Safra Punggol Sentul Crescent #3-4 Singapore 828654,1.410113282,103.9060319
Heavenly Wang ,Takashimaya Shopping Centre Orchard Road #B2-30 Singapore 238874,1.302424166,103.8346761
Shimbashi Soba ,Paragon Orchard Road #B1-41 Singapore 238859,1.303723214,103.8352403
Shimbashi Soba ,Great World City Kim Seng Promenade #B1-1 Singapore 237994,1.293802346,103.8317579
Jason Niang Dou Fu , Beach Road #-321 Singapore 199557,1.301301592,103.8609773
Kaki makan Pte. Ltd. ,Block 3 Singapore General Hospital 2 Outram Road #1- Singapore 169608,1.279939682,103.8307218
Sodexo ,"Civil Defence Academy (CDA) National Service Training Institute (NSTI), Police Coast Guard 101 Jalan Bahar #- Singapore 649734",1.367337761,103.6921041
KOI ,Compass One Sengkang Square #1-19 Singapore 545078,1.39209415,103.89498
KOI ,Lucky Plaza Orchard Road #1-15 Singapore 238863,1.304485791,103.8339419
KOI ,Jurong East Gateway Drive Westgate #B1-27 Singapore 608532,1.334025287,103.742586
KOI ,Yishun 10 Multiplex Yishun Central 1 #1-2 Singapore 768794,1.429918063,103.8364202
KOI ,Buona Vista MRT North Buona Vista Road #1-2 Singapore 139345,1.307683501,103.7886962
KOI ,Millenia Walk Raffles Boulevard #1-85 Singapore 39596,1.29296504,103.859344
KOI ,Vivo City Harbourfront Walk #B2-6B Singapore 98585,1.263895802,103.8215893
KOI ,313@Somerset Orchard Road #B3-51 Singapore 238895,1.301385095,103.8376844
KOI ,Plaza Singapura Orchard Road #1-68 Singapore 238839,1.300747543,103.8450476
KOI ,Changi Airport T3 Airport Boulevard #B2-12 Singapore 819663,1.354370736,103.9851697
KOI ,NEX Serangoon Central #B1-7 Singapore 556083,1.350438172,103.8717045
KOI ,City Square Mall Kitchener Road #B1-K6 Singapore 208539,1.311305165,103.8564218
KOI ,Changi City Point Changi Business Park Central 1 #B1-18 Singapore 486038,1.334325156,103.9623893
KOI ,Paya Lebar MRT Paya Lebar Road #1-4 Singapore 409006,1.318112082,103.8930604
KOI ,Boon Lay MRT Boon Lay Way #1-34 Singapore 649846,1.338493279,103.7058454
KOI , Hougang Central #1-214 Singapore 530810,1.371588401,103.8933506
KOI ,Ang Mo Kio MRT Ang Mo Kio Avenue 8 #1-5 Singapore 569811,1.369428549,103.8494552
KOI ,Bishan MRT Bishan Road #1-5 Singapore 579827,1.350705669,103.8480789
KOI ,Bukit Batok MRT Bukit Batok Central #1-7 Singapore 659958,1.348710802,103.7493345
KOI ,Seletar Mall Sengkang West Avenue #B1-K6 Singapore 797653,1.391393058,103.8760677
KOI ,City Link Mall Raffles Link #B1-66 Singapore 39393,1.292777723,103.8541735
KOI ,Ion Orchard Orchard Turn #B4-35 Singapore 238801,1.30403577,103.8313951
KOI ,Yew Tee MRT Choa Chu Kang Drive #1-3 Singapore 689715,1.39712886,103.7473297
KOI ,Tampines MRT Tampines Central 1 #1-8 Singapore 529538,1.353646577,103.9448383
KOI ,White Sands Pasir Ris Central Street 3 #1-32 Singapore 518457,1.372449816,103.9497157
KOI ,Waterway Point Punggol Central #B1-K2 Singapore 828761,1.406536107,103.9019882
KOI ,Chinatown Point New Bridge Road #1-39 Singapore 59413,1.284998828,103.8446971
KOI ,East Point Mall Simei Street 6 #1-8 Singapore 528833,1.342706186,103.9530245
KOI ,Woodlands MRT Woodlands Avenue 2 #1-16 Singapore 738343,1.436819624,103.7860668
KOI ,The Arcade Collyer Quay #1-12 Singapore 49317,1.283619821,103.8520589
KOI ,Jurong Point Jurong West Central 2 #2-41C Singapore 648886,1.339830153,103.7064609
KOI ,Hillion Mall Petir Road #B2-53 Singapore 678278,1.378349713,103.7627412
KOI ,Choa Chu Kang MRT Choa Chu Kang Avenue 4 #1-4 Singapore 689810,1.385672711,103.7441391
KOI ,Novena Square Thomson Road #1-61 Singapore 307683,1.320211,103.8436568
Thyme @ Rochester , Rochester Park #- Singapore 139248,1.304579616,103.7857623
PSA ,Keppel Distripark Kampong Bahru Road #1-108 Singapore 99453,1.270452329,103.8273966
AMGD , Guillemard Road #- Singapore 399717,1.310105645,103.8813266
Sodexo , Pulau Bukom #- Singapore 118382,1.228748693,103.7676476
Sodexo ,Hewlett Packard Enterprise Depot Close #2-1 Singapore 109841,1.282431346,103.8050324
Al,Masjid Al-Mawaddah Compassvale Bow #- Singapore 544997,1.383440438,103.890236
Sin Hong Yun Pte. Ltd. ,DSTA Depot Road #- Singapore 109679,1.279463045,103.8161772
Gong Cha ,Northpoint City Yishun Avenue 2 #1-6 Singapore 769098,1.42969848,103.8357765
Gong Cha ,Singapore Post Centre Eunos Road 8 #1-141A Singapore 408600,1.318856103,103.8940672
Gong Cha ,Takashimaya Orchard Road #B208-7 Singapore 238873,1.302424166,103.8346761
Gong Cha ,NUS UTown Create Way #1-4 Singapore 138602,1.303995508,103.7734922
Gong Cha ,Westgate Gateway Drive #2-27 Singapore 608532,1.334025287,103.742586
Gong Cha ,Eunos MRT Station Eunos Crescent #1-10 Singapore 409423,1.319727155,103.9031003
Gong Cha ,Plaza Singapura Orchard Road #1-K7 Singapore 238839,1.300747543,103.8450476
Gong Cha ,Shopping Podium Tower Raffles Place #B1-39 Singapore 48616,1.284339935,103.8509824
Gong Cha ,Woodlands MRT Station Woodlands Avenue #B1-40 Singapore 738343,1.436819624,103.7860668
Green Signature ,Northpoint City Northpoint Drive #2-128 Singapore 768019,1.428035845,103.8360921
Sufood ,Raffles City North Bridge Road #2-19 Singapore 179103,1.293760279,103.8527683
Sushi Tei ,China Square Central Cross Street #1-28 Singapore 48422,1.283770155,103.8474181
Sushi Tei ,Raffles @ Holland Village Holland Avenue #3-4 Singapore 278997,1.310529774,103.7961052
Sushi Tei ,JEM Jurong Gateway Road #3-18 Singapore 608549,1.33320021,103.7431704
Sushi Tei ,Cendex Centre Lower Delta Road #2-10 Singapore 169208,1.279953974,103.8227889
Sushi Tei ,Paragon Orchard Road #5-4 Singapore 238859,1.303723214,103.8352403
Sushi Tei ,Raffles City Shopping Centre North Bridge Road #3-13 Singapore 179103,1.293760279,103.8527683
Sushi Tei ,NEX Serangoon Central #3-15 Singapore 556083,1.350438172,103.8717045
Sushi Tei , Serangoon Garden Way #- Singapore 555960,1.364207954,103.8654876
Sushi Tei ,Tampines One Tampines Central 1 #4-12 Singapore 529536,1.35431556,103.9450195
Sushi Tei ,Tiong Bahru Plaza Tiong Bahru Road #3-110 Singapore 168732,1.286463453,103.8269351
Sushi Tei ,Thomson Plaza Upper Thomson Road #3-46 Singapore 574408,1.354669019,103.8309198
Sushi Tei ,Vivo City Harbourfront Walk #2-152 Singapore 98585,1.263895802,103.8215893
Sushi Tei ,West Coast Plaza Shopping Mall West Coast Road #1-69 Singapore 127371,1.303582681,103.7652845
Oh's Farm Catering (F&B) Pte. Ltd.,Brani Terminal Building Keppel Road #- Singapore 117606,1.275758212,103.7690968
KOI ,HDB Hub Toa Payoh Lorong 6 Toa Payoh #1-23 Singapore 310490,1.33257175,103.8480526
KOI , Marine Parade Central #1-590 Singapore 440083,1.302559764,103.9060746
KOI , Ang Mo Kio Avenue 8 #1-2543 Singapore 560703,1.369775267,103.8473214
KOI , Bishan Street 13 #1-502 Singapore 570513,1.349466337,103.8494673
KOI ,Bugis+ Victoria Street #1-1 Singapore 188067,1.299660159,103.8535181
KOI , Clementi Avenue 3 #1-67 Singapore 120443,1.314210512,103.7640104
KOI ,Tampines Tampines Central 1 #1-250 Singapore 520510,1.354801078,103.9444581
KOI ,Bedok Mall New Uppoer Changi Road #1-97 Singapore 467360,1.324772068,103.9292677
Polar Puffs & Cakes ,North Point Shopping Centre Yishun Avenue 2 #B1-11 Singapore 769098,1.42969848,103.8357765
Polar Puffs & Cakes ,Novena Square 2 Sinaran Drive #B1-127 Singapore 307506,1.320429661,103.8438921
Polar Puffs & Cakes ,Sembawang Shopping Centre Sembawang Road #B1-K6 Singapore 758459,1.441767148,103.8244951
Polar Puffs & Cakes ,Bedok Mall New Upper Changi Road #B2-K5 Singapore 467360,1.324772068,103.9292677
Polar Puffs & Cakes ,Bugis Junction Victoria Street #B1-K8 Singapore 188021,1.299113161,103.8554112
Polar Puffs & Cakes ,Tampines Mall Tampines Central 5 #B1-K14 Singapore 529510,1.352672316,103.944388
Polar Puffs & Cakes ,White Sands Pasir Ris Central Street 3 #B1-K1 Singapore 518457,1.372449816,103.9497157
Polar Puffs & Cakes ,The Clementi Mall Commonwealth Avenue West #B1-K15 Singapore 129588,1.314853218,103.7642482
Polar Puffs & Cakes ,Jurong Point Jurong West Central 2 #B1-11 Singapore 648886,1.339830153,103.7064609
Polar Puffs & Cakes ,Lot 1 Shoppers' Mall Choa Chu Kang Avenue 4 #B1-K20 Singapore 689812,1.385068357,103.7449504
Polar Puffs & Cakes ,West Mall Bukit Batok Central Link #1-K7 Singapore 658713,1.35018916,103.749022
Mr Bean ,Tampines Mall Tampines Mall 5 #B1-K11 Singapore 529510,1.352672316,103.944388
Mr Bean ,Tampines MRT Tampines Central 1 #1-23 Singapore 529538,1.353646577,103.9448383
Mr Bean ,Toa Payoh Hub Toa Payoh Lor 6 #1-35 Singapore 310500,1.332965491,103.8470504
Mr Bean ,Tanjong Pagar MRT Station Maxwell Road #B1-18 Singapore 69119,1.276516012,103.8454218
Mr Bean ,Mapletree 18 Tai Seng Street #B1-12 Singapore 539775,1.336356489,103.8887158
Mr Bean ,Tan Tock Seng Hospital (TTSH) Jalan Tan Tock Seng #1-11 Singapore 308433,1.321715977,103.845389
Mr Bean ,Vivo City Harbourfront Walk #B2-K9 Singapore 98585,1.263895802,103.8215893
Mr Bean ,West Mall Bukit Batok Central Link #1-7A Singapore 658713,1.35018916,103.749022
Mr Bean ,Waterway Point Punggol Central #1-K1 Singapore 828761,1.406536107,103.9019882
Mr Bean ,Yew Tee Point Choa Chu Kang North 6 #1-52 Singapore 689578,1.397301904,103.7465581
Mr Bean ,"Singapore Management University (SMU), School of Economics & Social Science Stamford Road #1-72 Singapore 178903",1.297925239,103.8488508
Mr Bean ,V Hotel Lavender Jellicoe Road #1-16 Singapore 208767,1.307809275,103.8625256
Mr Bean ,Junction 8 Bishan Place #B1-K6 Singapore 579837,1.350239427,103.8484776
Mr Bean ,Republic Plaza Raffles Place #1-8A Singapore 48619,1.283483633,103.850574
Mr Bean ,Chinese Garden MRT Boon Lay Way #1-2 Singapore 609959,1.342352818,103.7325967
Mr Bean ,Sengkang General Hospital Sengkang East Way #1-5 Singapore 544886,1.394299412,103.8930013
Mr Bean ,National Centre of Infectious Disease Jalan Tan Tock Seng #B1-5 Singapore 308442,1.32139722,103.8477982
Mr Bean ,Northpoint City Northpoint Drive #B2-130 Singapore 768019,1.428035845,103.8360921
Mr Bean ,Poiz Centre Upper Serangoon Road #1-8 Singapore 347697,1.331303508,103.8680765
Mr Bean ,National University Hospital Lower Kent Ridge Road #1-1 Singapore 119085,1.29585937,103.7832396
Mr Bean ,Fusionopolis Fusionopolis Place #1-6 Singapore 138632,1.299294056,103.7874041
Mr Bean ,KK Women's and Children's Hospital (KKH) Bukit Timah Road #100-1 Singapore 229899,1.310448527,103.8466501
Mr Bean ,Buangkok Link Buangkok Link #1-4 Singapore 530911,1.378937418,103.8838557
Mr Bean ,Yishun Polyclinic Yishun Avenue 9 #1-1 Singapore 768898,1.430358511,103.8391907
Mr Bean ,Tiong Bahru Plaza Tiong Bahru Road #B1-K4 Singapore 168732,1.286463453,103.8269351
Mr Bean ,White Sands Pasir Ris Central Street 3 #1-41 Singapore 518457,1.372449816,103.9497157
Mr Bean ,Suntec City Mall East Wing 3 Temasek Boulevard #B1-106 Singapore 38983,1.294879041,103.8576755
Mr Bean ,Paya Lebar Quarter Paya Lebar Road #B2-16 Singapore 409057,1.317523841,103.8927244
Mr Bean ,"Nanyang Technological University, North Spine Plaza Nanyang Avenue #1-16 Singapore 639798",1.346764651,103.6788181
Eurest ,Resorts World Sentosa 26 Sentosa Gateway #B2-101 Singapore 98138,1.256573486,103.819459
Eurest ,Resorts World Sentosa 26 Sentosa Gateway #B1-133 Singapore 98138,1.256573486,103.819459
Eurest ,Global Foundries Woodlands Industrial Park D Street 2 #- Singapore 738406,1.438482203,103.7673048
Eurest ,Global Foundries Woodlands Industrial Park D Street 2 #- Singapore 738406,1.438482203,103.7673048
Eurest ,Global Foundries 1 Tampines Industrial Avenue 5 #- Singapore 528830,1.3708498,103.9288009
Eurest , Tuas Bay Link #- Singapore 637394,1.297280162,103.6413905
Eurest ,Citibank Changi Business Park Instant Banking Centre Changi Business Park Crescent #- Singapore 486026,1.334132417,103.9658325
Gong Cha ,Century Square Tampines Central #1-55 Singapore 529510,1.352672316,103.944388
Gong Cha ,Lee Kong Chian School of Business Stamford Road #1-1 Singapore 178899,1.295090444,103.8505662
Gong Cha , Lorong 6 Toa Payoh #1-546 Singapore 310190,1.332975621,103.8479654
Gong Cha ,Tan Tock Seng Hospital (TTSH) Jalan Tan Tock Seng #B1-3 Singapore 308442,1.32139722,103.8477982
Gong Cha ,Bugis Junction Victoria Street #3-8 Singapore 188021,1.299113161,103.8554112
Gong Cha ,Compass One Sengkang Square #2-40 Singapore 545078,1.39209415,103.89498
Gong Cha ,Pasir Ris MRT Pasir Ris Central #1-14 Singapore 519634,1.373008042,103.9492651
Gong Cha ,Simei MRT Simei Street 3 #1-4 Singapore 529888,1.343203414,103.9533713
Singtel ,Comcentre Exeter Road #B1- Singapore 239732,1.298975499,103.8384064
Singtel ,Singtel Building Serangoon North Avenue 5 #1- Singapore 554915,1.372532587,103.867233
Singtel ,NCS Hub Ang Mo Kio Street 62 BLK B #6- Singapore 569141,1.387912016,103.8440335
Sunnychoice ,The Rail Mall Upper Bukit Timah Road #- Singapore 678060,1.359269266,103.7676411
Sunnychoice , Bukit Batok Central #1-156 Singapore 650630,1.35008771,103.749915
Sunnychoice , Bukit Merah Lane 1 #1-158 Singapore 150125,1.285933668,103.8029997
Each,Kallang Leisure Park Stadium Walk #1-30 Singapore 397693,1.302221771,103.8761527
Each,POMO Seligie Road #1-8 Singapore 188306,1.300046856,103.8492464
Each,Ion Orchard Orchard Turn #B4-69 Singapore 238801,1.30403577,103.8313951
Each,Plaza Singapura Orchard Road #B2-48 Singapore 238839,1.300747543,103.8450476
Each,Wilkie Edge Wilkie Road #1-6 Singapore 228095,1.302122024,103.8495113
Each,Marina Square Shopping Mall Raffles Boulevard #2-233 Singapore 39594,1.291455259,103.8570073
Each,E! Hub @ Downtown East Pasir Ris Close #2-109 Singapore 519599,1.377140734,103.9535991
Each,Tampines One Tampines Central 1 #B1-K8 Singapore 529536,1.35431556,103.9450195
Each, Pasir Ris Drive 6 #1-14 Singapore 510443,1.369492842,103.9573481
Each,Causeway Point Woodlands Square #B1-K13 Singapore 738099,1.436007845,103.7856887
LiHo ,Junction 9 Yishun Avenue 9 #1-37 Singapore 768897,1.433031973,103.8416008
LiHo ,Waterway Point Punggol Central #B2-K10 Singapore 828761,1.406536107,103.9019882
LiHo ,Hougang 1 Hougang Street 91 #1-37 Singapore 538692,1.37566728,103.8794503
LiHo ,Hougang Mall Hougang Avenue 10 #2-24 Singapore 538766,1.372311856,103.8936616
LiHo ,Serangoon NEX Serangoon Central #4-K22 Singapore 556083,1.350438172,103.8717045
LiHo ,Compass One Sengkang Square #B1-43 Singapore 545078,1.39209415,103.89498
LiHo ,Rivervale Mall Rivervale Crescent #1-4A Singapore 545082,1.392197776,103.9044716
LiHo ,The Shoppes at Marina Bay Sands Bayfront Avenue #1-72 Singapore 18956,1.282333351,103.8583084
LiHo ,One Raffles Place Raffles Place #B1-10 Singapore 48616,1.284339935,103.8509824
LiHo ,Far East Square Amoy Street #1-2 Singapore 49964,1.283154302,103.8482272
LiHo ,Asia Square Tower 2 Marina View #2-8 Singapore 18961,1.278307291,103.8507952
LiHo ,Capitol Piazza Stamford Road #B2-31 Singapore 178905,1.29307884,103.851262
LiHo ,Suntec City Mall Temasek Boulevard #3-379 Singapore 38983,1.294879041,103.8576755
LiHo ,18 @ Tai Seng Tai Seng Street #B1-11 Singapore 539775,1.336356489,103.8887158
LiHo ,100AM @ Amara Hotel Tras Street #1-7 Singapore 88539,1.274934738,103.8435001
LiHo ,Tanjong Pager Center Wallich Street #B2-20 Singapore 78884,1.276724923,103.8451554
LiHo ,Tiong Bahru Plaza Tiong Bahru Road #B1-K9 Singapore 168732,1.286463453,103.8269351
LiHo ,Tiong Bahru Plaza 2 (L1) Tiong Bahru Road #1-155 Singapore 168732,1.286463453,103.8269351
LiHo ,Bukit Merah Central Bukit Merah Central #1-3661 Singapore 150165,1.283055888,103.8166928
LiHo ,Vivo City Harbourfront Walk #1-111 Singapore 98585,1.263895802,103.8215893
LiHo ,Sentosa Beach Station Beach View #1-K9 Singapore 98604,1.251208568,103.8175345
LiHo ,Resorts World Sentosa Sentosa Gateway #1-208 Singapore 98138,1.256573486,103.819459
LiHo ,Alexandra Retail Centre Alexandra Road #1-10 Singapore 119963,1.273676578,103.801127
LiHo ,The Central Eu Tong Sen Street #B1-25 Singapore 59817,1.288862917,103.846556
LiHo ,OneKM Tanjong Katong Road #2-40 Singapore 437157,1.314692127,103.8944805
LiHo ,Suntec City Mall Temasek Boulevard #2-312 Singapore 38983,1.294879041,103.8576755
LiHo ,Lucky Chinatown New Bridge Road #1-9 Singapore 59432,1.283653106,103.8433096
LiHo ,Heartland Mall Kovan Hougang Street 21 #2-30 Singapore 530205,1.359496643,103.8850799
LiHo ,AMK Hub Ang Mo Kio Ave 3 #B2-57 Singapore 569933,1.369248913,103.8483992
LiHo ,The Central Eu Tong Seng Street #1-37 Singapore 59817,1.288862917,103.846556
Eight Treasures , South Bridge Road #- Singapore 58831,1.281587019,103.844646
Polar Puffs & Cakes ,JEM Jurong Gateway Road #B1-31 Singapore 608549,1.33320021,103.7431704
Polar Puffs & Cakes ,Singapore Post Centre Eunos Road 8 #B1-149 Singapore 408600,1.318856103,103.8940672
Nick Vina Artisan Bakery ,Gopeng St Gopeng street #1-54 Singapore 78877,1.275169999,103.8444964
Nick Vina Artisan Bakery ,Tanglin Mall Tanglin Road #B1-2 Singapore 247933,1.304843432,103.8238528
Nick Vina Artisan Bakery ,Plaza Singapura Orchard Road #B1-15 Singapore 238839,1.300747543,103.8450476
Nick Vina Artisan Bakery ,Quayside Isle Ocean Way #1-26 Singapore 98375,1.247758623,103.8419211
Qi Ji , Rochor Road #- Singapore 188435,1.300917987,103.8552479
Qi Ji ,East Point Mall Simei Street 6 #1-36B Singapore 528833,1.342706186,103.9530245
Qi Ji ,Hougang Mall Hougang Avenue 10 #1-41 Singapore 538766,1.372311856,103.8936616
Qi Ji ,Heartland Mall Kovan Hougang Street 21 #1-133 Singapore 530205,1.359496643,103.8850799
Qi Ji ,Marina Square Shopping Mall Raffles Boulevard #1-6 Singapore 39594,1.291455259,103.8570073
Qi Ji ,NEX Shopping Mall Serangoon Central #3-10 Singapore 556083,1.350438172,103.8717045
Qi Ji ,NUH Shopping Mall Lower Kent Ridge Road #1-11 Singapore 119074,1.293953054,103.7827095
Qi Ji ,One KM Shopping Mall Tanjong Katong Road #B1-K18 Singapore 437157,1.314692127,103.8944805
Qi Ji ,Our Tampines Hub Shopping Mall Tampines Walk #B1-K7 Singapore 528523,1.353496155,103.9396836
Qi Ji ,Suntec City Shopping Mall Temasek Boulevard #B1-139 Singapore 38983,1.294879041,103.8576755
Qi Ji ,The Star Vista Shopping Mall Vista Exchange Green #1-22 Singapore 138617,1.306848818,103.7882145
Qi Ji ,Oasis Terraces Punggol Drive #1-37 Singapore 820681,1.402878453,103.9131957
Qi Ji ,Sun Plaza Sembawang Drive #1-1 Singapore 757713,1.448226532,103.8194621
Qi Ji ,Ang Mo Kio Hub Ang Mo Kio Avenue 3 #B2-51 Singapore 569933,1.369248913,103.8483992
Qi Ji ,Ng Teng Fong Hospital Jurong East Street 21 #2-11 Singapore 609606,1.335533819,103.7438655
Qi Ji ,Funan Mall North Bridge Road #B2-12 Singapore 179097,1.291146273,103.8498342
Qi Ji ,SCC @ Harbourfront Maritime Square #1-28 Singapore 99253,1.262063364,103.8186256
Nine Fresh Desserts Taiwan ?? ,Chinatown Point New Bridge Road #B2-43 Singapore 59413,1.284998828,103.8446971
Nine Fresh Desserts Taiwan ?? ,Choa Chu Kang MRT Choa Chu Kang Avenue 4 #1-10 Singapore 689810,1.385672711,103.7441391
Nine Fresh Desserts Taiwan ?? ,Compass One Sengkang Square #B1-41 Singapore 545078,1.39209415,103.89498
Nine Fresh Desserts Taiwan ?? ,Hougang Mall Hougang Avenue 10 #B1-K11 Singapore 538766,1.372311856,103.8936616
Nine Fresh Desserts Taiwan ?? ,Jurong Point Jurong West Central 2 #B1-K3 Singapore 648886,1.339830153,103.7064609
Nine Fresh Desserts Taiwan ?? ,Northpoint City Yishun Avenue 2 #B2-153 Singapore 769098,1.42969848,103.8357765
Nine Fresh Desserts Taiwan ?? ,Paya Lebar Square Paya Lebar Road #1-49 Singapore 409051,1.31867575,103.8925506
Nine Fresh Desserts Taiwan ?? ,Century Square Tampines Central 5 #B1-25 Singapore 529509,1.352278032,103.9437277
Nine Fresh Desserts Taiwan ?? ,Seletar Mall Sengkang West Avenue #B1-K3 Singapore 797653,1.391393058,103.8760677
Nine Fresh Desserts Taiwan ?? ,Sun Plaza Sembawang Drive #B1-36 Singapore 757713,1.448226532,103.8194621
Nine Fresh Desserts Taiwan ?? ,Tiong Bahru Plaza Tiong Bahru Road #B1-K1 Singapore 168732,1.286463453,103.8269351
Nine Fresh Desserts Taiwan ?? ,White Sands Shopping Centre Pasir Ris Central Street 3 #2-K7 Singapore 518457,1.372449816,103.9497157
Nine Fresh Desserts Taiwan ?? ,Woodlands MRT Woodlands Avenue 2 #1-12 Singapore 738343,1.436819624,103.7860668
Nine Fresh Desserts Taiwan ?? ,Yew Tee Point Choa Chu Kang North 6 #B1-42 Singapore 689578,1.397301904,103.7465581
Eatzi Gourmet Bistro ,SAFRA Yishun Yishun Avenue 4 #1-V2 Singapore 768828,1.423877598,103.8378537
Eatzi Gourmet Bistro ,Paya Lebar Square Paya Lebar Road #B1-15 Singapore 409051,1.31867575,103.8925506
Cali @ Changi, Changi Business Park #- Singapore 486015,1.335696839,103.962987
LiHo ,Liang Court River Valley Road #B1-14 Singapore 179030,1.291490197,103.8446689
LiHo ,Nanyang Technological University Nanyang Drive #- Singapore 637331,1.347130438,103.6800338
LiHo ,Gek Poh Shopping Centre Jurong West Street 75 #1-328 Singapore 640762,1.348743572,103.6977321
LiHo ,Junction 10 Woodlands Road #1-26 Singapore 677899,1.380605125,103.7600416
LiHo ,Bukit Panjang Plaza Jelebu Road #1-21 Singapore 677743,1.380517328,103.7639619
LiHo ,Causeway Point Woodlands Square #B1-K01A Singapore 738099,1.436007845,103.7856887
LiHo ,Bukit Gombak MRT Station Bukit Batok West Avenue 5 #1-1 Singapore 659083,1.358611582,103.7517909
LiHo ,Lot One Shoppers' Mall Choa Chu Kang Avenue 4 #B1-K30 Singapore 689812,1.385068357,103.7449504
LiHo ,Jurong Point 1 @ NTUC Jurong West Central 2 #B1-9 Singapore 648886,1.339830153,103.7064609
LiHo ,Jurong Point 2 Jurong West Central 3 #3-89E Singapore 648331,1.339364021,103.7053082
LiHo ,National University of Singapore Lower Kent Ridge Road #2-8 Singapore 119077,1.30132731,103.7742773
LiHo ,Plaza Singapura Orchard Road #B1-K7 Singapore 238839,1.300747543,103.8450476
LiHo ,Tampines MRT Tampines Central 1 #1-24 Singapore 529538,1.353646577,103.9448383
LiHo ,The Cathay Handy Road #1-10 Singapore 229233,1.29918373,103.8477898
LiHo ,Admiralty Place Woodlands Avenue 6 #1-15 Singapore 731678,1.440415298,103.8014895
LiHo ,AMK Jubilee Square Ang Mo Kio Avenue 8 #1-14 Singapore 569814,1.371785516,103.8477757
LiHo ,Yew Tee Point Choa Chu Kang North #1-49 Singapore 689578,1.397301904,103.7465581
LiHo ,Paya Lebar Square Paya Lebar Road #1-50 Singapore 409051,1.31867575,103.8925506
LiHo ,Sembawang SC Sembawang Road #B1-17 Singapore 758459,1.441767148,103.8244951
LiHo ,Burlington Square Bencoolen Street #1-53 Singapore 189649,1.302229515,103.8525381
LiHo ,Thomson Plaza Upper Thomson Road #1-104 Singapore 574408,1.354669019,103.8309198
LiHo ,United Square Thomson Road #B1-40 Singapore 307591,1.31733463,103.8434632
LiHo ,Great World City Kim Seng Promenade #B1-K1 Singapore 237994,1.293802346,103.8317579
LiHo ,Anchor Point Alexandra Road #B1-47 Singapore 159953,1.288614687,103.80501
Each, Woodlands Street 31 #1-287 Singapore 730302,1.431511145,103.7744284
Each,Rivervale Mall Rivervale Crescent #1-22 Singapore 545082,1.392197776,103.9044716
Each,West Mall Bukit Batok Central Link #1-7 Singapore 658713,1.35018916,103.749022
Each,Dover MRT Commonwealth Avenue West #2-2 Singapore 138677,1.311405291,103.7786378
Each, Jurong West Avenue 1 #1-825 Singapore 640502,1.35043775,103.7181138
Each,NTU Northspine Plaza Nanyang Avenue #1-21 Singapore 639798,1.346764651,103.6788181
Each,Holland Village MRT Holland Avenue #B1-12 Singapore 278995,1.312240293,103.7963991
Each,Senja-Cashew CC Bukit Panjang Road #1-3 Singapore 679910,1.38158679,103.7646596
LiHo ,Far East Plaza Scotts Road #1-16F Singapore 228213,1.307246743,103.8336649
LiHo ,my Village @ Serangoon Gardens Maju Avenue #1-4 Singapore 556676,1.360155498,103.8713252
LiHo ,Wisma Atria Orchard Road #B1-3 Singapore 238877,1.303698902,103.8331896
LiHo ,Eastpoint Mall Simei Street 6 #1-K1 Singapore 528833,1.342706186,103.9530245
LiHo ,Eunos MRT Eunos Crescent #1-5 Singapore 409423,1.319727155,103.9031003
LiHo ,Tampines Hub Tampines Avenue 4 #1-K1 Singapore 528523,1.353496155,103.9396836
LiHo ,112 Katong East Coast Road #B1-2A Singapore 428802,1.305223056,103.9050439
LiHo ,Tampines Mall Tampines Central 5 #B1-K5 Singapore 529510,1.352672316,103.944388
LiHo ,Bedok Mall New Upper Changi Road #B2-K16 Singapore 467360,1.324772068,103.9292677
LiHo ,White Sands Pasir Ris Central Street 3 #1-12A Singapore 518457,1.372449816,103.9497157
LiHo ,Changi City Point Changi Business Park Central 1 #B1-41 Singapore 486038,1.334325156,103.9623893
LiHo ,"T3 Airport Airport Boulevard, Arrival hall #1-23 Singapore 819663",1.354370736,103.9851697
LiHo ,T4 Airport Airport Boulevard #1-8 Singapore 819665,1.338008134,103.9834828
LiHo ,Clementi Mall Commonwealth Avenue West #B1-K6 Singapore 129588,1.314853218,103.7642482
LiHo ,West Coast Plaza West Coast Road #B1-54 Singapore 127371,1.303582681,103.7652845
LiHo ,Red Hill MRT Tiong Bahru Road #1-8 Singapore 158792,1.289634531,103.816741
LiHo ,IMM Building Jurong East Street 21 #1-K12 Singapore 609601,1.334898437,103.7467345
LiHo ,Jcube Jurong East Central 1 #3-13 Singapore 609731,1.333268187,103.7401767
LiHo ,JEM Jurong Gateway Road #B1-30 Singapore 608549,1.33320021,103.7431704
LiHo ,Bugis + Victoria Street #3-29 Singapore 188067,1.299660159,103.8535181
LiHo ,Bugis Street New Bugis Street CYFL4 #- Singapore 188867,1.300533904,103.8548309
LiHo ,Bugis DTL Rochor Road #B2-7A Singapore 188476,1.299313495,103.857126
LiHo ,V Hotel Lavender Jellicoe Road #1-21 Singapore 208767,1.307809275,103.8625256
LiHo ,Aljunied MRT Geylang Lorong 25 #1-4 Singapore 388310,1.316432603,103.8829061
LiHo ,Orchard Gateway Orchard Road #B2-13 Singapore 238858,1.300509542,103.8392241
LiHo ,The CentrePoint Orchard Road #B1-K2 Singapore 238843,1.301978045,103.8397589
LiHo ,SMU Stamford Road #1-71 Singapore 178903,1.297925239,103.8488508
LiHo ,Peace Centre Sophia Road #1-7 Singapore 228149,1.301070533,103.8491763
LiHo ,Scape Orchard Link #2-10 Singapore 237978,1.300865434,103.8357008
LiHo ,Cathay Cineleisure Grange Road #B1-6 Singapore 239695,1.301521016,103.8364297
LiHo ,Star Vista Vista Exchange Green #B1-39 Singapore 138617,1.306848818,103.7882145
LiHo ,Zhong Shan Mall Ah Hood Road #1-9 Singapore 329984,1.327084845,103.8464765
LiHo ,Toa Payoh Central Lorong 6 Toa Payoh Central #1-536 Singapore 310190,1.332975621,103.8479654
LiHo ,Royal Square Novena Irrawady Road #1-26 Singapore 329566,1.320571563,103.8432193
LiHo ,Juction 8 SC Bishan Place #2-18A Singapore 579837,1.350239427,103.8484776
LiHo ,Ang Mo Kio HUB Ang Mo Kio Avenue 3 #2-66 Singapore 569933,1.369248913,103.8483992
LiHo ,Square 2 Sinaran Drive #1-172 Singapore 307506,1.320429661,103.8438921
LiHo ,Greenwich Seletar Road #1-20 Singapore 807011,1.38739538,103.869136
LiHo ,Seletar Mall Sengkang West Avenue #B1-27 Singapore 797653,1.391393058,103.8760677
LiHo ,Sun Plaza Sembawang Drive #B1-29 Singapore 757713,1.448226532,103.8194621
LiHo ,Northpoint Yishun Avenue 2 #1-17 Singapore 769098,1.42969848,103.8357765
Cali @ Rochester, Rochester Drive #1-1 Singapore 138637,1.305351204,103.7883474
Soi 47 Thai Food , Toa Payoh Lor 6 #1-130 Singapore 310047,1.336910291,103.8540304
Callery's ,Midview City Sin Ming Lane #3-65 Singapore 573968,1.35809519,103.8333561
Swee Heng , Tampines St 23 #1-88 Singapore 527201,1.352921614,103.9538583
Swee Heng ,Fajar Shopping Center Fajar Road #1-522 Singapore 670445,1.383580441,103.7707683
Swee Heng , Jurong East St 24 #1-179 Singapore 600252,1.34302026,103.7381155
Swee Heng ,Bukit Panjang Plaza 1 Jelebu Road #1-22B Singapore 677743,1.380517328,103.7639619
Swee Heng ,Gek Poh Shopping Centre Jurong West St 75 #1-256 Singapore 640762,1.348743572,103.6977321
Swee Heng , Geylang Serai #1-197 Singapore 402001,1.316725141,103.8979774
Swee Heng , Canberra Road #1-7 Singapore 750511,1.453845183,103.8195433
Swee Heng , Ubi Ave 1 #1-201 Singapore 400306,1.32987219,103.9019297
Swee Heng , Bendemeer Road #1-637 Singapore 330027,1.318838153,103.8628158
Swee Heng ,Boon Lay Shopping Centre Boon Lay Place #1-158 Singapore 640221,1.346348184,103.7124293
Swee Heng , Teban Garden Road #1-310 Singapore 600037,1.320520266,103.7426515
Swee Heng , Woodlands Ave 6 #1-12 Singapore 731678,1.440415298,103.8014895
Swee Heng ,Vista Point Woodlands Drive 44 #1-19 Singapore 730548,1.430840066,103.7934163
Swee Heng ,Rivervale Plaza N0. 118 Rivervale Drive #1-17 Singapore 540118,1.38493202,103.901558
Swee Heng , Choa Chu Kang Ave 1 #B1-19 Singapore 680253,1.377439626,103.7443832
Swee Heng , Jurong West St 92 #1-186 Singapore 640960,1.341385303,103.6914596
Swee Heng , Bukit Batok St 13 #1-372 Singapore 650372,1.358669164,103.7512137
Swee Heng ,Hougang Capeview Upper Serangoon View #2-16 Singapore 530476,1.377430063,103.9037129
Swee Heng , Jurong West St 41 #1-98 Singapore 640495,1.349690731,103.7243624
Swee Heng , Jurong West St 51 #1-243 Singapore 640504,1.349827597,103.7188438
Swee Heng ,Waterway Terrace Punggol Walk #1-306 Singapore 822308,1.407766772,103.8988787
Swee Heng ,888 Plaza Woodlands Drive 50 #1-747 Singapore 730888,1.437679197,103.7951367
Swee Heng ,Woodland Mart Woodlands Ave 6 #1-28 Singapore 730768,1.445622899,103.798141
Swee Heng , Compassvale Drive #1-5 Singapore 543215,1.389770261,103.8927872
Swee Heng , Yishun Ave 4 #4-3 Singapore 760507,1.415176336,103.8398304
Swee Heng , Choa Chu Kang Ave 1 #1-3 Singapore 680818,1.378026161,103.7488268
Swee Heng ,Heatbeat @ Bedok Bedok North St 1 #1-21 Singapore 469662,1.326984988,103.9316206
The Coffee Bean & Tea Leaf ,Parkway Parade Marine Parade Road #B1-83H Singapore 449269,1.301191307,103.9051136
The Coffee Bean & Tea Leaf ,Tampines 1 Tampines Central 1 #3-K3 Singapore 529536,1.35431556,103.9450195
The Coffee Bean & Tea Leaf ,Singapore Post Eunos Road #1-144 Singapore 408600,1.318856103,103.8940672
The Coffee Bean & Tea Leaf ,Victoria Street Victoria Street #1-6 Singapore 188067,1.299660159,103.8535181
The Coffee Bean & Tea Leaf ,Esplanade Mall Raffles Avenue #1-2 Singapore 39802,1.289509553,103.8556658
The Coffee Bean & Tea Leaf ,Orchard Road Orchard Road #1-45 Singapore 238884,1.306195795,103.828509
The Coffee Bean & Tea Leaf ,ION Orchard Orchard Turn #B1-12 Singapore 238801,1.30403577,103.8313951
The Coffee Bean & Tea Leaf ,Marina Square Raffles Boulevard #2-103A Singapore 39594,1.291455259,103.8570073
The Coffee Bean & Tea Leaf ,Millenia Walk Raffles Boulevard #1-106 Singapore 39596,1.29296504,103.859344
The Coffee Bean & Tea Leaf ,Suntec City Mall Temasek Boulevard #2-603 Singapore 38983,1.294879041,103.8576755
The Coffee Bean & Tea Leaf ,The Centrepoint Orchard Road #1-33C Singapore 238843,1.301978045,103.8397589
The Coffee Bean & Tea Leaf ,Tiong Bahru Plaza Tiong Bahru Road #1-112 Singapore 168732,1.286463453,103.8269351
The Coffee Bean & Tea Leaf ,Plaza Singapura Orchard Road #5-20 Singapore 238839,1.300747543,103.8450476
The Coffee Bean & Tea Leaf ,Orchard Link Orchard Link #2-39 Singapore 237978,1.300865434,103.8357008
The Coffee Bean & Tea Leaf ,Great World City Kim Seng Promenade #2-K101 Singapore 237994,1.293802346,103.8317579
The Coffee Bean & Tea Leaf ,Guthrie House Fifth Avenue #1-4 Singapore 268802,1.330817401,103.7956924
The Coffee Bean & Tea Leaf ,Jurong Point Jurong West Central #1-16E Singapore 648886,1.339830153,103.7064609
The Coffee Bean & Tea Leaf ,Harbourfront Centre Maritime Square #2-124 Singapore 99253,1.262063364,103.8186256
The Coffee Bean & Tea Leaf ,Century Square Tampines Central 5 #1-19 Singapore 529509,1.352278032,103.9437277
The Coffee Bean & Tea Leaf ,Changi Business Park Changi Business Park Central 1 #1-41 Singapore 486038,1.334325156,103.9623893
The Coffee Bean & Tea Leaf ,Downtown East Pasir Ris Close #2-106 Singapore 519599,1.377140734,103.9535991
The Coffee Bean & Tea Leaf ,Kallang Wave Mall Stadium Place #1-44 Singapore 397628,1.303843268,103.8727507
The Coffee Bean & Tea Leaf ,Kallang Leisure Park Stadium Walk #1-9 Singapore 397693,1.302221771,103.8761527
Each,Bukit Panjang ITH Petir Road #1-61 Singapore 678270,1.378431008,103.7628428
Each,One North MRT Ayer Rajah Avenue #B2-1 Singapore 138647,1.299689532,103.7874128
Each,ITE College West Choa Chu Kang Grove #5-1 Singapore 688236,1.375024934,103.7521127
Each,Nanyang Polytechnic Ang Mo Kio Avenue 8 #- Singapore 569830,1.380340907,103.8480833
Each,Junction 9 Yishun Avenue 9 #2-59 Singapore 768897,1.433031973,103.8416008
Each,Wisteria Mall Yishun Ring Road #1-22 Singapore 768698,1.417999256,103.8412365
Each,E! Avenue Pasir Ris Close #2-K2 Singapore 519599,1.377140734,103.9535991
Each,Bedok Point New Upper Changi Road #2-24 Singapore 467351,1.324961423,103.9323601
Each,Ng Teng Fong Hospital Jurong East Street 21 #2-27 Singapore 609606,1.335533819,103.7438655
Each,"Ngee Ann Polytechnic, BLK 1, Library Clementi Road #- Singapore 599489",1.332762597,103.7715625
Each,National Junior College Hillcrest Road #- Singapore 288913,1.330292909,103.8041109
Each,SIT@NP Building Clementi Road #2- Singapore 599493,1.334132601,103.7743898
Each, Tampines Street 43 #1-174 Singapore 520477,1.360921548,103.9528921
Each,The Centrepoint Orchard Road #1-K5 Singapore 238843,1.301978045,103.8397589
Each,The Poiz Centre Upper Serangoon Road #1-10 Singapore 347697,1.331303508,103.8680765
Each, Ubi Ave 1 #1-195 Singapore 400306,1.32987219,103.9019297
Each, Yishun Ring Road #1-151 Singapore 760106,1.43147861,103.827452
Each, Yishun Ave 11 #1-347 Singapore 760417,1.424420951,103.8462845
Qi Philosophy Caf√É¬© ,Sky Terrace @ Dawson Dawson Road #1-2 Singapore 142093,1.294992268,103.8117965
Fresh Fruit Lab , Changi Road #- Singapore 419818,1.318660912,103.9095191
Fresh Fruit Lab , Clementi Road #- Singapore 129754,1.293082939,103.7688111
Garden Fresh ,DSTA Depot Road #2-2 Singapore 109679,1.279463045,103.8161772
Paik's Bibim ,Bedok Mall New Upper Changi Road #1-95 Singapore 467360,1.324772068,103.9292677
Paik's Bibim ,Vivo City Harbourfront Walk #2-125 Singapore 98585,1.263895802,103.8215893
Paik's Bibim ,Citylink Mall Raffles Link #B1-19 Singapore 39393,1.292777723,103.8541735
Paik's Bibim ,JEM Jurong Gateway Road #B1-K2 Singapore 608549,1.33320021,103.7431704
Paik's Bibim ,Mapletree Business City 2 Pasir Panjang Road #2-39 Singapore 117383,1.275765729,103.7995693
Paik's Bibim ,Tiong Bahru Plaza Tiong Bahru Road #2-111 Singapore 168732,1.286463453,103.8269351
Paik's Bibim ,NTU Northspine Plaza Nanyang Avenue #1-15 Singapore 639798,1.346764651,103.6788181
Waterbath Chef ,West Coast Plaza West Coast Road #B1-57 Singapore 127371,1.303582681,103.7652845
iTea , Bendemeer Road #1-595 Singapore 330025,1.318685064,103.8626962
iTea , Bukit Batok Street 31 #1-366 Singapore 650372,1.358669164,103.7512137
iTea ,Paya Lebar Square Paya Lebar Road #1-50 Singapore 409051,1.31867575,103.8925506
iTea , Jurong West Street 51 #1-243 Singapore 640504,1.349827597,103.7188438
iTea ,Northpoint City Northpoint Drive #B2-119 Singapore 768019,1.428035845,103.8360921
iTea ,NEX Shopping Mall Serangoon Avenue 2 #B2-103 Singapore 556138,1.350438172,103.8717045
iTea , Tampines Street 21 #1-K1 Singapore 522201,1.353453153,103.9530099
iTea , Tampines Street 81 #- Singapore 521828,1.349111567,103.9342855
iTea ,Tanjong Pagar Plaza Tanjong Pagar Plaza #1-52 Singapore 82001,1.27559619,103.8423932
iTea , Woodlands Drive 50 #1-747 Singapore 730888,1.437679197,103.7951367
iTea ,Elias Mall Elias Road #1-K6 Singapore 510625,1.378607178,103.9419164
iTea ,Our Tampines Hub Shopping Mall Tampines Walk #B1-K29 Singapore 528523,1.353496155,103.9396836
O'Briens ,Balestier Point Balestier Road #1-3 Singapore 329727,1.322704459,103.8519711
O'Briens ,NTU Experimental Medicine Building Nanyang Drive #3- Singapore 636921,1.344539801,103.6783912
O'Briens ,Goldbell Tower Scotts Road #1- Singapore 228233,1.312413959,103.8370275
Huggs Coffee ,Tan Tock Seng Hospital (TTSH) Jalan Tan Tock Seng #1-2 Singapore 308433,1.321715977,103.845389
Nine Fresh Desserts Taiwan ?? ,HDB HUB Lorong 6 Toa Payoh #1-50 Singapore 310520,1.333110123,103.8474318
Nine Fresh Desserts Taiwan ?? , Ang Mo Kio Avenue 8 #1-2533 Singapore 560703,1.369775267,103.8473214
Bakery Cuisine Xpress ,Tanjong Pagar MRT Station Maxwell Road #B1-1 Singapore 69119,1.276516012,103.8454218
Juz Bread ,Punggol Field Punggol #1-550 Singapore 821106,1.396604851,103.9083441
Juz Bread ,Pasir Ris West Plaza Pasir Ris Streeet #1-308 Singapore 510735,1.379306517,103.9362721
Juz Bread ,Dover Crescent Dover Crescent #1-95 Singapore 130028,1.304763563,103.7816972
Juz Bread ,Pioneer Mall Jurong West Street 61 #1-8 Singapore 640638,1.34159108,103.6970201
Juz Bread ,Rivervale Mall Rivervale Drive #1-4 Singapore 540118,1.38493202,103.901558
Juz Bread ,Punggol Central Punggol #1-5 Singapore 820301,1.403719391,103.906138
MK Levure Naturelle ,Alexandra Retail Centre Alexandra Road #1-8 Singapore 119963,1.273676578,103.801127
MK Levure Naturelle ,Kallang Wave Mall Stadium Place #1-30 Singapore 397628,1.303843268,103.8727507
MK Levure Naturelle ,Holland Village MRT Station Holland Ave #B1-8 Singapore 278995,1.312240293,103.7963991
MK Levure Naturelle ,OUB Centre Raffles Place #B1-23 Singapore 48616,1.284339935,103.8509824
MK Levure Naturelle ,Connexis Fusionopolis Way #B2-1 Singapore 138632,1.299294056,103.7874041
Rotikek ,Sembawang Shopping Centre Sembawang Road #B1-10 Singapore 758459,1.441767148,103.8244951
Rotikek ,Woodlands  MRT Station Woodlands Ave 1 #1-37 Singapore 738343,1.436819624,103.7860668
Triplets by Bakery Cuisine ,Singapore General Hospital (SGH) Hospital Drive #1- Singapore 169608,1.279939682,103.8307218
Triplets by Bakery Cuisine ,Li Ka Shing Library Building Stamford Road #B1-24A Singapore 178901,1.296656785,103.8501058
Triplets by Bakery Cuisine ,KK Women's and Children's Hospital (KKH) Bukit Timah Rd #1-23 Singapore 229899,1.310448527,103.8466501
Tang Tea House ,Bedok Road Bedok Road #-355-357 Singapore 469545,1.331601959,103.9470592
Fitness Ration ,FoodXchange @ Admiralty Admiralty Street #3-31 Singapore 757437,1.463035665,103.8142474
Flame Caf√É¬© ,Centro Bianco Upper Paya Lebar Road #1-1 Singapore 534818,1.336757621,103.8869369
Lao Bei Jing ,Velocity @ Novena Square Thomson Road #2-11 Singapore 307683,1.320211,103.8436568
umisushi ,Ang Mo Kio HUB Ang Mo Kio Avenue 3 #B2-11 Singapore 569933,1.369248913,103.8483992
umisushi ,Alexandra Retail Centre Alexandra Road #1-22 Singapore 119963,1.273676578,103.801127
umisushi ,Bukit Gombak MRT Bukit Batok West Avenue 5 #1-2 Singapore 659083,1.358611582,103.7517909
umisushi ,Changi General Hospital Simei Street 3 #1-4 Singapore 529889,1.34068474,103.9492944
umisushi ,Compass One Sengkang Square #B1-49 Singapore 545078,1.39209415,103.89498
umisushi ,Eunos MRT Eunos Crescent #1-12 Singapore 409423,1.319727155,103.9031003
umisushi ,Eastpoint Mall Simei Street 6 #B1-K5 Singapore 528833,1.342706186,103.9530245
umisushi ,Hougang Mall Hougang Avenue 10 #1-42 Singapore 538766,1.372311856,103.8936616
umisushi ,Holland Village MRT Holland Avenue #B1-10 Singapore 278995,1.312240293,103.7963991
umisushi , Kallang Bahru #1-451 Singapore 330067,1.321394461,103.8693362
umisushi ,Mount Alvernia Hospital Medical Centre B Thomson Road #1-27 Singapore 574623,1.341809693,103.8375243
umisushi ,OUB Centre Raffles Place #B1-24 Singapore 48616,1.284339935,103.8509824
umisushi ,The Seletar Mall Sengkang West Avenue #B1-9 Singapore 797653,1.391393058,103.8760677
umisushi ,313@Somerset Orchard Road #B3-41 Singapore 238895,1.301385095,103.8376844
umisushi ,Suntec City Mall Temasek Boulevard #B1-151 Singapore 38983,1.294879041,103.8576755
umisushi ,Tan Tock Seng Hospital (TTSH) Jalan Tan Tock Seng #1-9 Singapore 308433,1.321715977,103.845389
umisushi ,NTU Northspine Plaza Nanyang Avenue #NS3-01-19 Singapore 639798,1.346764651,103.6788181
umisushi ,Waterway Point Punggol Central #B2-2 Singapore 828761,1.406536107,103.9019882
Delcie's ,Bendemeer Ville Whampoa West #1-83 Singapore 330034,1.320501694,103.8633413
Kriston Gourmet (Sky Caf√É¬©) ,Bright Vision Hospital Lorong Napiri #5- Singapore 547530,1.372037006,103.8780311
The Caffeine Experience ,Tanjong Pagar Xchange Maxwell Road #B1-39 Singapore 69119,1.276516012,103.8454218
The Coffee Bean & Tea Leaf ,The Rail Mall Upper Bukit Timah Road #- Singapore 678051,1.358971614,103.767677
The Coffee Bean & Tea Leaf ,Bukit Batok Central Bukit Batok Central Link #1-9 Singapore 658713,1.35018916,103.749022
The Coffee Bean & Tea Leaf ,Alexandra Road Alexandra Road #2-41 Singapore 119963,1.273676578,103.801127
The Coffee Bean & Tea Leaf ,IMM Jurong East 21 #1-126 Singapore 609601,1.334898437,103.7467345
The Coffee Bean & Tea Leaf ,Jcube Jurong East Central 1 #1-22 Singapore 609731,1.333268187,103.7401767
The Coffee Bean & Tea Leaf ,Lot One Chua Chu Kang Avenue 4 #1-1 Singapore 689812,1.385068357,103.7449504
Swee Heng ,Jurong Point Jurong West Central 3 #3-1 Singapore 648331,1.339364021,103.7053082
Swee Heng ,Nex Mall Serangoon Central #3-42 Singapore 556083,1.350438172,103.8717045
Swee Heng Classic 1989 ,West Mall Bukit Batok Central Link #1-3 Singapore 658713,1.35018916,103.749022
Swee Heng Classic 1989 ,The Seletar Mall Sengkang West Ave #B1-K7 Singapore 339511,1.309742413,103.8641016
Swee Heng Classic 1989 ,Ng Teng Fong General Hospital Jurong East St 21 #2-12 Tower A Singapore 609606,1.335533819,103.7438655
Swee Heng Classic 1989 ,The Arcade Collyer Quay #1-11 Singapore 49317,1.283619821,103.8520589
Swee Heng Classic 1989 ,The Clementi Mall Commonwealth Ave West #B1-K1 Singapore 129588,1.314853218,103.7642482
Swee Heng Classic 1989 ,Tampines Hub Tampines Ave 4 #B1-40 Singapore 528523,1.353496155,103.9396836
Swee Heng Classic 1989 ,Tanjong Pagar Centre Wallich Street #B2-33 Singapore 78881,1.276799922,103.8456183
Swee Heng Classic 1989 ,Rivervale Mall Rivervale Crescent #1-25 Singapore 545082,1.392197776,103.9044716
Swee Heng Classic 1989 ,Jurong Point Centre Jurong West Central 3 #3-31 Singapore 648331,1.339364021,103.7053082
Swee Heng Classic 1989 ,Singpost Eunos Road 8 #B1-158 Singapore 408600,1.318856103,103.8940672
Swee Heng Classic 1989 ,Noth Point City Northpoint Drive #B2-114 Singapore 768019,1.428035845,103.8360921
Swee Heng Classic 1989 ,CK Tangs Orchard Road #B1-2A Singapore 238864,1.305005692,103.8330668
Swee Heng Classic 1989 ,Marina One The Heart Straits View #B2-46 Singapore 18935,1.277372343,103.8528448
Swee Heng Classic 1989 ,Oasis Terraces Punggol Drive #B1-4 Singapore 820681,1.402878453,103.9131957
Woobbee , Tanjong Pagar Plaza #1-18 Singapore 82001,1.27559619,103.8423932
Woobbee ,Shaw Towers Beach Road #1-53 Singapore 189702,1.296490718,103.8566974
Woobbee ,Chinatown Point New Bridge Road #2-26 Singapore 59413,1.284998828,103.8446971
The Coffee Bean & Tea Leaf ,National University Hospital Lower Kent Ridge Road #1-10 Singapore 119074,1.293953054,103.7827095
The Coffee Bean & Tea Leaf ,Tan Tock Seng Hospital Jalan Tan Tock Seng #1-16 Singapore 308433,1.321715977,103.845389
The Coffee Bean & Tea Leaf ,Ngee Ann Polytechnic 535 Clementi Road #1-9 Singapore 599489,1.332762597,103.7715625
The Coffee Bean & Tea Leaf ,National Technology University Nanyang Avenue #1-5 Singapore 639798,1.346764651,103.6788181
The Coffee Bean & Tea Leaf ,Velocity @ Novena Square Thomson Road #2-4 Singapore 307683,1.320211,103.8436568
The Coffee Bean & Tea Leaf ,Causeway Point Woodlands Square #2-33 Singapore 738099,1.436007845,103.7856887
The Coffee Bean & Tea Leaf ,Greenwich V Seletar Road #2-1 Singapore 807011,1.38739538,103.869136
The Coffee Bean & Tea Leaf ,HDB Hub Toa Payoh Lorong 6 #1-12 Singapore 310480,1.332141119,103.8483261
The Coffee Bean & Tea Leaf ,Bishan Bishan Place #1-34 Singapore 579837,1.350239427,103.8484776
The Coffee Bean & Tea Leaf ,My Village Maju Avenue #B1-1 Singapore 556679,1.365160708,103.8650419
The Coffee Bean & Tea Leaf ,Waterway Point Punggok Central #1-27 Singapore 828761,1.406536107,103.9019882
The Coffee Bean & Tea Leaf ,Compass One Sengkang Square #2-11 Singapore 545078,1.39209415,103.89498
The Coffee Bean & Tea Leaf ,NEX Serangoon Central #2-K10 Singapore 556083,1.350438172,103.8717045
The Coffee Bean & Tea Leaf ,Northpoint City Northpoint Drive #1-110 Singapore 768019,1.428035845,103.8360921
The Coffee Bean & Tea Leaf ,Ang Mo Kio Hub Ang Mo Kio Avenue 3 #B1-21A Singapore 569933,1.369248913,103.8483992
The Coffee Bean & Tea Leaf ,City Square Kitchener Road #2-K14 Singapore 208539,1.311305165,103.8564218
The Coffee Bean & Tea Leaf ,Vivocity Harbourfront Walk #2-3 Singapore 98585,1.263895802,103.8215893
The Coffee Bean & Tea Leaf ,Chinatown Point New Bridge Road #2-55 Singapore 59413,1.284998828,103.8446971
The Coffee Bean & Tea Leaf ,International Plaza Anson Road #1-32 Singapore 79903,1.275735681,103.8457032
The Coffee Bean & Tea Leaf ,Marina Bay Link Mall Marina Boulevard #B2-10 Singapore 18984,1.280227673,103.8533493
The Coffee Bean & Tea Leaf ,Beach View Beach View #1-2 Singapore 98604,1.251208568,103.8175345
Tang Tea House ,Jalan Kayu Jalan Kayu #-242 Singapore 799466,1.397719915,103.8733684
Tang Tea House ,Jurong West Jurong West Street 42 #1-783 Singapore 640414,1.352819981,103.7260349
Tang Tea House ,Changi Lorong Bekukong #-57 Singapore 499173,1.390241377,103.9878666
Food Junction ,Century Square Tampines Central 5 #3-19 Singapore 529509,1.352278032,103.9437277
Food Junction ,Rivervale Mall Rivervale Cres #1-1 Singapore 545082,1.392197776,103.9044716
Mr Teh Tarik Express ,Singapore Post Centre Eunos Road 8 #B1-130 Singapore 408600,1.318856103,103.8940672
Mr Teh Tarik Express ,Changi Airport Terminal 3 Airport Boulevard #B2-22 Singapore 819663,1.354370736,103.9851697
Mr Teh Tarik Express ,Seletar Airport Aerospace Road #- Singapore 819663,1.354370736,103.9851697
"Mr Teh Tarik Cartel, Deli ",Marsiling Park Woodlands Centre Road #- Singapore 738937,1.439038313,103.7697999
"Mr Teh Tarik Cartel, Deli ",Choa Chu Kang Park Choa Chu Kang Drive #- Singapore 689719,1.388039416,103.7463359
"Mr Teh Tarik Cartel, Deli ",Bukit Panjang Integrated Transport Hub Petir Road #1-58 Singapore 678270,1.378431008,103.7628428
Mr Teh Tarik Eating House,Tarik Eating House Ang Mo Kio Ave 5 #1-2771 Singapore 560608,1.378582099,103.8367603
Mr Teh Tarik Eating House,Tarik Eating House Ang Mo Kio Ave 6 #1-4200 Singapore 560728,1.372628411,103.8456829
Mr Teh Tarik Eating House,Tarik Eating House Elias Road #1-332 Singapore 510625,1.378607178,103.9419164
Mr Teh Tarik Eating House,Tarik Eating House Geylang Serai #1-210 Singapore 402001,1.316725141,103.8979774
Mr Teh Tarik Eating House,Tarik Eating House Jurong West Street 41 #1-750 Singapore 640456,1.350675726,103.7200224
Mr Teh Tarik Eating House,Tarik Eating House Woodlands Street 31 #1-1 Singapore 731306,1.43011253,103.7750811
Mr Teh Tarik Eating House,Tarik Eating House Yishun Ring Road #1-3603 Singapore 760846,1.416760143,103.834595
Mr Teh Tarik Caf√É¬© ,CISCO Centre Jalan Afifi #2-1 Singapore 409179,1.322417535,103.8920556
Mr Teh Tarik Caf√É¬© ,Changi Airport Terminal 2 Carpark Airport Boulevard #19-K Singapore 819643,1.35519094,103.988751
My Eat,Plaza 8 Changi Business Park Crescent #1-21 Singapore 486025,1.333601585,103.9654119
Jubilicious ,Hotel Boss Jalan Sultan #4-1 Singapore 199020,1.305713227,103.8602667
Gelare ,313@Somerset Orchard Road #B2-15 Singapore 238895,1.301385095,103.8376844
The Connoisseur Concerto ,ION Orchard Orchard Turn #B2-49 Singapore 238801,1.30403577,103.8313951
The Connoisseur Concerto ,International Building Orchard Road #1-1 Singapore 238869,1.306075155,103.8310033
The Connoisseur Concerto ,Isetan Scotts Orchard Road #2- Singapore 238868,1.305809784,103.8315074
The Connoisseur Concerto ,Novena Square Thomson Road #1-56 Singapore 307683,1.320211,103.8436568
The Connoisseur Concerto ,Marina Bay Sands Bayfront Avenue #B2-120 Singapore 18972,1.283322493,103.8576291
The Connoisseur Concerto ,The Pier @ Robertson Mohamed Sultan Road #1-1 Singapore 239013,1.291286775,103.84048
The Connoisseur Concerto ,Vivo City Harbourfront Walk #2-149 Singapore 98585,1.263895802,103.8215893
Mr Coconut ,Northpoint City Yishun Ave 2 #B1-42 Singapore 769098,1.42969848,103.8357765
Mr Coconut ,Far East Plaza Scotts Road #-KIOSK14C Singapore 228213,1.307246743,103.8336649
Mr Coconut ,V Hotel Lavender Jellicoe Road #1-15 Singapore 208767,1.307809275,103.8625256
Yol√É¬© ,Marina Bay Sands Bayfront Avenue #B2-56A Singapore 18956,1.282333351,103.8583084
Yol√É¬© ,Parkway Parade Marine Parade Road #B1-83J Singapore 449269,1.301191307,103.9051136
Yol√É¬© ,Waterway Point Punggol Central #1-63 Singapore 828761,1.406536107,103.9019882
Yol√É¬© ,Causeway Point Woodlands Square #B1-K28 Singapore 738099,1.436007845,103.7856887
Yol√É¬© ,Compass One Sengkang Square #1-24 Singapore 545078,1.39209415,103.89498
Yol√É¬© ,Tampines Mall Tampines Central 5 #B1-K18 Singapore 529510,1.352672316,103.944388
Yol√É¬© ,Bedok Mall New Upper Changi Road #1-40 Singapore 467360,1.324772068,103.9292677
Yol√É¬© ,Changi City Point Changi Business Park Central 1 #1-42 Singapore 486038,1.334325156,103.9623893
Yol√É¬© ,Westgate Gateway Drive #3-2 Singapore 608532,1.334025287,103.742586
Yol√É¬© ,Jurong Point Jurong West Central 2 #3-29 Singapore 648886,1.339830153,103.7064609
Yol√É¬© ,Hillion Mall Petir Road #B1-45 Singapore 678270,1.378431008,103.7628428
Yol√É¬© ,Capitol Stamford Road #B2-29 Singapore 178905,1.29307884,103.851262
Yol√É¬© ,Raffles City North Bridge Road #B1-70 Singapore 179103,1.293760279,103.8527683
Yol√É¬© ,Bugis+ Victoria Street #3-28 Singapore 188067,1.299660159,103.8535181
My Briyani House ,Hillion Mall Petir Road #1-17 Singapore 678278,1.378349713,103.7627412
Mr Teh Tarik Express ,Far East Square Amoy Street #1-1 Singapore 49964,1.283154302,103.8482272
Mr Teh Tarik Express ,Raffles Xchange Raffles Place #B1-17 Singapore 48618,1.284333921,103.8513798
Mr Teh Tarik Express ,Northpoint Shopping Centre Yishun Ave 2 #1-3 Singapore 769098,1.42969848,103.8357765
The Coffee Bean & Tea Leaf ,Singapore General Hospital Outram Road #1- Singapore 169608,1.279939682,103.8307218
Blu Kouzina ,Dempsey Dempsey Road #1-1 Singapore 247700,1.303297673,103.8104117
Kaisen Ichi ,Mapletree Business City Pasir Panjang Road #2-36 Singapore 117383,1.275765729,103.7995693
PastaMania Pronto x Kraftwich ,Fusionopolis One Fusionopolis Place #1-4 Singapore 138632,1.299294056,103.7874041
PastaMania Pronto x Kraftwich ,Parkway Parade Marine Parade Road #B1-83C Singapore 449269,1.301191307,103.9051136
Collin's ,Shaw Plaza Balestier Road #1-12 Singapore 329783,1.325126527,103.8510556
Collin's ,Jubilee Square Ang Mo Kio Ave 8 #1-7 to 10 Singapore 569814,1.371785516,103.8477757
Collin's ,Marina Square Raffles Boulevard #1-204 Singapore 39594,1.291455259,103.8570073
Collin's ,Cineleisure Orchard Grange Road #B1-8 Singapore 239695,1.301521016,103.8364297
Collin's ,Northpoint City Yishun Ave 2 #1-113 Singapore 768159,1.436252532,103.8430012
Collin's ,Changi Aiport Terminal 3 Airport Boulvard #3-21 Singapore 819663,1.354370736,103.9851697
Collin's ,Paya Lebar Quarter Paya Lebar Road #B1-1 Singapore 409053,1.315836748,103.8927467
Dining in Garden ,AMK Library Ang Mo Kio Ave 6 #1-1 Singapore 569842,1.374790095,103.8455807
Bakery Cuisine ,Terminal 2 Airport Boulevared #26-37 Singapore 819643,1.35519094,103.988751
Bakery Cuisine ,Terminal 4 Airport Boulevared #2-11 Singapore 819665,1.338008134,103.9834828
Bakery Cuisine ,Innovis Fusionopolis Way #1-7 Singapore 138634,1.298433337,103.7885562
Bakery Cuisine ,Jcube Jurong East Central #B1-8 Singapore 609731,1.333268187,103.7401767
Bakery Cuisine ,OUB Centre Raffles Place #B1-37 Singapore 48616,1.284339935,103.8509824
Bakery Cuisine ,Rivervale Mall Rivervale Crescent #1-5 Singapore 545082,1.392197776,103.9044716
Bakery Cuisine ,Expo MRT Station Changi South Avenue 1 #1-1 Singapore 486065,1.33454977,103.9615482
Bakery Cuisine ,Tanjong Pagar MRT Station Maxwell Road #B1-33 Singapore 69119,1.276516012,103.8454218
Bakery Cuisine ,Mapletree 18 Tai Seng Street #B1-8 Singapore 539775,1.336356489,103.8887158
Bakery Cuisine Caf√É¬© ,Matrix Biopolis Way #1-5 Singapore 138671,1.30342671,103.7924989
BreadTalk ,United Square Shopping Mall Thomson Road #1-75A Singapore 307591,1.31733463,103.8434632
BreadTalk ,BreadTalk IHQ Tai Seng Street #1-4 Singapore 534013,1.334345263,103.8896375
BreadTalk ,Bedok Mall New Upper Changi Road #B2-25 Singapore 467360,1.324772068,103.9292677
BreadTalk ,Eastpoint Mall Simei Street 6 #1-1 Singapore 528833,1.342706186,103.9530245
BreadTalk ,Sun Plaza Sembawang Drive #1-2 Singapore 757713,1.448226532,103.8194621
BreadTalk ,WestGate Gateway Drive #2-3 Singapore 608532,1.334025287,103.742586
BreadTalk ,Waterway Point Punggol Central #B1-15 Singapore 828761,1.406536107,103.9019882
BreadTalk ,Compass One Sengkang Square #B1-29 Singapore 545078,1.39209415,103.89498
BreadTalk ,Tampines Mall Tampines Central 5 #1-32 Singapore 529510,1.352672316,103.944388
BreadTalk ,Rivervale Mall Rivervale Crescent #1-15 Singapore 545082,1.392197776,103.9044716
BreadTalk ,ION Orchard Orchard Turn #B2-73 Singapore 238801,1.30403577,103.8313951
BreadTalk ,Jewel Airport Boulevard #B2-233 Singapore 819666,1.360340997,103.9890776
BreadTalk ,Marina Bay Sands Bayfront Avenue #B1-01F Singapore 18972,1.283322493,103.8576291
BreadTalk ,Tiong Bahru Plaza Tiong Bahru Rd #1-110 Singapore 168732,1.286463453,103.8269351
BreadTalk ,Funan North Bridge Road #B1-26 Singapore 179097,1.291146273,103.8498342
Bread Society by BreadTalk ,ION Orchard Orchard Turn #B4-8 Singapore 238801,1.30403577,103.8313951
Da Paolo Gastronomia ,Cluny Court Bukit Timah Road #1-1 Singapore 259760,1.32257317,103.8142456
Da Paolo Gastronomia ,Raffles @ Holland V Holland Ave #1-6 Singapore 278997,1.310529774,103.7961052
Da Paolo Gastronomia ,The Shoppes @ Marina Bay Sands Bayfront Avenue #1-87 Singapore 18972,1.283322493,103.8576291
Da Paolo Gastronomia ,Paragon Orchard Road #B1-K8 Singapore 238859,1.303723214,103.8352403
Da Paolo Gastronomia ,Battery Road Battery Road #1-K1 Singapore 49909,1.28546633,103.8517641
Yol√É¬© ,Vivocity Harbourfront Walk #2-133 Singapore 98585,1.263895802,103.8215893
Yol√É¬© ,Tanjong Pagar Centre Wallich Street #B2-1 Singapore 78884,1.276724923,103.8451554
Yol√É¬© ,Tiong Bahru Plaza Tiong Bahru Road #1-159 Singapore 168732,1.286463453,103.8269351
Yol√É¬© ,Clementi Mall Commonwealth Avenue West #1-11 Singapore 129588,1.314853218,103.7642482
Yol√É¬© ,One@Kentridge Lower Kent Ridge Road #1-37 Singapore 119082,1.292774313,103.784084
Yol√É¬© ,West Mall Bukit Batok Central Link #1-K6 Singapore 658713,1.35018916,103.749022
Yol√É¬© ,Wisma Atria Orchard Road #B1-64 Singapore 238877,1.303698902,103.8331896
Yol√É¬© ,Marriott Tang Plaza Hotel Orchard Road #1- Singapore 238865,1.305022305,103.8328741
Yol√É¬© ,Plaza Singapura Orchard Road #1-22A Singapore 238839,1.300747543,103.8450476
Yol√É¬© ,313 @ Somerset Orchard Road #B3-55 Singapore 238895,1.301385095,103.8376844
Yol√É¬© ,United Square Thomson Road #1-K14 Singapore 307591,1.31733463,103.8434632
OTC Caf√É¬© ,National Library Building Victoria Street #3-1 Singapore 188064,1.297489753,103.8539423
Hajjah Mariam ,Westgate Gateway Drive #B2-7 Singapore 608532,1.334025287,103.742586
Curry Times ,Novena Square Thomson Road #2-33 Singapore 307683,1.320211,103.8436568
Curry Times ,Westgate Gateway Drive #2-8 Singapore 608532,1.334025287,103.742586
Curry Times ,Northpoint City Northpoint Drive #B1-201 Singapore 768019,1.428035845,103.8360921
Curry Times ,Changi Airport T3 Airport Boulevard #B2-51 Singapore 819663,1.354370736,103.9851697
Curry Times ,Changi Airport T4 Airport Boulevard #2-81 Singapore 819665,1.338008134,103.9834828
Curry Times ,Alexandra Retail Centre Alexandra Road #2-36 Singapore 119963,1.273676578,103.801127
My Briyani House ,The Seletar Mall Sengkang West Avenue #1-31 Singapore 797653,1.391393058,103.8760677
My Briyani House ,IMM Building Jurong East Street 21 #2-53 Singapore 609601,1.334898437,103.7467345
My Briyani House ,Marine Cove East Coast Parkway #1-4 Singapore 449876,1.301433281,103.9129113
My Briyani House ,Compass One Sengkang Square #1-25 Singapore 545078,1.39209415,103.89498
My Briyani House ,Tampines Hub Tampines Ave 4 #1-15 Singapore 528523,1.353496155,103.9396836
Gelare ,Bugis+ Victoria Street #5-10 Singapore 188067,1.299660159,103.8535181
Gelare ,Causeway Point Woodlands Square #3-K6 Singapore 738099,1.436007845,103.7856887
Gelare ,Compass One Sengkang Square #1-46 Singapore 545078,1.39209415,103.89498
Gelare ,Hillion Mall Petir Road #B1-31 Singapore 678278,1.378349713,103.7627412
Gelare ,IMM Building Jurong East Street 21 #1-22A Singapore 609601,1.334898437,103.7467345
Food Junction ,Junction 8 Bishan Place #4-1 Singapore 579837,1.350239427,103.8484776
Food Junction ,Lot One Shoppers' Mall Choa Chu Kang Ave 4 #4-15 Singapore 689812,1.385068357,103.7449504
Food Junction ,United Square Thomson Road #B1-2 Singapore 307591,1.31733463,103.8434632
Food Republic ,Serangoon NEX Serangoon Central #B2-63 Singapore 556083,1.350438172,103.8717045
Food Republic ,Breadtalk IHQ Tai Seng Street #1-6 Singapore 534013,1.334345263,103.8896375
Food Republic ,City Square Mall Kitchener Road #4-31 Singapore 208539,1.311305165,103.8564218
Food Republic ,Westgate Gateway Drive #B1-28 Singapore 608532,1.334025287,103.742586
My Kampung ,Junction Nine Yishun Ave 9 #2-1 Singapore 768897,1.433031973,103.8416008
My Kampung ,Kallang Wave Mall Stadium Place #2-16 Singapore 397628,1.303843268,103.8727507
My Kampung ,Heartbeat@Bedok Bedok North St 1 #1-28 Singapore 469662,1.326984988,103.9316206
Tiffany Caf√É¬© & Restaurant,Furama City Centre Eu Tong Sen Street #2- Singapore 59804,1.286473562,103.8445886
Segar Village ,Sims Way Sims Way #- Singapore 388831,1.312173761,103.874762
Segar @ Chinatown,Chinatown Point North Bridge Road #B2-39 Singapore 59413,1.284998828,103.8446971
Segar @ Star Vista,The Star Vista Vista Exchange Green #2-8 Singapore 138617,1.306848818,103.7882145
Segar @ Downtown East,E! Avenue @ Down Town East Market Square Pasir Ris Close #2-322 Singapore 519599,1.377140734,103.9535991
West Co'z Caf√É¬© ,West Coast Plaza West Coast Road #2-23 Singapore 127371,1.303582681,103.7652845
West Co'z Caf√É¬© ,Yew Tee Point Chua Chu Kang North 6 #1-28 Singapore 689578,1.397301904,103.7465581
West Co'z Caf√É¬© ,Junction 10 Woodlands Road #1-34 Singapore 677899,1.380605125,103.7600416
A,Clementi Ave 2 Clementi Avenue 2 #1-223 Singapore 120354,1.313530394,103.7708598
Kaffe & Toast ,Tan Tock Seng Hospital Jalan Tan Tock Seng #B1-1 Singapore 308433,1.321715977,103.845389
Kaffe & Toast ,Sengkang General Hospital Sengkang E Way #B1-1 Singapore 544886,1.394299412,103.8930013
Kaffe & Toast ,National Heart Centre Hospital Drive #2-2 Singapore 169609,1.278632602,103.8359544
Ma Mum ,KK Women's and Children's Hospital (KKH) Bukit Timah Road #1-33 Singapore 229899,1.310448527,103.8466501
Ma Mum ,Ng Teng Fong General Hospital Jurong East Street 21 #2-2 Singapore 609606,1.335533819,103.7438655
Pro*3 Institutional Catering,Select Group Building Senoko South Road #8-1 Singapore 758099,1.456912052,103.8025454
ADACafe@AgapeV ,Agape Village Toa Payoh Lor 8 #1-1 Singapore 319264,1.340088009,103.8569494
Tuan Yuan ,Kim Tian Green Kim Tian Road #1-1 Singapore 160127,1.281861418,103.8292926
Five Star Hainanese Kampung Chicken Rice ,Cheong Chin Nam Cheong Chin Nam Road #- Singapore 599732,1.342634175,103.77524
Five Star Hainanese Kampung Chicken Rice ,River Valley River Valley Road #- Singapore 248318,1.295164808,103.8296314
Five Star Hainanese Kampung Chicken Rice ,Katong East Coast Road #- Singapore 428897,1.307170351,103.9063784
Hjh Maimunah ,Joo Chiat Joo Chiat Road #- Singapore 427527,1.310295458,103.9019735
Hjh Maimunah ,Jalan Pisang Jalan Pisang #- Singapore 199078,1.303107095,103.8585535
Food Canopy ,Pasir Ris East Community Centre Pasir Ris Drive 4 #1-7 Singapore 519457,1.368587029,103.959198
Delifrance @ KK Hospital,KK Hospital Bukit Timah Road #1-8 Singapore 229899,1.310448527,103.8466501
The Connoisseur Concerto ,Anchorpoint Alexandra Road #1-7 Singapore 159953,1.288614687,103.80501
The Connoisseur Concerto ,Clarke Quay River Valley Road #1-1 Singapore 179024,1.290508194,103.8464155
The Connoisseur Concerto ,Bugis Junction Middle Road #1-92 Singapore 188966,1.298469647,103.854867
The Connoisseur Concerto ,Bugis Junction Middle Road #1-97 Singapore 188966,1.298469647,103.854867
The Connoisseur Concerto ,Circular Road Circular Road #- Singapore 49406,1.285893689,103.8496404
The Connoisseur Concerto ,The Central Eu Tong Sen Street #2-84 Singapore 59817,1.288862917,103.846556
The Connoisseur Concerto ,Great World City Kim Seng Promenade #1-29 Singapore 237994,1.293802346,103.8317579
The Connoisseur Concerto ,German Centre International Business Park #1-80 Singapore 609916,1.325199517,103.7463772
Da Paolo Gastronomia ,Raffles City North Bridge Road #B1-45 Singapore 179103,1.293760279,103.8527683
Da Paolo Gastronomia ,VivoCity Harbourfront Walk #1-108 Singapore 98585,1.263895802,103.8215893
Sabar Menanti II ,North Bridge Road North Bridge Road #- Singapore 198715,1.303236863,103.8590759
Sakunthala's ,Race Course Road Race Course Road #- Singapore 218570,1.308580912,103.8512518
Sakunthala's ,Dunlop Street Dunlop Street #- Singapore 209466,1.305942058,103.8521027
Sakunthala's ,Syed Alwi Road Syed Alwi Road #- Singapore 207667,1.309228872,103.8556725
Sakunthala's ,UE Bizhub East Changi Business Park #-1 Singapore 486018,1.334919773,103.9636539
HealthyPlatz ,WIS@Changi Changi Road #1-10 Singapore 419718,1.316494598,103.9012242
Good Old Days ,Siloso Beach Walk Siloso Beach Walk #- Singapore 98997,1.251669922,103.8170708
Nectar ,Tan Tock Seng Hospital Jalan Tan Tock Seng #B1-2 Singapore 308442,1.32139722,103.8477982
Nectar ,I12 Katong East Coast Road #B1-27 Singapore 428802,1.305223056,103.9050439
Nectar ,Oasis Terraces Punggol Drive #B1-17 Singapore 820681,1.402878453,103.9131957
Nectar ,Jewel Airport Boulevard #3-213 Singapore 819666,1.360340997,103.9890776
Toast Box ,Tan Tock Seng Hospital Jalan Tan Tock Seng #1-6 Singapore 308433,1.321715977,103.845389
Pretty Easy Caf√É¬© ,The Adelphi Coleman Street #B1-29 Singapore 179803,1.291156835,103.8510443
Nature's Nutrition ,Aperia Mall Kallang Avenue #1-52 Singapore 339511,1.309742413,103.8641016
Nature's Nutrition ,Far East Square Amoy Street #1-4 Singapore 49965,1.283408075,103.8483453
Aunty Rosie's Urban Padang Cuisine ,Sengkang General & Community Hospital Sengkang East Way #2-9 Singapore 544886,1.394299412,103.8930013
Copper Chimney ,Syed Alwi Road Syed Alwi Road #- Singapore 207676,1.309600877,103.8552756
Kamala Restaurant ,Buffalo Road Buffalo Road #1-16 Singapore 210662,1.306247219,103.849956
Saybons @ Junction 8,Junction 8 Bishan Place #2-43 Singapore 579837,1.350239427,103.8484776
Savoir @ KK Hospital,KK Women's and Children's Hospital (KKH) Bukit Timah Road #1-17 Singapore 229899,1.310448527,103.8466501
Saybons @ Downtown Gallery,OUE Downtown Shenton Way #1-24 Singapore 68809,1.2769807,103.8484086
Saybons @ Mt Alvernia,Mt Alvernia Hospital Thomson Road #1-25 Singapore 574623,1.341809693,103.8375243
Sushi Express Tampines 1,Tampines One Tampines Central 1 #B1-8 Singapore 529536,1.35431556,103.9450195
Sushi Express Seletar Mall,Seletar Mall Sengkang West Avenue #2-K4 Singapore 797653,1.391393058,103.8760677
Sushi Express NEX,NEX Serangoon Central #B1-38 Singapore 556083,1.350438172,103.8717045
Burger King ,HillV2 Hillview Rise #1-7 Singapore 667979,1.362674506,103.7641729
Burger King ,IMM Building Jurong East Street 21 #1-51 Singapore 609601,1.334898437,103.7467345
Burger King ,Income At Raffles Collyer Quay #1-1 Singapore 49318,1.284132517,103.8524489
Burger King ,JEM Jurong Gateway Road #B1-2 Singapore 608549,1.33320021,103.7431704
Burger King ,Jewel Changi Airport Airport Boulevard #B2-235 Singapore 819666,1.360340997,103.9890776
Burger King ,Jurong Point Jurong West Central 3 #B1-54 Singapore 648331,1.339364021,103.7053082
Burger King ,Kebun Baru Community Club Ang Mo Kio Avenue 4 #1-1 Singapore 569897,1.373007499,103.8376124
Burger King ,"Kitchener Complex French Road, #01-31 #1-31 Singapore 200809",1.308326996,103.8620059
Burger King ,Leisure Park Kallang Stadium Walk #1-43 Singapore 397693,1.302221771,103.8761527
Burger King ,Link @ 896 Dunearn Road #1-9 Singapore 589472,1.336675729,103.7837092
Burger King ,Loyang Point Pasir Ris Street 21 #1-23 Singapore 510258,1.367000538,103.9646178
Burger King ,Marina Bay Link Mall Marina Boulevard #B2-3 Singapore 18984,1.280227673,103.8533493
Burger King ,Marina Square Raffles Boulevard #2-105 & 184 Singapore 39594,1.291455259,103.8570073
Burger King ,Marsiling Mall Woodlands Street 12 #2-1 Singapore 738623,1.433512529,103.7797469
Burger King ,NEX Serangoon Central #B1-30 Singapore 556083,1.350438172,103.8717045
Burger King ,One @ Kent Ridge Lower Kent Ridge Road #3-11 Singapore 119082,1.292774313,103.784084
Burger King ,Park Avenue Changi Changi Business Park Avenue 1 #1-5 Singapore 486015,1.335696839,103.962987
Burger King ,Parkway Parade Marine Parade Road #1-11 Singapore 449269,1.301191307,103.9051136
Burger King ,Pasir Ris Sports Centre Pasir Ris Central #1-11 Singapore 556083,1.350438172,103.8717045
Burger King ,Paya Lebar Square Paya Lebar Rd #1-40 Singapore 409051,1.31867575,103.8925506
Burger King ,Plaza Singapura Orchard Road #B1-11 Singapore 238839,1.300747543,103.8450476
Burger King ,HDB Hub Lorong 6 Toa Payoh #1-5 Singapore 310530,1.332188115,103.8470778
Burger King ,Heartbeat @Bedok Bedok North Street 1 #1-33 Singapore 469662,1.326984988,103.9316206
Gelare ,KINEX Mall Tanjong Katong Road #3-K1 Singapore 437157,1.314692127,103.8944805
Gelare ,SAFRA Jurong Boon Lay Way #1- Singapore 649848,1.335007217,103.7062787
Gelare ,Tampines One Tampines Central 1 #4-K2 Singapore 529536,1.35431556,103.9450195
Gelare ,The Star Vista Vista Exchange Green #2-27 Singapore 138617,1.306848818,103.7882145
Gelare ,Viva Business Park Chai Chee Road #1-32 Singapore 469000,1.32365172,103.922103
Gelare ,Waterway Point Punggol Central #2-25 Singapore 828761,1.406536107,103.9019882
Gelare ,West Mall Bukit Batok Central Link #1-6 Singapore 658713,1.35018916,103.749022
Gelare ,Yishun Complex 10 Yishun Central 1 #1-K2 Singapore 768794,1.429918063,103.8364202
Kaffe & Toast ,Tan Tock Seng Hospital Jalan Tan Tock Seng #B1-1 Singapore 308433,1.321715977,103.845389
Kaffe & Toast ,Sengkang General Hospital Sengkang E Way #B1-1 Singapore 544886,1.394299412,103.8930013
Kaffe & Toast ,National Heart Centre Hospital Drive #2-2 Singapore 169609,1.278632602,103.8359544
Kaffe & Toast ,Singapore General Hospital (SGH) Outram Road #1- Singapore 169608,1.279939682,103.8307218
Ma Mum ,KK Women's and Children's Hospital (KKH) Bukit Timah Road #1-33 Singapore 229899,1.310448527,103.8466501
Sunrise Cafetaria,Hor Kew Building Kallang Pudding Road #1-2 Singapore 349324,1.327220427,103.8789553
Old Town White Coffee ,City Square Mall Kitchener Road #B1-31 Singapore 208539,1.311305165,103.8564218
Old Town White Coffee ,Safra Jurong Boon Lay Way #2C-1 Singapore 649848,1.335007217,103.7062787
Old Town White Coffee ,Square 2 Sinaran Drive #1-1 Singapore 307506,1.320429661,103.8438921
Old Town White Coffee ,J Cube Jurong East Central #1-19 Singapore 609731,1.333268187,103.7401767
Old Town White Coffee ,Jurong Point Jurong West Central 2 #2-38 Singapore 648886,1.339830153,103.7064609
Old Town White Coffee ,One KM Tanjong Katong Road #B1-K26 Singapore 437157,1.314692127,103.8944805
Old Town White Coffee ,Kallang Wave Mall Stadium Place #1-18 Singapore 397628,1.303843268,103.8727507
Old Town White Coffee ,Suntec City Mall Temasek Boulevard #1-429 Singapore 38983,1.294879041,103.8576755
BreadTalk ,Bugis Junction Victoria St #B1-23 Singapore 188021,1.299113161,103.8554112
BreadTalk ,Causeway Point Woodlands Square #1-34 Singapore 738099,1.436007845,103.7856887
BreadTalk ,CityLink Mall Raffles Link #B1-42 Singapore 39393,1.292777723,103.8541735
BreadTalk ,The Centrepoint Orchard Road #B1-8 Singapore 238843,1.301978045,103.8397589
BreadTalk ,City Square Mall Kitchener Road #1-41 Singapore 208539,1.311305165,103.8564218
BreadTalk ,Junction 8 Shopping Centre Bishan Place #1-35 Singapore 579837,1.350239427,103.8484776
BreadTalk ,Jurong Point Shopping Centre Jurong West Central 3 #B1-72 Singapore 648331,1.339364021,103.7053082
BreadTalk ,North Point Yishun Ave 2 #1-49 Singapore 769098,1.42969848,103.8357765
BreadTalk ,Novena Square Thomson Rd #1-26 Singapore 307683,1.320211,103.8436568
BreadTalk ,Paragon Orchard Rd #B1-11 Singapore 238859,1.303723214,103.8352403
BreadTalk ,Parkway Parade Marine Parade Road #B1-47 Singapore 449269,1.301191307,103.9051136
BreadTalk ,Plaza Singapura Orchard Rd #1-23 Singapore 238839,1.300747543,103.8450476
BreadTalk ,Raffles City Shopping Centre North Bridge Road #B1-44A Singapore 179103,1.293760279,103.8527683
BreadTalk ,HDB Hub Lorong 6 Toa Payoh #1-4 Singapore 310530,1.332188115,103.8470778
BreadTalk ,Vivo City 1 Harbourfront Walk #B2-34 Singapore 98585,1.263895802,103.8215893
BreadTalk ,Resorts World Sentosa Sentosa Gateway #B1-203 Singapore 98138,1.256573486,103.819459
BreadTalk ,NEX Serangoon central #B2-58 Singapore 556083,1.350438172,103.8717045
BreadTalk ,Marina Bay Link Mall Marina Boulevard #B2-18 Singapore 18984,1.280227673,103.8533493
BreadTalk ,313 @Somerset Orchard Road #B2-31 Singapore 238895,1.301385095,103.8376844
BreadTalk ,The Clementi Mall Commonwealth Avenue West #1-1 Singapore 129588,1.314853218,103.7642482
BreadTalk ,Changi City Point Changi Business Park Central 1 #1-12 Singapore 486038,1.334325156,103.9623893
BreadTalk ,112 Katong East Coast Road #1-3 Singapore 428802,1.305223056,103.9050439
BreadTalk ,Harbourfront Centre Maritime Square #2-20 Singapore 99253,1.262063364,103.8186256
BreadTalk ,Sixth Avenue Sixth Avenue #- Singapore 276473,1.331047153,103.7950987
BreadTalk ,Chinatown point New Bridge Road #1-28 Singapore 59413,1.284998828,103.8446971
BreadTalk ,ZhongShan Mall Ah Hood Road #1-13 Singapore 329984,1.327084845,103.8464765
Soup Restaurant ,Changi Airport Terminal 2 Viewing Mall Airport Boulevard #-36-086 Singapore 819643,1.35519094,103.988751
Soup Restaurant ,Clementi Mall Commonwealth Ave West #3-62 Singapore 129588,1.314853218,103.7642482
Soup Restaurant ,Compass One Sengkang Square #3-12 Singapore 545078,1.39209415,103.89498
Soup Restaurant ,Holland Village Holland Avenue #1-2 Singapore 278997,1.310529774,103.7961052
Soup Restaurant ,Hougang Mall Hougang Avenue 10 #2-21 Singapore 538766,1.372311856,103.8936616
Soup Restaurant ,Jewel Changi Airport Aiport Boulevard #3-201 Singapore 819666,1.360340997,103.9890776
Soup Restaurant ,Jurong Point Jurong West Central 2 #2-33 Singapore 648886,1.339830153,103.7064609
Soup Restaurant ,NEX Serangoon Central #2-15 Singapore 556083,1.350438172,103.8717045
Soup Restaurant ,Paragon Orchard Road #B1-7 Singapore 238859,1.303723214,103.8352403
Soup Restaurant ,Suntec City Temasek Avenue #B1-127 Singapore 38983,1.294879041,103.8576755
Soup Restaurant ,United Square Thomson Road #B1-10 Singapore 307591,1.31733463,103.8434632
Soup Restaurant ,VivoCity Harbourfront Walk #2-141 Singapore 98585,1.263895802,103.8215893
TEAHOUSE By Soup Restaurant ,Century Square Tampines Central 5 #1-20 Singapore 529509,1.352278032,103.9437277
TEAHOUSE By Soup Restaurant ,Changi Airport T1 Viewing Mall Changi Boulevard #3-19 Singapore 819642,1.362491004,103.9897073
TEAHOUSE By Soup Restaurant ,IMM Jurong East Street 21 #1-101B Singapore 609601,1.334898437,103.7467345
Pistachio ,Wheelock Place Orchard Road #2-4 Singapore 238880,1.304676283,103.830642
Wheat ,Asia Square Marina View #2-2 Singapore 18960,1.278846239,103.8511636
Wheat ,Marina One Straits View #B2-33 Singapore 18961,1.278307291,103.8507952
Wheat ,International Plaza Anson Road #1-19 Singapore 79903,1.275735681,103.8457032
Wheat ,One Raffles Place Raffles Place #B1-32 Singapore 48618,1.284333921,103.8513798
Wheat ,Raffles City North Bridge Road #B1-78 Singapore 179103,1.293760279,103.8527683
Seoul Garden ,Bugis Juction Victoria Street #2-52 Singapore 188021,1.299113161,103.8554112
Seoul Garden Hotpot ,Changi City Point Changi Business Park Central 1 #1-18 Singapore 486038,1.334325156,103.9623893
Seoul Garden Hotpot ,Bedok Mall New Upper Changi Road #B1-51 Singapore 467360,1.324772068,103.9292677
Seoul Garden Hotpot ,IMM Building Jurong East Street 21 #1-112 Singapore 609601,1.334898437,103.7467345
Seoul Garden Hotpot ,Northpoint City Yishun Ave 2 #3-6 Singapore 769098,1.42969848,103.8357765
Seoul Garden Hotpot ,Harbourfront Centre Maritime Square #2-3 Singapore 99253,1.262063364,103.8186256
Seoul Garden Hotpot ,Jurong Point - JP2 Jurong West Central 3 #B1-45 Singapore 648331,1.339364021,103.7053082
The Dining Hall,Sheraton Towers Singapore Scotts Road #- Singapore 228230,1.31195053,103.8364622
Prata Wala ,Junction 8 Shopping Centre Bishan Place #B1-24 Singapore 579837,1.350239427,103.8484776
Prata Wala ,Jurong Point Jurong West Central 3 #1-71 Singapore 648331,1.339364021,103.7053082
Prata Wala ,Nex Mall Serangoon Central #2-K05 Singapore 556083,1.350438172,103.8717045
Prata Wala ,Northpoint Mall Yishun Avenue 2 #B1-57 Singapore 769098,1.42969848,103.8357765
Prata Wala ,Tampines Mall Tampines Central 5 #B1-K21 Singapore 529510,1.352672316,103.944388
Founder Bak Kut Teh ,New Orchid Hotel Balestier Road #- Singapore 329777,1.324291281,103.8510394
Founder Bak Kut Teh ,Hotel Boss Jalan Sultan #1-9 Singapore 199020,1.305713227,103.8602667
Founder Bak Kut Teh ,North Bridge Road North Bridge Road #1-1 Singapore 188747,1.298834995,103.8561294
Founder Bak Kut Teh ,Market Square @ Downtown East E! Avanue Pasir Ris Close #1-310 Singapore 519599,1.377140734,103.9535991
A Poke Theory ,Boon Tat Street Boon Tat Street #-27 Singapore 69623,1.2812895,103.8486561
A Poke Theory ,Duo Galleria Fraser Street #-7 Singapore 189356,1.299162956,103.8578595
A Poke Theory ,One @ KentRidge Lower Kent Ridge Road #2-12 Singapore 119082,1.292774313,103.784084
A Poke Theory ,The Heart Straits View #B2-52 Singapore 18935,1.277372343,103.8528448
A Poke Theory ,Velocity Thomson Road #1-53 Singapore 307683,1.320211,103.8436568
A Poke Theory ,TripleOne Somerset Somerset Road #1-4 Singapore 238164,1.300212928,103.8372865
Warong Nasi Pariaman ,North Bridge Road North Bridge Road #- Singapore 198706,1.302880125,103.8592238
BreadTalk ,AMK Hub Ang Mo Kio Ave 3 #1-2 Singapore 569933,1.369248913,103.8483992
Burger King ,Seletar Mall Sengkang West Avenue #1-09 Singapore 797653,1.391393058,103.8760677
Burger King ,Sembawang Shopping Centre Sembawang Road #1-1 Singapore 758459,1.441767148,103.8244951
Sushi Express Heartland Mall,Heartland Mall Hougang Street 21 #2-18 Singapore 530205,1.359496643,103.8850799
Sushi Express Whitesands,Whitesands Pasir Ris Central Street 3 #3-4 Singapore 518457,1.372449816,103.9497157
Sushi Express Our Tampines Hub,Our Tampines Hub Tampines Avenue 4 #1-101 Singapore 528523,1.353496155,103.9396836
Sushi Express Waterway Point,Waterway Point Punggol Central #1-25 Singapore 828761,1.406536107,103.9019882
Sushi Express Heartbeat Bedok,Kampong Chai Chee Community Centre Bedok North Street 1 #1-26 Singapore 469662,1.326984988,103.9316206
Sushi Express Citylink Mall,Citylink Mall Raffles Link #B1-23 Singapore 39393,1.292777723,103.8541735
Sushi Express 313 Somerset,313@Somerset Orchard Road #B3-28 Singapore 238895,1.301385095,103.8376844
Sushi Express Westgate,Westgate Gateway Drive #B1-26 Singapore 608532,1.334025287,103.742586
Sushi Express IMM,IMM Jurong East Street 21 #2-63 Singapore 609601,1.334898437,103.7467345
Sushi Express Jurong Point,Jurong Point 2 Jurong West Central 3 #3-40 Singapore 648331,1.339364021,103.7053082
Sushi Express Fairprice Hub,Fairprice Hub Joo Koon Circle #2-22 Singapore 629117,1.324606646,103.6780964
Sushi Express Yew Tee Point,Yew Tee Point Choa Chu Kang North 6 #1-22 Singapore 689578,1.397301904,103.7465581
Sushi Express Hillion Mall,Hillion Mall Petir Road #1-19 Singapore 678278,1.378349713,103.7627412
Sushi Express Sun Plaza,Sun Plaza Sembawang Drive #2-23 Singapore 757713,1.448226532,103.8194621
Sushi Express Northpoint City,Northpoint City Northpoint Drive #B1-150 Singapore 768019,1.428035845,103.8360921
Sushi Takeout Woodlands Exchange,Woodlands Exchange Woodlands Avenue 2 #1-30 Singapore 738343,1.436819624,103.7860668
Sushi Takeout Grantral Mall,Grantral Mall Commonwealth Avenue West #1-16 Singapore 129581,1.31423131,103.7650976
Stovve ,Foodaxis @ Senoko Senoko Avenue #4-1 Singapore 758297,1.464311677,103.8112552
Hei Sushi ,Downtown East Pasir Ris Close #2-334 Singapore 519599,1.377140734,103.9535991
Hei Sushi ,IMM Building Jurong East Street 21 #1-K10 Singapore 609601,1.334898437,103.7467345
Hei Sushi ,Sembawang Shopping Centre Sembawang Road #1-22 Singapore 758459,1.441767148,103.8244951
Hei Sushi ,Sakae Building Tai Seng Street #1-2 Singapore 534106,1.334899535,103.8894235
Xerone Solutions ,Home Team Academy Old Chua Chu Kang Road #- Singapore 698928,1.373626409,103.7200227
Xerone Solutions ,Panasonic Singapore Bedok South Avenue 1 #- Singapore 469332,1.321936714,103.9315349
ABC 112 Katong Mall,112 Katong Mall East Coast Road #1-5 Singapore 428802,1.305223056,103.9050439
ABC Balestier Road,ABC Balestier Road Balestier Road #1-1 Singapore 329743,1.323471198,103.852356
ABC Killiney Road,ABC Killiney Road Killiney Road #1-1 Singapore 239555,1.297968,103.8384081
ABC The Metropolis,The Metropolis North Buona Vista Drive #1-12 Singapore 138588,1.306245563,103.7912375
ABC Asia Square Tower 2,Asia Square Tower 2 Marina View #1-2 Singapore 18961,1.278307291,103.8507952
ABC Vivocity,VivoCity HarbourFront Walk #1-163 Singapore 98585,1.263895802,103.8215893
Burger King ,"Terminal 1 Singapore Changi Airport Airport Boulevard, Viewing Mall East #3-23 Singapore 819642",1.362491004,103.9897073
Burger King ,"Terminal 1 Singapore Changi Airport Airport Boulevard, Departure,Transit Lounge West, Mezzanine Level #3-2 Singapore 819642",1.362491004,103.9897073
Burger King ,"Changi Airport Terminal 3 Airport Boulevard, Departure,Transit Lounge North, Mezzanine Level #L03AF11- Singapore 819663",1.354370736,103.9851697
Burger King ,"Changi Airport Terminal 4 Airport Boulevard, Departure,Transit Lounge, Level 2 Mezzanine #2-228 Singapore 819665",1.338008134,103.9834828
Burger King ,PSA Building Alexandra Road #1-17 Singapore 119963,1.273676578,103.801127
Burger King ,AMK Hub Ang Mo Kio Avenue 3 #1-40 Singapore 569933,1.369248913,103.8483992
Burger King ,Bugis Village Victoria Street #- Singapore 188030,1.300433187,103.8552801
Burger King ,Bukit Batok East Community Club Bukit Batok East Avenue 4 #1-1 Singapore 659841,1.348987388,103.7581958
Burger King ,Bukit Panjang Plaza Jelebu Road #1-28 Singapore 677743,1.380517328,103.7639619
Burger King ,Burlington Square Bencoolen Street #1-1 Singapore 189649,1.302229515,103.8525381
Burger King ,Capitol Piazza Stamford Road #B1-30 Singapore 178905,1.29307884,103.851262
Burger King ,Cathay Cineleisure Orchard Grange Road #1-7 Singapore 239695,1.301521016,103.8364297
Burger King ,Compass One Sengkang Square #B1-14 Singapore 545078,1.39209415,103.89498
Burger King ,Fairprice Hub Joo Koon Circle #1-51 Singapore 629117,1.324606646,103.6780964
Burger King ,Fuchun CC Woodlands Street 31 #1-1 Singapore 629117,1.324606646,103.6780964
Seoul Garden ,Marina Suare Raffles Boulevard #3-210 Singapore 39594,1.291455259,103.8570073
Seoul Garden ,TampinesMall Tampines Central #4-1 Singapore 529510,1.352672316,103.944388
Seoul Garden ,Northpoit City Yishun Avenue 2 #3-5 Singapore 769098,1.42969848,103.8357765
Seoul Garden ,NEX Serangoon Central #B1-34 Singapore 556083,1.350438172,103.8717045
Seoul Garden ,Harbourfont Centre Maritime Square #1-65 Singapore 99253,1.262063364,103.8186256
Seoul Garden ,Jurong Point Jurong West Central 3 #B1-45 Singapore 648331,1.339364021,103.7053082
Golden Class √Ç¬ÆSuntec,Suntec City Mall Tamasek Boulevard #3-373 Singapore 38983,1.294879041,103.8576755
Golden Class √Ç¬ÆVivo,VivoCity Harbourfront Walk #2-30 Singapore 98585,1.263895802,103.8215893
"Golden Class √Ç¬ÆKatong (Close for 1 year, from 1 March 2020 onwards)",112 Katong East Coast Road #4-9 Singapore 428802,1.305223056,103.9050439
Golden Class √Ç¬ÆGrand,Great World City Kim Seng Promenade #3-29 Singapore 237994,1.293802346,103.8317579
Hokey Poki ,Paya Lebar Quarter Mall Paya Lebar Rd #B2-10 Singapore 409057,1.317523841,103.8927244
Idaten Udon ,Changi City Point Changi Business Park Central 1 #B1-1 Singapore 486038,1.334325156,103.9623893
Idaten Udon ,Citylink Mall Raffles Link #B1-21 Singapore 39393,1.292777723,103.8541735
Idaten Udon ,IMM Jurong East Street 21 #2-52 Singapore 609601,1.334898437,103.7467345
Idaten Udon ,NEX Serangoon Central #B1-223 Singapore 556083,1.350438172,103.8717045
Idaten Udon ,Tampines 1 Tampines Central 1 #B1-7 Singapore 529536,1.35431556,103.9450195
Kebabs Faktory ,One Shenton Way Shenton Way #1-6 Singapore 68803,1.279294905,103.8505526
Kebabs Faktory ,Launchpad Ayer Rajah Crescent #1-34 Singapore 139957,1.297379656,103.7873459
Punjab Grill ,Bayfront Avenue Bayfront Avenue #B1-1A Singapore 18972,1.283322493,103.8576291
My Kampung Chicken Rice ,Junction 9 Yishun Avenue 9 #2-1 Singapore 768897,1.433031973,103.8416008
My Kampung Chicken Rice ,The Seletar Mall Sengkang West Avenue #B2-7 Singapore 797653,1.391393058,103.8760677
My Kampung Chicken Rice ,Heartbeat @ Bedok Bedok North Street 1 #1-28 Singapore 469662,1.326984988,103.9316206
My Kampung Chicken Rice ,Kampung Admiralty Chicken Rice Woodlands Drive 71 #2-39 Singapore 730676,1.439916082,103.8007012
My Kampung Chicken Rice ,Wisteria Mall Yishun Avenue 4 #1-20 Singapore 760664,1.420199866,103.8410747
My Kampung Chicken Rice ,Kallang Wave Mall Stadium Place #2-16 Singapore 397628,1.303843268,103.8727507
My Kampung Chicken Rice ,J Cube Jurong East Central 1 #B1-K4 Singapore 609731,1.333268187,103.7401767
My Kampung Chicken Rice ,Ang Mo Kio Hub Ang Mo Kio Avenue 3 #B2-46 Singapore 569933,1.369248913,103.8483992
My Kampung Chicken Rice ,NTU Fine Food Canteen  #- Singapore 639798,1.346764651,103.6788181
Arbora , Mount Faber Road #- Singapore 99203,1.271273262,103.8194093
Wafuken ,Asia Square Tower 2 Marina View #2-5 Singapore 18961,1.278307291,103.8507952
Wafuken ,OUE Downtown Gallery Shenton Way #2-23 Singapore 68815,1.277439268,103.8486876
Wafuken ,Alice @ Mediapolis Media Circle #1-2 Singapore 138565,1.293781805,103.7930171
Starbucks ,NUS University Town College Avenue West #B1-1 Singapore 138608,1.305521967,103.7731435
Starbucks ,Mount Elizabeth Novena Hospital Irrawaddy Road #1-14 Singapore 329563,1.322140051,103.8442124
Starbucks ,NUH Medical Centre Lower Kent Ridge Road #3-12 Singapore 119082,1.292774313,103.784084
Starbucks ,NTU North Spine Nanyang Drive #1-6 Singapore 637331,1.347130438,103.6800338
Starbucks ,Changi General Hospital Simei Street 3 #1- Singapore 529905,1.341318526,103.9481934
Starbucks ,Raffles Hospital North Bridge Road #1-9 Singapore 188770,1.301255712,103.8568129
Starbucks ,SIM Clementi Road #1-7 Singapore 599491,1.329191998,103.7757011
Starbucks ,Ng Teng Fong Hospital Jurong East Street 21 #2-8 Singapore 609606,1.335533819,103.7438655
Starbucks ,Singapore Polytechnic Dover Road #1- Singapore 139651,1.311239948,103.7744714
Pizza Hut ,NTU Nanyang Drive blk N2.1 #1-4 Singapore 637331,1.347130438,103.6800338
Burger King ,Suntec City Mall Temasek Boulevard #3-371 Singapore 38983,1.294879041,103.8576755
Burger King ,Tampines Mall Tampines Central #1-42 Singapore 529510,1.352672316,103.944388
Burger King ,Tampines North Community Club Tampines Street 41 #1-2 Singapore 529204,1.357273979,103.9466515
Burger King ,The Central Eu Tong Sen Street #1-23 to 26 Singapore 59817,1.288862917,103.846556
Burger King ,Tiong Bahru Plaza Tiong Bahru Road #1-106 Singapore 168732,1.286463453,103.8269351
Burger King ,Viva Business Park Chai Chee Road #1-2 Singapore 469000,1.32365172,103.922103
Burger King ,VivoCity Harbourfront Walk #2-80 Singapore 98585,1.263895802,103.8215893
Pasta on Wheels ,Alexandra Hospital 378 Alexandra Rd #- Singapore 159964,1.288122201,103.7994448
Papparich ,Parkway Parade Marine Parade Road #1-17A Singapore 449269,1.301191307,103.9051136
Papparich ,Kinex Tanjong Katong Rd #1-60 Singapore 437157,1.314692127,103.8944805
Papparich ,Westgate Gateway Drive #3-6 Singapore 608532,1.334025287,103.742586
Papparich Express ,Novotel on Stevens Stevens Road #1-6 Singapore 257840,1.314056662,103.8278163
Papparich ,Suntec City Mall Temasek Boulevard #2-386 Singapore 38983,1.294879041,103.8576755
Papparich Express  ,Harbourfront Centre Maritime Square #1-45 Singapore 99253,1.262063364,103.8186256
Papparich ,Waterway Point Punggol Central #B1-17 Singapore 828761,1.406536107,103.9019882
Partea ,Suntec Tower 2 Temasek Boulevard #2-470 Singapore 38983,1.294879041,103.8576755
Partea ,Waterway Point Punggol Central #B1-K4 Singapore 828761,1.406536107,103.9019882
Partea ,Tampines Century Square Tampines Central 5 #B1-30 Singapore 529509,1.352278032,103.9437277
Partea ,Clifford Centre Raffles Place #B1-2 Singapore 48621,1.283856981,103.8521282
Partea ,OUE Downtown Gallery Shenton Way #3-29 Singapore 68809,1.2769807,103.8484086
Partea ,Changi Airport Terminal 4 Airport Boulevard #2-205 Singapore 819665,1.338008134,103.9834828
Foreword Coffee ,Centre for Health Innovation Jalan Tan Tock Seng #4-1 Singapore 308442,1.32139722,103.8477982
Foreword Coffee ,Civil Service College North Buona Vista Road #1- Singapore 275983,1.309629595,103.7918027
Foreword Coffee ,Temasek Shophouse Orchard Road #1- Singapore 238832,1.299102414,103.8465404